,Unnamed: 0,Address,Name,City State ZIP,ZIP,Number of Sites,Url,ZIP_str,FULL Address,latitude,longitude,House district,Senate district
0,0,",",Paradise Lane,"1522 Wilkes Ave, IL",62305.0,Not found,https://www.mhvillage.com/parks/128978,62305,",1522 Wilkes Ave, IL, 62305",39.9923959,-91.3895046,99.0,50.0
1,1,",",Swansea MHP,"Swansea, IL",62226.0,Not found,https://www.mhvillage.com/parks/129240,62226,",Swansea, IL, 62226",38.5339392,-89.9889936,113.0,57.0
2,2,"1 Birch Drive,",Wildwood Estates,"Sandwich, IL",60548.0,476,https://www.mhvillage.com/parks/83,60548,"1 Birch Drive,Sandwich, IL, 60548",,,0.0,0.0
3,3,"1 C Circle Dr,",Country Circle Trailer Park,"Murphysboro, IL",62966.0,Not found,https://www.mhvillage.com/parks/57793,62966,"1 C Circle Dr,Murphysboro, IL, 62966",,,0.0,0.0
4,4,"1 Coachlight Dr,",Coachlight Mobile Home Park,"Danville, IL",61832.0,Not found,https://www.mhvillage.com/parks/57662,61832,"1 Coachlight Dr,Danville, IL, 61832",,,0.0,0.0
5,5,"1 Dars Road,",Greentree Mobile Home Park,"Murphysboro, IL",62966.0,Not found,https://www.mhvillage.com/parks/36811,62966,"1 Dars Road,Murphysboro, IL, 62966",,,0.0,0.0
6,6,"1 Esquire Est,",Esquire Estates Mobile Home Park,"Brimfield, IL",61517.0,Not found,https://www.mhvillage.com/parks/11145,61517,"1 Esquire Est,Brimfield, IL, 61517",,,0.0,0.0
7,7,"1 Fern St.,","Spruce Commons MHC, LLC","Urbana, IL",61802.0,34,https://www.mhvillage.com/parks/110926,61802,"1 Fern St.,Urbana, IL, 61802",,,0.0,0.0
8,8,"1 Fountain Ln,",Ron's Court,"Red Bud, IL",62278.0,Not found,https://www.mhvillage.com/parks/107376,62278,"1 Fountain Ln,Red Bud, IL, 62278",,,0.0,0.0
9,9,"1 Fountain Valley,",Fountain Valley,"Rantoul, IL",61866.0,190,https://www.mhvillage.com/parks/10218,61866,"1 Fountain Valley,Rantoul, IL, 61866",40.281206,-88.169653,104.0,52.0
10,10,"1 Happy Ours Ln,",Happy Ours Trailer Court,"Murphysboro, IL",62966.0,Not found,https://www.mhvillage.com/parks/57785,62966,"1 Happy Ours Ln,Murphysboro, IL, 62966",,,0.0,0.0
11,11,"1 Lakeview Road,",Lakeview Ranch,"Gays, IL",61928.0,137,https://www.mhvillage.com/parks/74510,61928,"1 Lakeview Road,Gays, IL, 61928",,,0.0,0.0
12,12,"1 Maple City Trailer Ct,",Maple City Mobile Home Park,"Geneseo, IL",61254.0,39,https://www.mhvillage.com/parks/10582,61254,"1 Maple City Trailer Ct,Geneseo, IL, 61254",41.4468505,-90.164244,73.0,37.0
13,13,"1 Maple Valley,",Maple Ridge Mobile Home Park,"Manteno, IL",60950.0,276,https://www.mhvillage.com/parks/57826,60950,"1 Maple Valley,Manteno, IL, 60950",,,0.0,0.0
14,14,"1 N Walnut St,",Harris Mobile Home Court,"Freeburg, IL",62243.0,Not found,https://www.mhvillage.com/parks/11387,62243,"1 N Walnut St,Freeburg, IL, 62243",38.426417,-89.916028,114.0,57.0
15,15,"1 Parkview Trailer Court,",Parkview Mobile Home Court,"Tuscola, IL",61953.0,30,https://www.mhvillage.com/parks/10468,61953,"1 Parkview Trailer Court,Tuscola, IL, 61953",,,0.0,0.0
16,16,"1 Pheasant Circle,",Pheasant Lake Estates,"Beecher, IL",60401.0,613,https://www.mhvillage.com/parks/87,60401,"1 Pheasant Circle,Beecher, IL, 60401",41.3559651,-87.6123478,29.0,15.0
17,17,"1 Saddlebrook Drive,",Saddlebrook Farms,"Grayslake, IL",60030.0,1775,https://www.mhvillage.com/parks/75235,60030,"1 Saddlebrook Drive,Grayslake, IL, 60030",,,0.0,0.0
18,18,"1 Silver Circle,",Maple Valley,"Manteno, IL",60950.0,201,https://www.mhvillage.com/parks/10713,60950,"1 Silver Circle,Manteno, IL, 60950",41.255479,-87.826694,29.0,15.0
19,19,"1 Timber Creek Drive,",Villas Of Timber Creek,"Round Lake, IL",60073.0,247,https://www.mhvillage.com/parks/10813,60073,"1 Timber Creek Drive,Round Lake, IL, 60073",,,0.0,0.0
20,20,"1 Wheel Ranch Park,",Wheel Ranch Mobile Home Park,"Glen Carbon, IL",62034.0,32,https://www.mhvillage.com/parks/10945,62034,"1 Wheel Ranch Park,Glen Carbon, IL, 62034",,,0.0,0.0
21,21,"10 Susanne Court,",Countryside Gardens,"Caseyville, IL",62232.0,Not found,https://www.mhvillage.com/parks/11344,62232,"10 Susanne Court,Caseyville, IL, 62232",38.640365,-90.034095,112.0,56.0
22,22,"100 First Street,",Spring Lake Mobile Home Estates,"Bartlett, IL",60103.0,511,https://www.mhvillage.com/parks/10341,60103,"100 First Street,Bartlett, IL, 60103",,,0.0,0.0
23,23,"100 Forest View Drive,",Forest View Manor Manufactured Home Park,"Genoa, IL",60135.0,100,https://www.mhvillage.com/parks/10439,60135,"100 Forest View Drive,Genoa, IL, 60135",42.091874,-88.697402,89.0,45.0
24,24,"100 Julius Dr.,",Valley View Estates,"Shiloh, IL",62269.0,233,https://www.mhvillage.com/parks/11690,62269,"100 Julius Dr.,Shiloh, IL, 62269",,,0.0,0.0
25,25,"100 N Rolling Green Lane,",Rolling Green Estates,"Rochelle, IL",61068.0,86,https://www.mhvillage.com/parks/11132,61068,"100 N Rolling Green Lane,Rochelle, IL, 61068",,,0.0,0.0
26,26,"100 Pinewood Estates,",Pinewood Estates,"Chillicothe, IL",61523.0,206,https://www.mhvillage.com/parks/11141,61523,"100 Pinewood Estates,Chillicothe, IL, 61523",,,0.0,0.0
27,27,"100 S Main St,",Buffalo Court,"Buffalo, IL",62515.0,23,https://www.mhvillage.com/parks/106886,62515,"100 S Main St,Buffalo, IL, 62515",,,0.0,0.0
28,28,"100 S Main St,",Niantic Mobile Home Community,"Niantic, IL",62551.0,Not found,https://www.mhvillage.com/parks/106932,62551,"100 S Main St,Niantic, IL, 62551",39.8522932,-89.168388,87.0,44.0
29,29,"100 S Wesley Dr,",Neumann's Old Oak Ridge Manufactured Home Community,"East Alton, IL",62024.0,54,https://www.mhvillage.com/parks/10951,62024,"100 S Wesley Dr,East Alton, IL, 62024",,,0.0,0.0
30,30,"100 Tanglewood Dr.,",Knollwood Estates Manufactured Home Community,"Freeport, IL",61032.0,300,https://www.mhvillage.com/parks/11426,61032,"100 Tanglewood Dr.,Freeport, IL, 61032",42.27497,-89.614999,90.0,45.0
31,31,"1000 East Kinzie Street,",Hilltop Mobile Home Park,"Riverton, IL",62561.0,170,https://www.mhvillage.com/parks/11246,62561,"1000 East Kinzie Street,Riverton, IL, 62561",39.849549,-89.532923,108.0,54.0
32,32,"1000 West South 10th Street,",Sunnyside Mobile Estates,"Shelbyville, IL",62565.0,Not found,https://www.mhvillage.com/parks/11303,62565,"1000 West South 10th Street,Shelbyville, IL, 62565",39.3991544,-88.8038283,107.0,54.0
33,33,"1001 Evans St,",Kings Mobile Home Court,"Ottawa, IL",61350.0,Not found,https://www.mhvillage.com/parks/57762,61350,"1001 Evans St,Ottawa, IL, 61350",41.3612263,-88.8545803,76.0,38.0
34,34,"10015 North Wolf Creek Road,",Hickory Leaf Mobile Home Park,"Carterville, IL",62918.0,Not found,https://www.mhvillage.com/parks/11594,62918,"10015 North Wolf Creek Road,Carterville, IL, 62918",,,0.0,0.0
35,35,"1005 West Lafayette Street,",Sugar Creek Mobile Home Community,"Watseka, IL",60970.0,46,https://www.mhvillage.com/parks/10594,60970,"1005 West Lafayette Street,Watseka, IL, 60970",40.7798686,-87.7490051,106.0,53.0
36,36,"10055 Us Hwy 45,",Green Acres MHC,"Mattoon, IL",61938.0,Not found,https://www.mhvillage.com/parks/106842,61938,"10055 Us Hwy 45,Mattoon, IL, 61938",,,0.0,0.0
37,37,"1006 E Franklin St,",Big Oak Mh Park,"Taylorville, IL",62568.0,Not found,https://www.mhvillage.com/parks/57669,62568,"1006 E Franklin St,Taylorville, IL, 62568",39.5473645,-89.2833635,107.0,54.0
38,38,"1008 E Main St,",East Main Trailer Park,"Knoxville, IL",61448.0,Not found,https://www.mhvillage.com/parks/57847,61448,"1008 E Main St,Knoxville, IL, 61448",40.9078215,-90.2642614,71.0,36.0
39,39,"1009 W. Bay Road, Office #24,",Harbor Lites,"McHenry, IL",60051.0,50,https://www.mhvillage.com/parks/11047,60051,"1009 W. Bay Road, Office #24,McHenry, IL, 60051",,,0.0,0.0
40,40,"101 Dewey Street,","Surbana Estates MHC, LLC","Urbana, IL",61802.0,95,https://www.mhvillage.com/parks/10262,61802,"101 Dewey Street,Urbana, IL, 61802",40.11243,-88.17268,103.0,52.0
41,41,"101 E 1st St,",Henry's Court Mobile Home Park,"Ruma, IL",62278.0,Not found,https://www.mhvillage.com/parks/107004,62278,"101 E 1st St,Ruma, IL, 62278",,,0.0,0.0
42,42,"101 Harting Drive,",Centralia Estates,"Centralia, IL",62801.0,20,https://www.mhvillage.com/parks/128976,62801,"101 Harting Drive,Centralia, IL, 62801",38.533945,-89.175334,110.0,55.0
43,43,"101 W. Pearl St.,",sold,"Farmington, IL",61531.0,55,https://www.mhvillage.com/parks/10538,61531,"101 W. Pearl St.,Farmington, IL, 61531",40.703678,-90.007054,94.0,47.0
44,44,"102 Filbert Drive,",Meadows Of Bloomington,"Bloomington, IL",61705.0,190,https://www.mhvillage.com/parks/11057,61705,"102 Filbert Drive,Bloomington, IL, 61705",,,0.0,0.0
45,45,"1020 Birch Avenue,",Park Manor,"Pana, IL",62557.0,Not found,https://www.mhvillage.com/parks/10271,62557,"1020 Birch Avenue,Pana, IL, 62557",39.3854685,-89.0668198,107.0,54.0
46,46,"1020 West 6th Avenue,",Cokel's Mobile Home Park,"Monmouth, IL",61462.0,Not found,https://www.mhvillage.com/parks/11518,61462,"1020 West 6th Avenue,Monmouth, IL, 61462",40.9058896,-90.6598374,71.0,36.0
47,47,"1027 East Railroad Street,",Sandwich Mobile Home Park,"Sandwich, IL",60548.0,Not found,https://www.mhvillage.com/parks/10445,60548,"1027 East Railroad Street,Sandwich, IL, 60548",41.645994,-88.6089669,75.0,38.0
48,48,"1028 Blue Lake Avenue,",Rockford Mobile Home Park,"Rockford, IL",61102.0,Not found,https://www.mhvillage.com/parks/11639,61102,"1028 Blue Lake Avenue,Rockford, IL, 61102",42.1873625,-89.1621149,67.0,34.0
49,49,"103 Hollyhock Lane,",Broadview Communities Lake Wildwind,"Metamora, IL",61548.0,140,https://www.mhvillage.com/parks/11658,61548,"103 Hollyhock Lane,Metamora, IL, 61548",,,0.0,0.0
50,50,"103 Southern Dr,",Mc Nallys Mh Community,"Caseyville, IL",62232.0,Not found,https://www.mhvillage.com/parks/11345,62232,"103 Southern Dr,Caseyville, IL, 62232",,,0.0,0.0
51,51,"1030 Us Route 45,",J & L Estates,"Neoga, IL",62447.0,110,https://www.mhvillage.com/parks/1541,62447,"1030 Us Route 45,Neoga, IL, 62447",39.2961217,-88.4633472,107.0,54.0
52,52,"1032 South 7th Street,",Southmoor Estates Manufactured Home Community,"Dekalb, IL",60115.0,100,https://www.mhvillage.com/parks/10438,60115,"1032 South 7th Street,Dekalb, IL, 60115",41.917241,-88.7480499,76.0,38.0
53,53,"1033 E Morton Ave,",Pleasant View Mobile Home Park,"Jacksonville, IL",62650.0,Not found,https://www.mhvillage.com/parks/57855,62650,"1033 E Morton Ave,Jacksonville, IL, 62650",39.7231423,-90.2170507,99.0,50.0
54,54,"1035 Rim Rd,",Mission Mobil Park,"Quincy, IL",62305.0,Not found,https://www.mhvillage.com/parks/57735,62305,"1035 Rim Rd,Quincy, IL, 62305",,,0.0,0.0
55,55,"1037 East Water Street,",Oakridge Park,"Pontiac, IL",61764.0,Not found,https://www.mhvillage.com/parks/10859,61764,"1037 East Water Street,Pontiac, IL, 61764",40.878812,-88.614757,105.0,53.0
56,56,"1039 W Main St,",B & East Mobile Home Court,"Olney, IL",62450.0,Not found,https://www.mhvillage.com/parks/57771,62450,"1039 W Main St,Olney, IL, 62450",38.7300656,-88.0985443,110.0,55.0
57,57,"104 East Woodcrest Drive,",Carriage Lane Mobile Home Park,"Collinsville, IL",62234.0,Not found,https://www.mhvillage.com/parks/10935,62234,"104 East Woodcrest Drive,Collinsville, IL, 62234",38.6982438,-89.983789,112.0,56.0
58,58,"104 Enterprise Dr,",All Seasons,"Chenoa, IL",61726.0,Not found,https://www.mhvillage.com/parks/106788,61726,"104 Enterprise Dr,Chenoa, IL, 61726",40.743216,-88.731747,106.0,53.0
59,59,"104 Greenwood Ave,",Greenwood Terrace,"Bloomington, IL",61704.0,97,https://www.mhvillage.com/parks/11053,61704,"104 Greenwood Ave,Bloomington, IL, 61704",40.4588085,-89.0016388,88.0,44.0
60,60,"1040 42nd Avenue,",Village on the Avenue,"East Moline, IL",61244.0,Not found,https://www.mhvillage.com/parks/11209,61244,"1040 42nd Avenue,East Moline, IL, 61244",,,0.0,0.0
61,61,"10401 Southwest Highway,",Southwest Estates,"Worth, IL",60482.0,111,https://www.mhvillage.com/parks/10423,60482,"10401 Southwest Highway,Worth, IL, 60482",41.7017032,-87.7915679,36.0,18.0
62,62,"1042 East Morton Avenue,",Rolling Acres,"Jacksonville, IL",62650.0,156,https://www.mhvillage.com/parks/11113,62650,"1042 East Morton Avenue,Jacksonville, IL, 62650",39.7231422,-90.2169705,99.0,50.0
63,63,"1042 W Rush Rd,",Woodland Valley Courts,"Hanover, IL",61041.0,Not found,https://www.mhvillage.com/parks/57872,61041,"1042 W Rush Rd,Hanover, IL, 61041",42.206342,-90.2331947,89.0,45.0
64,64,"1045 West Harrison Avenue,",Harrison Mobile Home Park,"Decatur, IL",62526.0,Not found,https://www.mhvillage.com/parks/10883,62526,"1045 West Harrison Avenue,Decatur, IL, 62526",,,0.0,0.0
65,65,"105 Ann St,",Paris Mh Park,"Paris, IL",61944.0,Not found,https://www.mhvillage.com/parks/57757,61944,"105 Ann St,Paris, IL, 61944",39.619713,-87.694154,102.0,51.0
66,66,"10557 N Route 50,",Harvest Estates,"Manteno, IL",60950.0,Not found,https://www.mhvillage.com/parks/106826,60950,"10557 N Route 50,Manteno, IL, 60950",,,0.0,0.0
67,67,"10557 North State Route 50,",Bill's Mobile Court,"Manteno, IL",60950.0,Not found,https://www.mhvillage.com/parks/10707,60950,"10557 North State Route 50,Manteno, IL, 60950",,,0.0,0.0
68,68,"10576 Keck Rd,",Cottonwood Trailer Park,"Saint Jacob, IL",62281.0,Not found,https://www.mhvillage.com/parks/107290,62281,"10576 Keck Rd,Saint Jacob, IL, 62281",,,0.0,0.0
69,69,"106 East Jefferson Street,",Imperial MHP,"Shorewood, IL",60404.0,184,https://www.mhvillage.com/parks/36813,60404,"106 East Jefferson Street,Shorewood, IL, 60404",41.5216351,-88.1973496,86.0,43.0
70,70,"10620 1st Street West,",Oak Grove Mobile Home Park,"Milan, IL",61264.0,Not found,https://www.mhvillage.com/parks/11219,61264,"10620 1st Street West,Milan, IL, 61264",41.4134402,-90.5708944,71.0,36.0
71,71,"107 N Grant,",G&C Estates,"Seymour, IL",61875.0,Not found,https://www.mhvillage.com/parks/107046,61875,"107 N Grant,Seymour, IL, 61875",40.1063734,-88.4283111,101.0,51.0
72,72,"108 Fairview Avenue,",Fairview Mobile Home Park,"East Peoria, IL",61611.0,Not found,https://www.mhvillage.com/parks/11438,61611,"108 Fairview Avenue,East Peoria, IL, 61611",40.6679369,-89.5697458,91.0,46.0
73,73,"1085 Spring Bay Road,",Broadview Estates East Peoria,"East Peoria, IL",61611.0,148,https://www.mhvillage.com/parks/11439,61611,"1085 Spring Bay Road,East Peoria, IL, 61611",,,0.0,0.0
74,74,"109 South High Street,",Shiloh Mobile Home Park,"O Fallon, IL",62269.0,52,https://www.mhvillage.com/parks/11419,62269,"109 South High Street,O Fallon, IL, 62269",,,0.0,0.0
75,75,"109 South Pearl Street,",Whitehouse Mobile Home Park,"Atkinson, IL",61235.0,25,https://www.mhvillage.com/parks/37543,61235,"109 South Pearl Street,Atkinson, IL, 61235",,,0.0,0.0
76,76,"10978 East Fisher Road,",Shangri La Mobile Home Park,"Rochelle, IL",61068.0,165,https://www.mhvillage.com/parks/11133,61068,"10978 East Fisher Road,Rochelle, IL, 61068",,,0.0,0.0
77,77,"1099 Oak Ridge Drive,",Oak Ridge,"Manteno, IL",60950.0,426,https://www.mhvillage.com/parks/39079,60950,"1099 Oak Ridge Drive,Manteno, IL, 60950",41.241867,-87.823912,29.0,15.0
78,78,"11 Fern Lane,",Airline Mh Village,"East Alton, IL",62024.0,Not found,https://www.mhvillage.com/parks/10947,62024,"11 Fern Lane,East Alton, IL, 62024",,,0.0,0.0
79,79,"110 6th St,",Quinns Mobile Home Park,"Carlyle, IL",62231.0,Not found,https://www.mhvillage.com/parks/58037,62231,"110 6th St,Carlyle, IL, 62231",38.6064303,-89.3649801,110.0,55.0
80,80,"110 N Acre Ln # 450,",Watkins Mobile Home Park,"Jonesboro, IL",62952.0,Not found,https://www.mhvillage.com/parks/57850,62952,"110 N Acre Ln # 450,Jonesboro, IL, 62952",,,0.0,0.0
81,81,"1100 Carondelet Road,",Chateau Estates,"Dixon, IL",61021.0,160,https://www.mhvillage.com/parks/10839,61021,"1100 Carondelet Road,Dixon, IL, 61021",41.834703,-89.461198,74.0,37.0
82,82,"1100 Gragg St,",Town And Country Mh Park,"Centralia, IL",62801.0,Not found,https://www.mhvillage.com/parks/10992,62801,"1100 Gragg St,Centralia, IL, 62801",38.53826,-89.1205131,110.0,55.0
83,83,"1100 North Postville Drive,",Shady Grove Mobile Park,"Lincoln, IL",62656.0,Not found,https://www.mhvillage.com/parks/10867,62656,"1100 North Postville Drive,Lincoln, IL, 62656",40.1597318,-89.386457,87.0,44.0
84,84,"1100 Rural St,",Margarets Hi-Acre,"Aurora, IL",60505.0,100,https://www.mhvillage.com/parks/58112,60505,"1100 Rural St,Aurora, IL, 60505",41.7699733,-88.2888185,50.0,25.0
85,85,"1100 W Locust St.,",Woodland Hills Land Lease Community,"Canton, IL",61520.0,131,https://www.mhvillage.com/parks/10534,61520,"1100 W Locust St.,Canton, IL, 61520",40.56032,-90.060864,94.0,47.0
86,86,"1100 W Sturgeon Ln,",Maplewood Mobile Estates,"Chillicothe, IL",61523.0,Not found,https://www.mhvillage.com/parks/57996,61523,"1100 W Sturgeon Ln,Chillicothe, IL, 61523",40.9241738,-89.4991014,105.0,53.0
87,87,"1104 N Lott Blvd,",Carriage Lane Mobile Home Park,"Gibson City, IL",60936.0,46,https://www.mhvillage.com/parks/10510,60936,"1104 N Lott Blvd,Gibson City, IL, 60936",40.4778403,-88.3720628,106.0,53.0
88,88,"1105 North 79th Street,",K & W,"East Saint Louis, IL",62203.0,Not found,https://www.mhvillage.com/parks/11368,62203,"1105 North 79th Street,East Saint Louis, IL, 62203",38.5977582,-90.0673785,114.0,57.0
89,89,"1106 Lickliter Street,",Section Two Trailer Park,"Benton, IL",62812.0,Not found,https://www.mhvillage.com/parks/10516,62812,"1106 Lickliter Street,Benton, IL, 62812",37.9860739,-88.9179326,116.0,58.0
90,90,"1106-1218 Rim Road,",Valley View Mobile Home Park,"Quincy, IL",62305.0,54,https://www.mhvillage.com/parks/10146,62305,"1106-1218 Rim Road,Quincy, IL, 62305",,,0.0,0.0
91,91,"111 New St,",Evergreen Estates,"Pinckneyville, IL",62274.0,Not found,https://www.mhvillage.com/parks/107000,62274,"111 New St,Pinckneyville, IL, 62274",38.0695456,-89.3799619,115.0,58.0
92,92,"111 South 13th Avenue,",Mendota Mobile Home Park,"Mendota, IL",61342.0,75,https://www.mhvillage.com/parks/10752,61342,"111 South 13th Avenue,Mendota, IL, 61342",41.5404483,-89.124833,74.0,37.0
93,93,"1110 Sandusky Rd.,",Northwood,"Jacksonville, IL",62650.0,176,https://www.mhvillage.com/parks/11725,62650,"1110 Sandusky Rd.,Jacksonville, IL, 62650",,,0.0,0.0
94,94,"11122 Station Street,",Paradise Park,"Garden Prairie, IL",61038.0,270,https://www.mhvillage.com/parks/105900,61038,"11122 Station Street,Garden Prairie, IL, 61038",42.2542267,-88.7211657,69.0,35.0
95,95,"1116 South West Street,",Olney Mobile Home Park,"Olney, IL",62450.0,48,https://www.mhvillage.com/parks/11199,62450,"1116 South West Street,Olney, IL, 62450",38.726171,-88.0940998,110.0,55.0
96,96,"112 Wallace Avenue,",Briggs Mobile Home Park,"Dupo, IL",62239.0,14,https://www.mhvillage.com/parks/11349,62239,"112 Wallace Avenue,Dupo, IL, 62239",38.514943,-90.2121698,114.0,57.0
97,97,"1120 North 79th Street,",Park Manor Estates,"East Saint Louis, IL",62203.0,Not found,https://www.mhvillage.com/parks/11374,62203,"1120 North 79th Street,East Saint Louis, IL, 62203",38.605465,-90.064489,113.0,57.0
98,98,"113 Chestnut Street,",JD Singleton Mobile Home Court,"Lincoln, IL",62656.0,Not found,https://www.mhvillage.com/parks/10871,62656,"113 Chestnut Street,Lincoln, IL, 62656",40.1535666,-89.3699342,87.0,44.0
99,99,"1134 E Pleasant Hill Rd,",Bush Mobile Home Park,"Carbondale, IL",62902.0,Not found,https://www.mhvillage.com/parks/58052,62902,"1134 E Pleasant Hill Rd,Carbondale, IL, 62902",37.700181,-89.204547,118.0,59.0
100,100,"114 Hidden Acres Road,",Hidden Acres Mobile Home Park,"Metropolis, IL",62960.0,39,https://www.mhvillage.com/parks/11716,62960,"114 Hidden Acres Road,Metropolis, IL, 62960",,,0.0,0.0
101,101,"1140 North Century Boulevard,",Abe's Estates,"Rantoul, IL",61866.0,Not found,https://www.mhvillage.com/parks/10213,61866,"1140 North Century Boulevard,Rantoul, IL, 61866",,,0.0,0.0
102,102,"1147 Rural Street,",Breazeale Trailer Park,"Aurora, IL",60505.0,Not found,https://www.mhvillage.com/parks/10676,60505,"1147 Rural Street,Aurora, IL, 60505",41.7699862,-88.2877832,50.0,25.0
103,103,"1149 South Mill Street,",Nashville Mobile Home Park,"Nashville, IL",62263.0,64,https://www.mhvillage.com/parks/11525,62263,"1149 South Mill Street,Nashville, IL, 62263",,,0.0,0.0
104,104,"115 E Main St,",Three Acre Court,"Staunton, IL",62088.0,Not found,https://www.mhvillage.com/parks/57685,62088,"115 E Main St,Staunton, IL, 62088",39.0122223,-89.7869273,108.0,54.0
105,105,"1150 Briden Drive,",Indian Trails,"Marengo, IL",60152.0,167,https://www.mhvillage.com/parks/11045,60152,"1150 Briden Drive,Marengo, IL, 60152",42.2472844,-88.6227856,69.0,35.0
106,106,"1166 Hollywood Heights Road,",Willow Woods Estates,"Caseyville, IL",62232.0,41,https://www.mhvillage.com/parks/11347,62232,"1166 Hollywood Heights Road,Caseyville, IL, 62232",38.6370332,-89.9881926,112.0,56.0
107,107,"1168 N Grove St,",Gas Lite Village,"Virden, IL",62690.0,Not found,https://www.mhvillage.com/parks/106770,62690,"1168 N Grove St,Virden, IL, 62690",39.5153903,-89.7703508,108.0,54.0
108,108,"11701 S Ridgeland Ave,",Arrow Ridge Estates,"Worth, IL",60482.0,93,https://www.mhvillage.com/parks/75081,60482,"11701 S Ridgeland Ave,Worth, IL, 60482",41.677843,-87.778181,35.0,18.0
109,109,"11707 North 2nd Street,",Forest View,"Machesney Park, IL",61115.0,331,https://www.mhvillage.com/parks/104511,61115,"11707 North 2nd Street,Machesney Park, IL, 61115",42.3861555,-89.0182669,90.0,45.0
110,110,"11725 Sourth Ridgeland Avenue,",Arrow Mobile Home Park,"Worth, IL",60482.0,120,https://www.mhvillage.com/parks/10421,60482,"11725 Sourth Ridgeland Avenue,Worth, IL, 60482",,,0.0,0.0
111,111,"11750 South Homan Avenue,",Oak Lane Mobile Home Park,"Merrionette Park, IL",60803.0,223,https://www.mhvillage.com/parks/10359,60803,"11750 South Homan Avenue,Merrionette Park, IL, 60803",,,0.0,0.0
112,112,"119 Hiatt Ln,",Hiatt's Hide-Away,"East Peoria, IL",61611.0,Not found,https://www.mhvillage.com/parks/106688,61611,"119 Hiatt Ln,East Peoria, IL, 61611",,,0.0,0.0
113,113,"119 Walnut St NE,",Franklin & Franklin Mh Park,"Clay City, IL",62824.0,Not found,https://www.mhvillage.com/parks/57990,62824,"119 Walnut St NE,Clay City, IL, 62824",,,0.0,0.0
114,114,"11th St &Amp; E St,",East Street Mobile Home Park,"Erie, IL",61250.0,Not found,https://www.mhvillage.com/parks/107396,61250,"11th St &Amp; E St,Erie, IL, 61250",,,0.0,0.0
115,115,"12 Chrissy Drive,",Jon's Estates,"Sandwich, IL",60548.0,35,https://www.mhvillage.com/parks/10444,60548,"12 Chrissy Drive,Sandwich, IL, 60548",,,0.0,0.0
116,116,"12 Coachlight Drive,",Coach Light Mobile Home Park,"Danville, IL",61832.0,44,https://www.mhvillage.com/parks/11459,61832,"12 Coachlight Drive,Danville, IL, 61832",,,0.0,0.0
117,117,"120 North Cherokee Street,",Bailey Park,"Taylorville, IL",62568.0,41,https://www.mhvillage.com/parks/10279,62568,"120 North Cherokee Street,Taylorville, IL, 62568",39.5502584,-89.2902442,107.0,54.0
118,118,"1200 E 9th St,",Oakview Mobile Home Park,"West Frankfort, IL",62896.0,Not found,https://www.mhvillage.com/parks/57628,62896,"1200 E 9th St,West Frankfort, IL, 62896",37.906778,-88.914358,117.0,59.0
119,119,"1200 N Division St,",Hi-Way Mh Park,"Harvard, IL",60033.0,Not found,https://www.mhvillage.com/parks/57867,60033,"1200 N Division St,Harvard, IL, 60033",42.42853,-88.613649,69.0,35.0
120,120,"1200 South 28th Street,",Parkview Mobile Home Park,"Mount Vernon, IL",62864.0,Not found,https://www.mhvillage.com/parks/10657,62864,"1200 South 28th Street,Mount Vernon, IL, 62864",38.303373,-88.924608,116.0,58.0
121,121,"1200 West Blvd,",Oak Park Estates,"Belleville, IL",62221.0,85,https://www.mhvillage.com/parks/11691,62221,"1200 West Blvd,Belleville, IL, 62221",38.532004,-89.9596687,113.0,57.0
122,122,"1202 Perrysville Avenue,",Danville Mobile Home Park,"Danville, IL",61832.0,110,https://www.mhvillage.com/parks/11462,61832,"1202 Perrysville Avenue,Danville, IL, 61832",40.110454,-87.609145,104.0,52.0
123,123,"1202 W Broadway,",Heartland Manor M H C,"Steeleville, IL",62288.0,Not found,https://www.mhvillage.com/parks/57683,62288,"1202 W Broadway,Steeleville, IL, 62288",38.0100304,-89.6714311,115.0,58.0
124,124,"1207 East Pleasant Hill Road,",Frost Mobile Home Park,"Carbondale, IL",62902.0,Not found,https://www.mhvillage.com/parks/10613,62902,"1207 East Pleasant Hill Road,Carbondale, IL, 62902",37.7002151,-89.2065743,118.0,59.0
125,125,"1209 West Cherry Street,",Quiet Lane Mobile Home Park,"Robinson, IL",62454.0,30,https://www.mhvillage.com/parks/10427,62454,"1209 West Cherry Street,Robinson, IL, 62454",39.0083641,-87.7569299,102.0,51.0
126,126,"1210 Dowining Street,",Hyde Park Manufactured Housing Community,"Decatur, IL",62521.0,182,https://www.mhvillage.com/parks/10884,62521,"1210 Dowining Street,Decatur, IL, 62521",,,0.0,0.0
127,127,"1211 West Locust Street,",Bel-Bo Mobile Home Park,"Belvidere, IL",61008.0,Not found,https://www.mhvillage.com/parks/10162,61008,"1211 West Locust Street,Belvidere, IL, 61008",42.2531394,-88.860729,68.0,34.0
128,128,"1212 Epsilon Street,",Maple Grove Estates,"Bloomington, IL",61701.0,218,https://www.mhvillage.com/parks/11056,61701,"1212 Epsilon Street,Bloomington, IL, 61701",40.4638321,-89.0195154,91.0,46.0
129,129,"1214 12th St,",Dunbar Mobile Home Park,"Erie, IL",61250.0,Not found,https://www.mhvillage.com/parks/107130,61250,"1214 12th St,Erie, IL, 61250",41.6609633,-90.0782902,73.0,37.0
130,130,"1214-1224 Sycamore St,",Sycamore Street MHP,"Centralia, IL",62801.0,Not found,https://www.mhvillage.com/parks/107418,62801,"1214-1224 Sycamore St,Centralia, IL, 62801",38.5331616,-89.1263517,110.0,55.0
131,131,"1215 E Washington St,",Washington Park MHP,"Macomb, IL",61455.0,Not found,https://www.mhvillage.com/parks/106992,61455,"1215 E Washington St,Macomb, IL, 61455",40.4573646,-90.6559959,71.0,36.0
132,132,"1215 Price St,",Hildy Mobile Home Park,"Morris, IL",60450.0,Not found,https://www.mhvillage.com/parks/106920,60450,"1215 Price St,Morris, IL, 60450",41.3674673,-88.417032,75.0,38.0
133,133,"1219 N 20th St,",Meadow Vista MHP,"Murphysboro, IL",62966.0,Not found,https://www.mhvillage.com/parks/106222,62966,"1219 N 20th St,Murphysboro, IL, 62966",37.7747414,-89.346127,115.0,58.0
134,134,"1219 N Cheney St,",Cherry Wood Trailer Park,"Taylorville, IL",62568.0,Not found,https://www.mhvillage.com/parks/57668,62568,"1219 N Cheney St,Taylorville, IL, 62568",39.5621283,-89.3070373,107.0,54.0
135,135,"122 Greenwood Ave,",Hillcrest Mobile Manor,"Bloomington, IL",61704.0,80,https://www.mhvillage.com/parks/11054,61704,"122 Greenwood Ave,Bloomington, IL, 61704",40.4587345,-89.0023115,88.0,44.0
136,136,"1220 Hinckley St,",Patterson Mh Park,"Aurora, IL",60505.0,Not found,https://www.mhvillage.com/parks/58111,60505,"1220 Hinckley St,Aurora, IL, 60505",41.7327227,-88.309114,83.0,42.0
137,137,"1220 Rim Road,",Quincy View,"Quincy, IL",62305.0,Not found,https://www.mhvillage.com/parks/128988,62305,"1220 Rim Road,Quincy, IL, 62305",,,0.0,0.0
138,138,"1225 4H Park Road,",Vermillion Estates,"Pontiac, IL",61764.0,140,https://www.mhvillage.com/parks/10863,61764,"1225 4H Park Road,Pontiac, IL, 61764",,,0.0,0.0
139,139,"1226 Portland Ave,",Kesler Trailer Park,"Collinsville, IL",62234.0,Not found,https://www.mhvillage.com/parks/57970,62234,"1226 Portland Ave,Collinsville, IL, 62234",38.6841111,-89.9745562,112.0,56.0
140,140,"1230 21st St,",Simonson Cove,"Lincoln, IL",62656.0,Not found,https://www.mhvillage.com/parks/107172,62656,"1230 21st St,Lincoln, IL, 62656",40.1614404,-89.3840517,87.0,44.0
141,141,"1235 East Pershing Road,",Turk's Mobile Home Park,"Decatur, IL",62526.0,Not found,https://www.mhvillage.com/parks/10891,62526,"1235 East Pershing Road,Decatur, IL, 62526",39.8772817,-88.9404301,96.0,48.0
142,142,"12357 South Ashland Avenue,",Century Mobile Home Park,"Calumet Park, IL",60827.0,Not found,https://www.mhvillage.com/parks/10355,60827,"12357 South Ashland Avenue,Calumet Park, IL, 60827",41.6687955,-87.6609896,28.0,14.0
143,143,"1236 North Oaklane Road Lot 317,",Lincoln Place,"Springfield, IL",62707.0,322,https://www.mhvillage.com/parks/11270,62707,"1236 North Oaklane Road Lot 317,Springfield, IL, 62707",,,0.0,0.0
144,144,"1237 Perrysville Road,",St Clair Mobile Home Park,"Danville, IL",61832.0,50,https://www.mhvillage.com/parks/11478,61832,"1237 Perrysville Road,Danville, IL, 61832",40.1084196,-87.6003171,104.0,52.0
145,145,"124 Apple St,",Pleasant Acres Living Spaces,"Vienna, IL",62995.0,Not found,https://www.mhvillage.com/parks/57651,62995,"124 Apple St,Vienna, IL, 62995",,,0.0,0.0
146,146,"1244 N Main St,",Sutton Place,"Paris, IL",61944.0,Not found,https://www.mhvillage.com/parks/106870,61944,"1244 N Main St,Paris, IL, 61944",,,0.0,0.0
147,147,"1251 Lauren Drive,",Triangle Manufactured Home Community,"Sandwich, IL",60548.0,72,https://www.mhvillage.com/parks/10446,60548,"1251 Lauren Drive,Sandwich, IL, 60548",41.6459707,-88.6394383,75.0,38.0
148,148,"1268 E Pleasant Hill Rd,",Oak Hills Mobile Home Park,"Carbondale, IL",62902.0,Not found,https://www.mhvillage.com/parks/58046,62902,"1268 E Pleasant Hill Rd,Carbondale, IL, 62902",37.700045,-89.2066363,118.0,59.0
149,149,"1285 E Pleasant Hill Rd,",Southwood Mobile Home Park,"Carbondale, IL",62902.0,Not found,https://www.mhvillage.com/parks/58043,62902,"1285 E Pleasant Hill Rd,Carbondale, IL, 62902",37.7002031,-89.2067343,118.0,59.0
150,150,"13 Mobile Home Drive,",J & M Mobile Home Park,"Du Quoin, IL",62832.0,20,https://www.mhvillage.com/parks/11158,62832,"13 Mobile Home Drive,Du Quoin, IL, 62832",38.0108739,-89.2490194,115.0,58.0
151,151,"1300 Block N 1st St,",North Town Trailer Park,"Swansea, IL",62226.0,Not found,https://www.mhvillage.com/parks/106818,62226,"1300 Block N 1st St,Swansea, IL, 62226",,,0.0,0.0
152,152,"1300 North Maplewood Drive,",Maplewood Estates,"Rantoul, IL",61866.0,112,https://www.mhvillage.com/parks/10224,61866,"1300 North Maplewood Drive,Rantoul, IL, 61866",40.3161207,-88.1365038,104.0,52.0
153,153,"1301 East Leverett Road #31,",Country Tyme Estates,"Champaign, IL",61821.0,44,https://www.mhvillage.com/parks/10202,61821,"1301 East Leverett Road #31,Champaign, IL, 61821",,,0.0,0.0
154,154,"13011 Office Drive,",Oak Lawn Mobile Home Park,"Poplar Grove, IL",61065.0,180,https://www.mhvillage.com/parks/10169,61065,"13011 Office Drive,Poplar Grove, IL, 61065",42.3432324,-88.8521635,69.0,35.0
155,155,"1302 South Main Street,",E-Z Mobile Home Park,"Monmouth, IL",61462.0,20,https://www.mhvillage.com/parks/11519,61462,"1302 South Main Street,Monmouth, IL, 61462",40.8972351,-90.6487414,71.0,36.0
156,156,"1309 1st St,",Silvis Heights MHP,"Silvis, IL",61282.0,Not found,https://www.mhvillage.com/parks/107080,61282,"1309 1st St,Silvis, IL, 61282",41.4962558,-90.4247021,72.0,36.0
157,157,"1323 Gold Street,",2 Creeks Community,"Greenville, IL",62246.0,100,https://www.mhvillage.com/parks/10155,62246,"1323 Gold Street,Greenville, IL, 62246",38.8779086,-89.3949556,109.0,55.0
158,158,"1330 N 17th St,",Germains Mh Park,"Swansea, IL",62226.0,Not found,https://www.mhvillage.com/parks/57673,62226,"1330 N 17th St,Swansea, IL, 62226",38.5324603,-90.001749,113.0,57.0
159,159,"1330 Rand Road,",Rand Road Community,"Des Plaines, IL",60016.0,140,https://www.mhvillage.com/parks/10373,60016,"1330 Rand Road,Des Plaines, IL, 60016",42.050116,-87.890418,56.0,28.0
160,160,"1330 West Williams Street,",Long's Mobile Home Park,"Danville, IL",61832.0,Not found,https://www.mhvillage.com/parks/11458,61832,"1330 West Williams Street,Danville, IL, 61832",40.1346204,-87.6493896,104.0,52.0
161,161,"1332 Leland St,",Greenwood Mh Park,"Collinsville, IL",62234.0,Not found,https://www.mhvillage.com/parks/57971,62234,"1332 Leland St,Collinsville, IL, 62234",,,0.0,0.0
162,162,"1336 Douglas Avenue,",Oak Grove Mobile Home Village,"Montgomery, IL",60538.0,85,https://www.mhvillage.com/parks/10689,60538,"1336 Douglas Avenue,Montgomery, IL, 60538",,,0.0,0.0
163,163,"134 County Lane West,",Country View Mobile Home Community,"Pierron, IL",62273.0,122,https://www.mhvillage.com/parks/10160,62273,"134 County Lane West,Pierron, IL, 62273",,,0.0,0.0
164,164,"1343 N Arthur Burch Dr,",Oak Creek Estates,"Bourbonnais, IL",60914.0,343,https://www.mhvillage.com/parks/10692,60914,"1343 N Arthur Burch Dr,Bourbonnais, IL, 60914",,,0.0,0.0
165,165,"1343 S County Line Rd,",Crab Orchard Lake Mh Community,"Carbondale, IL",62902.0,125,https://www.mhvillage.com/parks/10609,62902,"1343 S County Line Rd,Carbondale, IL, 62902",37.7523572,-89.1518872,118.0,59.0
166,166,"135 Arapaho Drive,",Arapaho Village,"Belleville, IL",62220.0,147,https://www.mhvillage.com/parks/11306,62220,"135 Arapaho Drive,Belleville, IL, 62220",38.4985362,-90.0055335,113.0,57.0
167,167,"135 Mallard Dr.,",Mallard Lake,"Pontoon Beach, IL",62040.0,278,https://www.mhvillage.com/parks/29231,62040,"135 Mallard Dr.,Pontoon Beach, IL, 62040",38.727928,-90.061734,111.0,56.0
168,168,"135 Stowaway,",Ports of Sullivan,"Lakemoor, IL",60051.0,Not found,https://www.mhvillage.com/parks/129651,60051,"135 Stowaway,Lakemoor, IL, 60051",42.3434037,-88.1947089,64.0,32.0
169,169,"1350 South Brookside Street,",Brookside Mobile Home Park,"Centralia, IL",62801.0,128,https://www.mhvillage.com/parks/10994,62801,"1350 South Brookside Street,Centralia, IL, 62801",,,0.0,0.0
170,170,"1351 Chicago Avenue,",Shamrock Mobile Home Park,"Dixon, IL",61021.0,16,https://www.mhvillage.com/parks/10843,61021,"1351 Chicago Avenue,Dixon, IL, 61021",41.8317405,-89.462855,74.0,37.0
171,171,"13555 South Archer Avenue,",Busy Bee Mobile Home Park,"Lemont, IL",60439.0,Not found,https://www.mhvillage.com/parks/10397,60439,"13555 South Archer Avenue,Lemont, IL, 60439",,,0.0,0.0
172,172,"1362 W. Williams Street,",Big Rock Mobile Home Court,"Danville, IL",61832.0,Not found,https://www.mhvillage.com/parks/11457,61832,"1362 W. Williams Street,Danville, IL, 61832",40.1344443,-87.6526684,104.0,52.0
173,173,"13667 Western Avenue,",Blue Island Mobile Home Park,"Blue Island, IL",60406.0,Not found,https://www.mhvillage.com/parks/10344,60406,"13667 Western Avenue,Blue Island, IL, 60406",41.644483,-87.679979,28.0,14.0
174,174,"13964 Round Grove Rd,",Honeycutt Hill Mobile Home Park,"Morrison, IL",61270.0,Not found,https://www.mhvillage.com/parks/106858,61270,"13964 Round Grove Rd,Morrison, IL, 61270",,,0.0,0.0
175,175,"14 Central,",Shady Oaks,"Minooka, IL",60447.0,364,https://www.mhvillage.com/parks/10555,60447,"14 Central,Minooka, IL, 60447",,,0.0,0.0
176,176,"14 Eastwinds Trail,",East Winds Mobile Home Park,"Centralia, IL",62801.0,Not found,https://www.mhvillage.com/parks/37094,62801,"14 Eastwinds Trail,Centralia, IL, 62801",,,0.0,0.0
177,177,"140 South Wood Dale Road,",Wood Dale Estates,"Wood Dale, IL",60191.0,97,https://www.mhvillage.com/parks/10477,60191,"140 South Wood Dale Road,Wood Dale, IL, 60191",41.954537,-87.978855,48.0,24.0
178,178,"1400 Cedar Street,",Midtown Trailer Court,"Lawrenceville, IL",62439.0,Not found,https://www.mhvillage.com/parks/10834,62439,"1400 Cedar Street,Lawrenceville, IL, 62439",38.720378,-87.686637,102.0,51.0
179,179,"1400 Cleveland Rd,",Willow Haven Mobile Home Community,"Colona, IL",61241.0,110,https://www.mhvillage.com/parks/10579,61241,"1400 Cleveland Rd,Colona, IL, 61241",41.4865341,-90.3350462,71.0,36.0
180,180,"1400 South Johnson Street,",Greenview Estates Mobile Home Park,"Macomb, IL",61455.0,79,https://www.mhvillage.com/parks/11031,61455,"1400 South Johnson Street,Macomb, IL, 61455",,,0.0,0.0
181,181,"14001 S. Western Avenue,",Western Crossing,"Dixmoor, IL",60426.0,Not found,https://www.mhvillage.com/parks/129298,60426,"14001 S. Western Avenue,Dixmoor, IL, 60426",,,0.0,0.0
182,182,"14001 Western Avenue,",Modern Estates & Forest View Mobile Home Park,"Blue Island, IL",60406.0,Not found,https://www.mhvillage.com/parks/10349,60406,"14001 Western Avenue,Blue Island, IL, 60406",41.636921,-87.678369,30.0,15.0
183,183,"1401 N Illinois St,",M & M Mobile Manor,"Swansea, IL",62226.0,Not found,https://www.mhvillage.com/parks/11320,62226,"1401 N Illinois St,Swansea, IL, 62226",38.527642,-89.984305,113.0,57.0
184,184,"1401 North 3rd Street,",Lucky Horseshoe,"Riverton, IL",62561.0,140,https://www.mhvillage.com/parks/11247,62561,"1401 North 3rd Street,Riverton, IL, 62561",39.8594069,-89.5445369,108.0,54.0
185,185,"1401 South Whittle Avenue,",Fehrenbacher Mobile Home Park,"Olney, IL",62450.0,92,https://www.mhvillage.com/parks/11198,62450,"1401 South Whittle Avenue,Olney, IL, 62450",38.71734,-88.084998,110.0,55.0
186,186,"1406 S Cross Street,",Bennett Mobile Home Park,"Robinson, IL",62454.0,Not found,https://www.mhvillage.com/parks/57725,62454,"1406 S Cross Street,Robinson, IL, 62454",38.9943,-87.738763,102.0,51.0
187,187,"1410 West Dr,",Newcastle Park LLC,"Bethalto, IL",62010.0,33,https://www.mhvillage.com/parks/10932,62010,"1410 West Dr,Bethalto, IL, 62010",38.9130792,-90.0622317,111.0,56.0
188,188,"1410 West Saint Louis Avenue,",Vandalia Mobile Home Park,"Vandalia, IL",62471.0,Not found,https://www.mhvillage.com/parks/10506,62471,"1410 West Saint Louis Avenue,Vandalia, IL, 62471",,,0.0,0.0
189,189,"14113 Murray Clark Rd,",Joanna's Kountry Kourt,"Danville, IL",61834.0,Not found,https://www.mhvillage.com/parks/107204,61834,"14113 Murray Clark Rd,Danville, IL, 61834",,,0.0,0.0
190,190,"14115 South Western Avenue,",Smith Mobile Homes,"Blue Island, IL",60406.0,233,https://www.mhvillage.com/parks/10350,60406,"14115 South Western Avenue,Blue Island, IL, 60406",,,0.0,0.0
191,191,"14136 S. Wood Street,",Specialville Estates,"Dixmoor, IL",60426.0,Not found,https://www.mhvillage.com/parks/129579,60426,"14136 S. Wood Street,Dixmoor, IL, 60426",,,0.0,0.0
192,192,"14139 South Western Avenue,",Colonial Estates,"Dixmoor, IL",60406.0,183,https://www.mhvillage.com/parks/10346,60406,"14139 South Western Avenue,Dixmoor, IL, 60406",,,0.0,0.0
193,193,"14149 S Western Ave,",American Mobile Home Park,"Blue Island, IL",60406.0,47,https://www.mhvillage.com/parks/10343,60406,"14149 S Western Ave,Blue Island, IL, 60406",,,0.0,0.0
194,194,"1418 Sandy Hollow Road,","Family Manufactured Home Community, LLC","Rockford, IL",61109.0,55,https://www.mhvillage.com/parks/11622,61109,"1418 Sandy Hollow Road,Rockford, IL, 61109",42.2239056,-89.074712,67.0,34.0
195,195,"142 Brandon Circle,",Reed Station Mobile Home Park,"Carbondale, IL",62901.0,68,https://www.mhvillage.com/parks/10625,62901,"142 Brandon Circle,Carbondale, IL, 62901",,,0.0,0.0
196,196,"144 E Alton Ave,",Shady Lane Mobile Home Park,"East Alton, IL",62024.0,Not found,https://www.mhvillage.com/parks/57931,62024,"144 E Alton Ave,East Alton, IL, 62024",38.8763499,-90.1079071,111.0,56.0
197,197,"14415 Barstow Road,",River Oaks Mobile Home Park,"Barstow, IL",61236.0,50,https://www.mhvillage.com/parks/11202,61236,"14415 Barstow Road,Barstow, IL, 61236",41.5123595,-90.3575453,71.0,36.0
198,198,"1449 Meadow Avenue,",Golden Valley Mobile Home Park,"East Peoria, IL",61611.0,Not found,https://www.mhvillage.com/parks/37022,61611,"1449 Meadow Avenue,East Peoria, IL, 61611",40.6660147,-89.5487633,91.0,46.0
199,199,"1450 Fairfax St,",S&W Mobile Home Park,"Carlyle, IL",62231.0,Not found,https://www.mhvillage.com/parks/107210,62231,"1450 Fairfax St,Carlyle, IL, 62231",38.6110685,-89.3761439,110.0,55.0
200,200,"1500 East Main Cross Street,",Hillcrest Mobile Home Park,"Taylorville, IL",62568.0,119,https://www.mhvillage.com/parks/10277,62568,"1500 East Main Cross Street,Taylorville, IL, 62568",39.5504076,-89.2802463,107.0,54.0
201,201,"1500 Linda Avenue,",Clark's Mobile Home Park,"Rockford, IL",61102.0,36,https://www.mhvillage.com/parks/11628,61102,"1500 Linda Avenue,Rockford, IL, 61102",42.2385104,-89.117643,67.0,34.0
202,202,"1500 North Bruns Lane,",Westwood Park,"Springfield, IL",62702.0,20,https://www.mhvillage.com/parks/66625,62702,"1500 North Bruns Lane,Springfield, IL, 62702",39.8199391,-89.686245,95.0,48.0
203,203,"1500 Tremont Street,",Tremont Park,"Lincoln, IL",62656.0,89,https://www.mhvillage.com/parks/10873,62656,"1500 Tremont Street,Lincoln, IL, 62656",40.145681,-89.354509,87.0,44.0
204,204,"15000 Dixie Highway,","Dixie Garden Homes, Inc","Harvey, IL",60426.0,187,https://www.mhvillage.com/parks/10382,60426,"15000 Dixie Highway,Harvey, IL, 60426",,,0.0,0.0
205,205,"1501 North Russell Street,",Juanita's Mobile Home Park,"Marion, IL",62959.0,Not found,https://www.mhvillage.com/parks/11605,62959,"1501 North Russell Street,Marion, IL, 62959",37.74344,-88.941792,118.0,59.0
206,206,"1501 West 4th Street,",Woodlawn Trailer Court,"Sterling, IL",61081.0,Not found,https://www.mhvillage.com/parks/11554,61081,"1501 West 4th Street,Sterling, IL, 61081",41.7905582,-89.7184315,74.0,37.0
207,207,"1503 West 1st Avenue,",Candlelight MHP,"Coal Valley, IL",61240.0,451,https://www.mhvillage.com/parks/11203,61240,"1503 West 1st Avenue,Coal Valley, IL, 61240",41.4526289,-90.473444,71.0,36.0
208,208,"15051 S Archer Ave,",Triangal Mh Park,"Lockport, IL",60441.0,Not found,https://www.mhvillage.com/parks/57834,60441,"15051 S Archer Ave,Lockport, IL, 60441",,,0.0,0.0
209,209,"1507 East Jackson Street,",Shade Tree Village Mobile Home Park,"Macomb, IL",61455.0,Not found,https://www.mhvillage.com/parks/11028,61455,"1507 East Jackson Street,Macomb, IL, 61455",40.4587282,-90.6694754,71.0,36.0
210,210,"1507 W Rock Falls Rd,",Sauk Valley Estates,"Rock Falls, IL",61071.0,21,https://www.mhvillage.com/parks/127088,61071,"1507 W Rock Falls Rd,Rock Falls, IL, 61071",41.771842,-89.710647,74.0,37.0
211,211,"1507 W Route 30,",East Z Living Mobile Home Park,"Rock Falls, IL",61071.0,Not found,https://www.mhvillage.com/parks/106918,61071,"1507 W Route 30,Rock Falls, IL, 61071",,,0.0,0.0
212,212,"151 Hoffman Road,",Country Village Mobile Home Park,"Murphysboro, IL",62966.0,63,https://www.mhvillage.com/parks/10641,62966,"151 Hoffman Road,Murphysboro, IL, 62966",,,0.0,0.0
213,213,"1510 Penthouse Drive,",North Park Place,"Quincy, IL",62301.0,Not found,https://www.mhvillage.com/parks/10135,62301,"1510 Penthouse Drive,Quincy, IL, 62301",39.9498946,-91.3762214,99.0,50.0
214,214,"1511 Coyne Center Road,",Woodland Mobile Home Park,"Milan, IL",61264.0,248,https://www.mhvillage.com/parks/11222,61264,"1511 Coyne Center Road,Milan, IL, 61264",,,0.0,0.0
215,215,"1512 Shelby Ave,",Bennett Trailer Park,"Mattoon, IL",61938.0,Not found,https://www.mhvillage.com/parks/106970,61938,"1512 Shelby Ave,Mattoon, IL, 61938",39.4870297,-88.37319,101.0,51.0
216,216,"1513 County Road 2300 N,",Country Manor Mh Park,"Urbana, IL",61802.0,Not found,https://www.mhvillage.com/parks/57658,61802,"1513 County Road 2300 N,Urbana, IL, 61802",,,0.0,0.0
217,217,"1513 East Jackson Street,",Derry's Mobile Home Court,"Macomb, IL",61455.0,Not found,https://www.mhvillage.com/parks/11030,61455,"1513 East Jackson Street,Macomb, IL, 61455",40.4587282,-90.6694754,71.0,36.0
218,218,"1513 N 4th St,",Davis' Mobile Home Park,"Chillicothe, IL",61523.0,Not found,https://www.mhvillage.com/parks/11137,61523,"1513 N 4th St,Chillicothe, IL, 61523",40.9260324,-89.4862654,105.0,53.0
219,219,"1514 Spring Lake Road,",Paradise Lane Mobile Home Park,"Quincy, IL",62305.0,70,https://www.mhvillage.com/parks/29624,62305,"1514 Spring Lake Road,Quincy, IL, 62305",,,0.0,0.0
220,220,"1515 North Lincoln Avenue,",Westwood Place,"Springfield, IL",62702.0,206,https://www.mhvillage.com/parks/11269,62702,"1515 North Lincoln Avenue,Springfield, IL, 62702",,,0.0,0.0
221,221,"1519 S Chicago St,",Peet's Mobile Home Park,"Joliet, IL",60436.0,Not found,https://www.mhvillage.com/parks/11573,60436,"1519 S Chicago St,Joliet, IL, 60436",41.4959338,-88.0804709,86.0,43.0
222,222,"1520 Glen Forest Drive,",Bel-rock Mobile Home Park,"Machesney Park, IL",61115.0,Not found,https://www.mhvillage.com/parks/36902,61115,"1520 Glen Forest Drive,Machesney Park, IL, 61115",42.3876529,-89.0203204,90.0,45.0
223,223,"1522 Wilkes Avenue,",Paradise Lane,"Quincy, IL",62305.0,103,https://www.mhvillage.com/parks/128980,62305,"1522 Wilkes Avenue,Quincy, IL, 62305",,,0.0,0.0
224,224,"15242 East 1830 North Road,",Redwood MHC,"Pontiac, IL",61764.0,Not found,https://www.mhvillage.com/parks/10860,61764,"15242 East 1830 North Road,Pontiac, IL, 61764",40.8923375,-88.6371797,105.0,53.0
225,225,"1525 South Fairview Avenue,",Flower Farm Trailer Park,"Decatur, IL",62521.0,Not found,https://www.mhvillage.com/parks/10889,62521,"1525 South Fairview Avenue,Decatur, IL, 62521",39.8307436,-88.9760871,96.0,48.0
226,226,"1526 Lori Dr,",Town and Country Rentals,"Quincy, IL",62305.0,92,https://www.mhvillage.com/parks/10144,62305,"1526 Lori Dr,Quincy, IL, 62305",,,0.0,0.0
227,227,"15358 E Clarksville Rd,",Lazy G Village,"Marshall, IL",62441.0,Not found,https://www.mhvillage.com/parks/57824,62441,"15358 E Clarksville Rd,Marshall, IL, 62441",39.4006654,-87.7045873,102.0,51.0
228,228,"155 West Kellogg Street,",Parkview Court Mobile Home Park,"Pittsfield, IL",62363.0,Not found,https://www.mhvillage.com/parks/11169,62363,"155 West Kellogg Street,Pittsfield, IL, 62363",39.616698,-90.8079991,100.0,50.0
229,229,"15625 Kennedy Road,",Mcclelland's Mobile Home Estates,"Auburn, IL",62615.0,16,https://www.mhvillage.com/parks/11705,62615,"15625 Kennedy Road,Auburn, IL, 62615",39.5720845,-89.7446215,108.0,54.0
230,230,"1570 N 30th Rd Unit O,",Ottawa Estates Mobile Home Park,"Ottawa, IL",61350.0,100,https://www.mhvillage.com/parks/10761,61350,"1570 N 30th Rd Unit O,Ottawa, IL, 61350",,,0.0,0.0
231,231,"16 North Texas Street,",Jeans Mobile Home Park,"Harrisburg, IL",62946.0,Not found,https://www.mhvillage.com/parks/11232,62946,"16 North Texas Street,Harrisburg, IL, 62946",37.7325141,-88.526989,117.0,59.0
232,232,"16 West Wasson,",The Meadows,"Amboy, IL",61310.0,95,https://www.mhvillage.com/parks/10837,61310,"16 West Wasson,Amboy, IL, 61310",41.7222883,-89.3350003,74.0,37.0
233,233,"1600 North Market Street,",Shadowwood Mobile Home Park,"Champaign, IL",61820.0,272,https://www.mhvillage.com/parks/10207,61820,"1600 North Market Street,Champaign, IL, 61820",40.1337676,-88.2387896,103.0,52.0
234,234,"1600 Riverdale Road,",Country Acres Mobile Manor,"Rock Falls, IL",61071.0,106,https://www.mhvillage.com/parks/11548,61071,"1600 Riverdale Road,Rock Falls, IL, 61071",,,0.0,0.0
235,235,"1600 Tyler Ave,",Mercer Mobile Home Court,"Charleston, IL",61920.0,Not found,https://www.mhvillage.com/parks/10313,61920,"1600 Tyler Ave,Charleston, IL, 61920",39.490476,-88.164483,101.0,51.0
236,236,"1601 East Jackson Street,",Kiljordan Meadows,"Macomb, IL",61455.0,173,https://www.mhvillage.com/parks/11034,61455,"1601 East Jackson Street,Macomb, IL, 61455",40.4587282,-90.6694754,71.0,36.0
237,237,"1601 Sheridan Rd,",Hollyhock Hill Mobile Home Park,"Winthrop Harbor, IL",60096.0,Not found,https://www.mhvillage.com/parks/106900,60096,"1601 Sheridan Rd,Winthrop Harbor, IL, 60096",42.4771625,-87.8240461,61.0,31.0
238,238,"1604 East Olympian Road,",Country View Estates,"Urbana, IL",61802.0,Not found,https://www.mhvillage.com/parks/10249,61802,"1604 East Olympian Road,Urbana, IL, 61802",,,0.0,0.0
239,239,"1605 West Us Highway 50,",S & H O Fallon Mobile Home Park,"O Fallon, IL",62269.0,Not found,https://www.mhvillage.com/parks/11417,62269,"1605 West Us Highway 50,O Fallon, IL, 62269",,,0.0,0.0
240,240,"16088 E Us 24 Highway,",EEE Mobile Village,"Lewistown, IL",61542.0,Not found,https://www.mhvillage.com/parks/107042,61542,"16088 E Us 24 Highway,Lewistown, IL, 61542",,,0.0,0.0
241,241,"161 West River Road,",Willow Lake Estates,"Elgin, IL",60123.0,623,https://www.mhvillage.com/parks/10688,60123,"161 West River Road,Elgin, IL, 60123",42.0658284,-88.2832999,66.0,33.0
242,242,"1610 E Us Route 34,",Century Estates,"Earlville, IL",60518.0,Not found,https://www.mhvillage.com/parks/107406,60518,"1610 E Us Route 34,Earlville, IL, 60518",,,0.0,0.0
243,243,"1610 Walter Payton Memorial Hwy,",Century Estates,"Earlville, IL",60518.0,Not found,https://www.mhvillage.com/parks/107408,60518,"1610 Walter Payton Memorial Hwy,Earlville, IL, 60518",,,0.0,0.0
244,244,"1618 W Jefferson St.,",Gaslite Senior Mobile Home Court,"Springfield, IL",62702.0,57,https://www.mhvillage.com/parks/104537,62702,"1618 W Jefferson St.,Springfield, IL, 62702",39.807525,-89.6803683,95.0,48.0
245,245,"1626 Columbus St,",Thrush Mobile Home Park,"Ottawa, IL",61350.0,Not found,https://www.mhvillage.com/parks/57759,61350,"1626 Columbus St,Ottawa, IL, 61350",,,0.0,0.0
246,246,"16260 W State Rd,",Six Oaks Manufactured Home Community,"Pecatonica, IL",61063.0,Not found,https://www.mhvillage.com/parks/106834,61063,"16260 W State Rd,Pecatonica, IL, 61063",,,0.0,0.0
247,247,"1639 Sheridan Road,",Avalon Mobile Home Park,"Zion, IL",60099.0,31,https://www.mhvillage.com/parks/10828,60099,"1639 Sheridan Road,Zion, IL, 60099",42.4499414,-87.8255064,61.0,31.0
248,248,"1648 East Chestnut Street,",Lake Drive Mobile Home Park,"Canton, IL",61520.0,Not found,https://www.mhvillage.com/parks/10531,61520,"1648 East Chestnut Street,Canton, IL, 61520",40.5569803,-90.0083771,94.0,47.0
249,249,"16572 East 1200 North Road,",Country Aire Mobile Home Park,"Westville, IL",61883.0,Not found,https://www.mhvillage.com/parks/11500,61883,"16572 East 1200 North Road,Westville, IL, 61883",40.042529,-87.627888,104.0,52.0
250,250,"16584 North Il Highway 37,",Rolling Meadow Mobile Home Community,"Mount Vernon, IL",62864.0,13,https://www.mhvillage.com/parks/11723,62864,"16584 North Il Highway 37,Mount Vernon, IL, 62864",,,0.0,0.0
251,251,"16902 Dixie Hwy,",Hazel Crest MHC,"Hazel Crest, IL",60429.0,22,https://www.mhvillage.com/parks/106444,60429,"16902 Dixie Hwy,Hazel Crest, IL, 60429",41.5825131,-87.6656268,30.0,15.0
252,252,"170 Coachlight Trailer Park,",Coachlight Mobile Home Park,"Glen Carbon, IL",62034.0,Not found,https://www.mhvillage.com/parks/106852,62034,"170 Coachlight Trailer Park,Glen Carbon, IL, 62034",38.7496199,-89.9756117,111.0,56.0
253,253,"1700 Block E Dearborn Ave,",Dearborn Mobile Home Park,"Aurora, IL",60505.0,Not found,https://www.mhvillage.com/parks/106938,60505,"1700 Block E Dearborn Ave,Aurora, IL, 60505",,,0.0,0.0
254,254,"1700 North Broadway,",Salem Mobile Home Park,"Salem, IL",62881.0,Not found,https://www.mhvillage.com/parks/11003,62881,"1700 North Broadway,Salem, IL, 62881",38.647249,-88.9412471,110.0,55.0
255,255,"1701 2nd Street East,",High Cliff Estates,"Milan, IL",61264.0,224,https://www.mhvillage.com/parks/11217,61264,"1701 2nd Street East,Milan, IL, 61264",41.434506,-90.566187,72.0,36.0
256,256,"1701 Mascoutah Ave,",Green Mount Station,"Belleville, IL",62221.0,96,https://www.mhvillage.com/parks/27863,62221,"1701 Mascoutah Ave,Belleville, IL, 62221",38.504814,-89.957346,113.0,57.0
257,257,"1703 South Chicago Street,",Modern Manor,"Joliet, IL",60436.0,40,https://www.mhvillage.com/parks/89,60436,"1703 South Chicago Street,Joliet, IL, 60436",41.4941415,-88.0804006,86.0,43.0
258,258,"1706 N Santa Fe Ave,",Northtown Mobile Home Park,"Chillicothe, IL",61523.0,Not found,https://www.mhvillage.com/parks/11139,61523,"1706 N Santa Fe Ave,Chillicothe, IL, 61523",40.927513,-89.493845,105.0,53.0
259,259,"1710 N Main St,",Neild's Mobile Manor,"Georgetown, IL",61846.0,Not found,https://www.mhvillage.com/parks/11485,61846,"1710 N Main St,Georgetown, IL, 61846",,,0.0,0.0
260,260,"1710 Ridge Street,","VINUS, Inc. Mobile Home Park","Carlyle, IL",62231.0,35,https://www.mhvillage.com/parks/10295,62231,"1710 Ridge Street,Carlyle, IL, 62231",38.6071319,-89.3796442,110.0,55.0
261,261,"1712 South Dixie Highway,",Queens Estates,"Crete, IL",60417.0,148,https://www.mhvillage.com/parks/11561,60417,"1712 South Dixie Highway,Crete, IL, 60417",41.4315408,-87.6305628,80.0,40.0
262,262,"1713 West Us Hwy 50, #60,",Castle Acres,"O Fallon, IL",62269.0,167,https://www.mhvillage.com/parks/11410,62269,"1713 West Us Hwy 50, #60,O Fallon, IL, 62269",,,0.0,0.0
263,263,"1718 W Jackson St,",Heaps Mobile Home Park,"Macomb, IL",61455.0,Not found,https://www.mhvillage.com/parks/57832,61455,"1718 W Jackson St,Macomb, IL, 61455",40.4592191,-90.698877,71.0,36.0
264,264,"1720 North 12th Street,",Trailer Town Park,"Quincy, IL",62301.0,Not found,https://www.mhvillage.com/parks/10145,62301,"1720 North 12th Street,Quincy, IL, 62301",39.9525923,-91.3964136,99.0,50.0
265,265,"1730 12th St,",Pal & Sal Mobile Home Park,"Lawrenceville, IL",62439.0,Not found,https://www.mhvillage.com/parks/57845,62439,"1730 12th St,Lawrenceville, IL, 62439",38.7187306,-87.6843467,102.0,51.0
266,266,"1732 N Baker St,",North Gate Mh Park,"Streator, IL",61364.0,Not found,https://www.mhvillage.com/parks/57678,61364,"1732 N Baker St,Streator, IL, 61364",,,0.0,0.0
267,267,"17336 E County Rd 1400N,",Seven Hickory Estates,"Charleston, IL",61920.0,Not found,https://www.mhvillage.com/parks/58004,61920,"17336 E County Rd 1400N,Charleston, IL, 61920",,,0.0,0.0
268,268,"1746 Wilson Road,","Wilsons on University MHC, LLC","Urbana, IL",61801.0,42,https://www.mhvillage.com/parks/10264,61801,"1746 Wilson Road,Urbana, IL, 61801",40.1165532,-88.1840964,103.0,52.0
269,269,"1750 Roosevelt Ave,",Pine Manor,"Belleville, IL",62226.0,Not found,https://www.mhvillage.com/parks/31719,62226,"1750 Roosevelt Ave,Belleville, IL, 62226",38.5141697,-90.0120348,113.0,57.0
270,270,"1750 W Broadway,",Sycamore Mobile Home Park,"Blue Island, IL",60406.0,86,https://www.mhvillage.com/parks/11682,60406,"1750 W Broadway,Blue Island, IL, 60406",,,0.0,0.0
271,271,"1751 North Grand Avenue West,",Park Ridge Mobile Home Park,"Springfield, IL",62702.0,106,https://www.mhvillage.com/parks/31506,62702,"1751 North Grand Avenue West,Springfield, IL, 62702",39.8159488,-89.6821871,95.0,48.0
272,272,"1755 West Mccord St Rt 161,",Deerwood Mobile Home Park,"Centralia, IL",62801.0,100,https://www.mhvillage.com/parks/10298,62801,"1755 West Mccord St Rt 161,Centralia, IL, 62801",,,0.0,0.0
273,273,"177 N Center St,",Dixon Mobile Home Park,"Braidwood, IL",60408.0,Not found,https://www.mhvillage.com/parks/11556,60408,"177 N Center St,Braidwood, IL, 60408",41.2668385,-88.2172584,80.0,40.0
274,274,"1776 Independence,","Liberty Estate Commons MHC, LLC","Urbana, IL",61802.0,433,https://www.mhvillage.com/parks/74639,61802,"1776 Independence,Urbana, IL, 61802",,,0.0,0.0
275,275,"1795 E 3180 N Rd,",Beaver Creek Village,"Saint Anne, IL",60964.0,Not found,https://www.mhvillage.com/parks/106802,60964,"1795 E 3180 N Rd,Saint Anne, IL, 60964",,,0.0,0.0
276,276,"18 N First St,",North Side Mobile Home Park,"Bethany, IL",61914.0,Not found,https://www.mhvillage.com/parks/106974,61914,"18 N First St,Bethany, IL, 61914",,,0.0,0.0
277,277,"1800 Perrysville Road,",Valley Run Mobile Home Park,"Danville, IL",61834.0,60,https://www.mhvillage.com/parks/11481,61834,"1800 Perrysville Road,Danville, IL, 61834",40.1084196,-87.6003171,104.0,52.0
278,278,"1801 Dekalb Avenue,",Edgebrook,"Sycamore, IL",60178.0,247,https://www.mhvillage.com/parks/10447,60178,"1801 Dekalb Avenue,Sycamore, IL, 60178",41.970734,-88.718357,76.0,38.0
279,279,"1801 Madison Avenue,",Slifer's Rancho Mobile Home Park,"Charleston, IL",61920.0,Not found,https://www.mhvillage.com/parks/10315,61920,"1801 Madison Avenue,Charleston, IL, 61920",39.4974128,-88.1634561,101.0,51.0
280,280,"1801 North 16th Street,",Worman Mobile Home Park,"Quincy, IL",62301.0,Not found,https://www.mhvillage.com/parks/11663,62301,"1801 North 16th Street,Quincy, IL, 62301",39.95332,-91.390444,99.0,50.0
281,281,"1810 North 8th Street,",Pekin Trailer Court,"Pekin, IL",61554.0,Not found,https://www.mhvillage.com/parks/11449,61554,"1810 North 8th Street,Pekin, IL, 61554",40.5857372,-89.6409842,93.0,47.0
282,282,"1810 S Pine St,",Rosewood Mobile Home Park,"Centralia, IL",62801.0,Not found,https://www.mhvillage.com/parks/58016,62801,"1810 S Pine St,Centralia, IL, 62801",,,0.0,0.0
283,283,"1810 Wolff Drive,",South Court Mobile Home Park,"Marion, IL",62959.0,Not found,https://www.mhvillage.com/parks/11612,62959,"1810 Wolff Drive,Marion, IL, 62959",,,0.0,0.0
284,284,"1814 Carr St,",Southtown,"Streator, IL",61364.0,Not found,https://www.mhvillage.com/parks/107318,61364,"1814 Carr St,Streator, IL, 61364",,,0.0,0.0
285,285,"1820 Crestview Drive,",Crossroad Terrace East,"O Fallon, IL",62269.0,Not found,https://www.mhvillage.com/parks/11411,62269,"1820 Crestview Drive,O Fallon, IL, 62269",38.5967083,-89.963072,112.0,56.0
286,286,"1831 Perrysville Road,",Glendale Mobile Home Park,"Danville, IL",61834.0,84,https://www.mhvillage.com/parks/11467,61834,"1831 Perrysville Road,Danville, IL, 61834",40.1077708,-87.5956875,104.0,52.0
287,287,"18388 East Frontage Road,",Kamper Kompanion Mobile Home Park,"Litchfield, IL",62056.0,Not found,https://www.mhvillage.com/parks/11099,62056,"18388 East Frontage Road,Litchfield, IL, 62056",39.2748953,-89.6388219,108.0,54.0
288,288,"1847 Truman Rd,",Fox Bridge Court,"Springfield, IL",62703.0,Not found,https://www.mhvillage.com/parks/57693,62703,"1847 Truman Rd,Springfield, IL, 62703",39.7687484,-89.6284188,96.0,48.0
289,289,"18530 West 3000 North Road,",Shannon Shores Mobile Home Park,"Reddick, IL",60961.0,189,https://www.mhvillage.com/parks/10716,60961,"18530 West 3000 North Road,Reddick, IL, 60961",,,0.0,0.0
290,290,"1900 West South 2nd St,",Jess & Angel's Westview,"Shelbyville, IL",62565.0,Not found,https://www.mhvillage.com/parks/106774,62565,"1900 West South 2nd St,Shelbyville, IL, 62565",39.4046145,-88.8143378,107.0,54.0
291,291,"1901 N Cherry St Lot 35,",Cherry Street Estates,"Mount Carmel, IL",62863.0,110,https://www.mhvillage.com/parks/11507,62863,"1901 N Cherry St Lot 35,Mount Carmel, IL, 62863",,,0.0,0.0
292,292,"1901 North Linden Street,",Landings Estates,"Normal, IL",61761.0,288,https://www.mhvillage.com/parks/11077,61761,"1901 North Linden Street,Normal, IL, 61761",40.538862,-88.98361,105.0,53.0
293,293,"1902 South Main Street,",Hilltop Mobile Home Park,"Bloomington, IL",61704.0,557,https://www.mhvillage.com/parks/11055,61704,"1902 South Main Street,Bloomington, IL, 61704",40.458365,-88.9926869,88.0,44.0
294,294,"1913 Barr Street,",Carriage Lane Estates,"Streator, IL",61364.0,134,https://www.mhvillage.com/parks/10776,61364,"1913 Barr Street,Streator, IL, 61364",,,0.0,0.0
295,295,"1931 Champlain St,",Starlight Mobile Home Park,"Ottawa, IL",61350.0,20,https://www.mhvillage.com/parks/10134,61350,"1931 Champlain St,Ottawa, IL, 61350",41.3611963,-88.8269051,76.0,38.0
296,296,"1938 County Road 3000 N,",Eastside Mobile Home Village,"Rantoul, IL",61866.0,Not found,https://www.mhvillage.com/parks/10216,61866,"1938 County Road 3000 N,Rantoul, IL, 61866",,,0.0,0.0
297,297,"198 Gem St.,",Bissell Village Mobile Home Park,"Springfield, IL",62707.0,180,https://www.mhvillage.com/parks/11251,62707,"198 Gem St.,Springfield, IL, 62707",,,0.0,0.0
298,298,"1995 South Schuyler Avenue,",Kankakee Estates,"Kankakee, IL",60901.0,168,https://www.mhvillage.com/parks/10704,60901,"1995 South Schuyler Avenue,Kankakee, IL, 60901",41.1044466,-87.8686423,79.0,40.0
299,299,"1A Parktown Drive,",Park Towne West Mobile Home Park,"Granite City, IL",62040.0,Not found,https://www.mhvillage.com/parks/10972,62040,"1A Parktown Drive,Granite City, IL, 62040",38.70939,-90.1676399,111.0,56.0
300,300,"2 Mahoning Avenue,",Youngstown Estates,"Rantoul, IL",61866.0,Not found,https://www.mhvillage.com/parks/10220,61866,"2 Mahoning Avenue,Rantoul, IL, 61866",40.3194736,-88.1361761,104.0,52.0
301,301,"20 Pattie Dr,",Lake Bluff Mobile Home Park,"Oakwood, IL",61858.0,123,https://www.mhvillage.com/parks/11497,61858,"20 Pattie Dr,Oakwood, IL, 61858",,,0.0,0.0
302,302,"200 East Patrick Street,",Williams Trailer Court,"Marion, IL",62959.0,80,https://www.mhvillage.com/parks/11613,62959,"200 East Patrick Street,Marion, IL, 62959",37.744718,-88.926228,118.0,59.0
303,303,"200 Franklin Drive,",Sunny Acres,"Manteno, IL",60950.0,189,https://www.mhvillage.com/parks/10478,60950,"200 Franklin Drive,Manteno, IL, 60950",,,0.0,0.0
304,304,"200 Lincoln St,",Gaslight Mobile Home Park,"Red Bud, IL",62278.0,Not found,https://www.mhvillage.com/parks/57728,62278,"200 Lincoln St,Red Bud, IL, 62278",38.212978,-89.992974,115.0,58.0
305,305,"200 N 45th St,",Daland Court,"Alorton, IL",62207.0,Not found,https://www.mhvillage.com/parks/58128,62207,"200 N 45th St,Alorton, IL, 62207",38.587317,-90.115376,114.0,57.0
306,306,"200 North Pine Stret,",Richwood Manor,"Pana, IL",62557.0,70,https://www.mhvillage.com/parks/10272,62557,"200 North Pine Stret,Pana, IL, 62557",,,0.0,0.0
307,307,"200 Paradise Acres Road,",The Orchards,"Carterville, IL",62918.0,Not found,https://www.mhvillage.com/parks/11595,62918,"200 Paradise Acres Road,Carterville, IL, 62918",,,0.0,0.0
308,308,"200 S Granger St # 221,",Evergreen Park,"Harrisburg, IL",62946.0,Not found,https://www.mhvillage.com/parks/57870,62946,"200 S Granger St # 221,Harrisburg, IL, 62946",,,0.0,0.0
309,309,"200 West Street,",Maple Creek,"Woodson, IL",62695.0,33,https://www.mhvillage.com/parks/111136,62695,"200 West Street,Woodson, IL, 62695",39.626531,-90.224236,100.0,50.0
310,310,"2004 Village Ln,",Marion Mobile Home Village,"Marion, IL",62959.0,150,https://www.mhvillage.com/parks/11608,62959,"2004 Village Ln,Marion, IL, 62959",37.7234,-88.9074953,117.0,59.0
311,311,"2005 West 139th Street,",AAA Mobile Home Park,"Blue Island, IL",60406.0,105,https://www.mhvillage.com/parks/10342,60406,"2005 West 139th Street,Blue Island, IL, 60406",41.6409835,-87.6698787,30.0,15.0
312,312,"201 Art St,",Sunset Mobile Home Park,"Collinsville, IL",62234.0,Not found,https://www.mhvillage.com/parks/57966,62234,"201 Art St,Collinsville, IL, 62234",,,0.0,0.0
313,313,"202 Apple Tree Drive,","Woods Edge MHC, LLC","Urbana, IL",61802.0,170,https://www.mhvillage.com/parks/10265,61802,"202 Apple Tree Drive,Urbana, IL, 61802",,,0.0,0.0
314,314,"202 E Brown St,",Knapps Trailer Park,"Pinckneyville, IL",62274.0,Not found,https://www.mhvillage.com/parks/57752,62274,"202 E Brown St,Pinckneyville, IL, 62274",38.0713001,-89.3800937,115.0,58.0
315,315,"2025 Dolton Road,",River Oaks Mobile Estates,"Calumet City, IL",60409.0,301,https://www.mhvillage.com/parks/10352,60409,"2025 Dolton Road,Calumet City, IL, 60409",,,0.0,0.0
316,316,"20355 State Highway 3,",Sunny Hill,"Grafton, IL",62037.0,Not found,https://www.mhvillage.com/parks/57888,62037,"20355 State Highway 3,Grafton, IL, 62037",,,0.0,0.0
317,317,"204 East Hegeler Lane,",Shelby Mobile Home Park,"Danville, IL",61832.0,Not found,https://www.mhvillage.com/parks/11469,61832,"204 East Hegeler Lane,Danville, IL, 61832",,,0.0,0.0
318,318,"2044 West Galena Avenue,",West Town Mobile Home Park,"Freeport, IL",61032.0,55,https://www.mhvillage.com/parks/11431,61032,"2044 West Galena Avenue,Freeport, IL, 61032",42.3039447,-89.6521419,90.0,45.0
319,319,"205 N Ave I,",Five Sisters Trailer Park,"Canton, IL",61520.0,Not found,https://www.mhvillage.com/parks/10527,61520,"205 N Ave I,Canton, IL, 61520",40.5582086,-90.0571686,94.0,47.0
320,320,"205 S Elm St,",R&S Rentals,"Loda, IL",60948.0,Not found,https://www.mhvillage.com/parks/106982,60948,"205 S Elm St,Loda, IL, 60948",40.5141193,-88.0683063,106.0,53.0
321,321,"207 W Elm St,",Dehm Court,"Chatsworth, IL",60921.0,Not found,https://www.mhvillage.com/parks/107038,60921,"207 W Elm St,Chatsworth, IL, 60921",40.751688,-88.298616,106.0,53.0
322,322,"208 E Green St,",Central City Mobile Home Park,"Central City, IL",62801.0,Not found,https://www.mhvillage.com/parks/106684,62801,"208 E Green St,Central City, IL, 62801",,,0.0,0.0
323,323,"208 E Pease St,",Coomer's Mobile Home Park,"Heyworth, IL",61745.0,Not found,https://www.mhvillage.com/parks/107246,61745,"208 E Pease St,Heyworth, IL, 61745",40.3164988,-88.975966,88.0,44.0
324,324,"208 N Apple Blossom,",Four Seasons,"Peoria, IL",61604.0,215,https://www.mhvillage.com/parks/11146,61604,"208 N Apple Blossom,Peoria, IL, 61604",,,0.0,0.0
325,325,"208 Patterson Road,",Sullivan MHP South,"Sullivan, IL",61951.0,66,https://www.mhvillage.com/parks/103917,61951,"208 Patterson Road,Sullivan, IL, 61951",39.5899189,-88.5997774,107.0,54.0
326,326,"208 W Vine St,",Marcum's Trailer Court,"Leroy, IL",61752.0,29,https://www.mhvillage.com/parks/105360,61752,"208 W Vine St,Leroy, IL, 61752",,,0.0,0.0
327,327,"208 West Vine Street,",Marcums Trailer Court,"Le Roy, IL",61752.0,Not found,https://www.mhvillage.com/parks/11073,61752,"208 West Vine Street,Le Roy, IL, 61752",40.3443396,-88.7633089,88.0,44.0
328,328,"2090 Keokuk Street,",Rivercross Manufactured Home Community,"Hamilton, IL",62341.0,83,https://www.mhvillage.com/parks/10566,62341,"2090 Keokuk Street,Hamilton, IL, 62341",40.3961731,-91.3256479,94.0,47.0
329,329,"21 Roberta Dr,",Bethel Terrace Mh Park,"Caseyville, IL",62232.0,Not found,https://www.mhvillage.com/parks/11341,62232,"21 Roberta Dr,Caseyville, IL, 62232",,,0.0,0.0
330,330,"210 Cooper Avenue,",Fairfax Mobile Home Park,"East Alton, IL",62024.0,Not found,https://www.mhvillage.com/parks/10948,62024,"210 Cooper Avenue,East Alton, IL, 62024",38.8887775,-90.1018298,111.0,56.0
331,331,"2109 N Abbey Circle,",Royal Oaks Estates,"Peoria, IL",61604.0,585,https://www.mhvillage.com/parks/11149,61604,"2109 N Abbey Circle,Peoria, IL, 61604",,,0.0,0.0
332,332,"2114 Windsor Road,",Maple Leaf Mobile Home Park,"Loves Park, IL",61111.0,Not found,https://www.mhvillage.com/parks/11618,61111,"2114 Windsor Road,Loves Park, IL, 61111",42.3256478,-89.0256766,67.0,34.0
333,333,"2115 College Avenue,",Rockspring Mobile Home Park,"Alton, IL",62002.0,Not found,https://www.mhvillage.com/parks/10925,62002,"2115 College Avenue,Alton, IL, 62002",38.9032786,-90.1549441,111.0,56.0
334,334,"21191 Torrence Avenue,",Weatherstone Lakes,"Sauk Village, IL",60411.0,105,https://www.mhvillage.com/parks/37881,60411,"21191 Torrence Avenue,Sauk Village, IL, 60411",41.5035799,-87.5580887,34.0,17.0
335,335,"212 Anker Lane,",Tuckaway Village,"Germantown Hills, IL",61548.0,107,https://www.mhvillage.com/parks/30090,61548,"212 Anker Lane,Germantown Hills, IL, 61548",40.766233,-89.476476,73.0,37.0
336,336,"213 North Skokie Highway,",Ravinia Lake Bluff,"Lake Bluff, IL",60044.0,63,https://www.mhvillage.com/parks/10801,60044,"213 North Skokie Highway,Lake Bluff, IL, 60044",42.2844043,-87.8706228,58.0,29.0
337,337,"2135 Swing Boulevard,",Swing's Mobile Estates,"Galesburg, IL",61401.0,Not found,https://www.mhvillage.com/parks/10733,61401,"2135 Swing Boulevard,Galesburg, IL, 61401",40.9302637,-90.4037646,71.0,36.0
338,338,"2137 Westmore Drive,",Maple Acres Mobile Home Park,"Princeton, IL",61356.0,99,https://www.mhvillage.com/parks/10177,61356,"2137 Westmore Drive,Princeton, IL, 61356",,,0.0,0.0
339,339,"214 Warren Rd,",Pleasant Valley,"Carbondale, IL",62901.0,Not found,https://www.mhvillage.com/parks/58044,62901,"214 Warren Rd,Carbondale, IL, 62901",37.7039705,-89.1949371,118.0,59.0
340,340,"215 Locust St,",Carthage Mobile Home Park,"Carthage, IL",62321.0,Not found,https://www.mhvillage.com/parks/10561,62321,"215 Locust St,Carthage, IL, 62321",40.4098404,-91.1424634,94.0,47.0
341,341,"216 West Woodcrest Drive,",Westwood Mobile Home Park,"Collinsville, IL",62234.0,Not found,https://www.mhvillage.com/parks/10941,62234,"216 West Woodcrest Drive,Collinsville, IL, 62234",38.698544,-89.9889838,112.0,56.0
342,342,"21635 Ridgeland Avenue,",Maple Brook,"Matteson, IL",60443.0,440,https://www.mhvillage.com/parks/10401,60443,"21635 Ridgeland Avenue,Matteson, IL, 60443",41.4953683,-87.7709747,38.0,19.0
343,343,"217 N Stanton St,",Northwest Mh Park,"Princeville, IL",61559.0,Not found,https://www.mhvillage.com/parks/57738,61559,"217 N Stanton St,Princeville, IL, 61559",40.9316251,-89.7620842,73.0,37.0
344,344,"21700 Timber Ridge Road,",Timber Ridge Park LLC,"Matteson, IL",60443.0,773,https://www.mhvillage.com/parks/10402,60443,"21700 Timber Ridge Road,Matteson, IL, 60443",,,0.0,0.0
345,345,"218 School Road,",Oak Park Estates,"Granville, IL",61326.0,150,https://www.mhvillage.com/parks/11171,61326,"218 School Road,Granville, IL, 61326",,,0.0,0.0
346,346,"220 Marion St,",Cooper Trailer Court,"Warsaw, IL",62379.0,Not found,https://www.mhvillage.com/parks/57637,62379,"220 Marion St,Warsaw, IL, 62379",40.3560574,-91.4407814,94.0,47.0
347,347,"2200 East University Avenue,",Woodland Acres,"Urbana, IL",61802.0,93,https://www.mhvillage.com/parks/31959,61802,"2200 East University Avenue,Urbana, IL, 61802",,,0.0,0.0
348,348,"2205 W Fillmore St,",Beckman Mobile Home Court,"Vandalia, IL",62471.0,Not found,https://www.mhvillage.com/parks/57653,62471,"2205 W Fillmore St,Vandalia, IL, 62471",38.972051,-89.1098516,110.0,55.0
349,349,"2211 North Illinois Street,",Country Meadows Manufactured Home Community & RV,"Swansea, IL",62226.0,231,https://www.mhvillage.com/parks/11312,62226,"2211 North Illinois Street,Swansea, IL, 62226",38.5371651,-89.9834804,113.0,57.0
350,350,"2234 Dormaru Drive,",New Athens Mobile Home Park,"New Athens, IL",62264.0,82,https://www.mhvillage.com/parks/11409,62264,"2234 Dormaru Drive,New Athens, IL, 62264",,,0.0,0.0
351,351,"22500 S Remington Dr,",Remington Woods,"Channahon, IL",60410.0,175,https://www.mhvillage.com/parks/42386,60410,"22500 S Remington Dr,Channahon, IL, 60410",41.4740138,-88.1914646,86.0,43.0
352,352,"226 Townline Ave Lot 3B,",Cordial Court Mobile Home Park,"South Beloit, IL",61080.0,40,https://www.mhvillage.com/parks/11644,61080,"226 Townline Ave Lot 3B,South Beloit, IL, 61080",,,0.0,0.0
353,353,"226 Virginia St,",Moores Mobile Home Park,"East Alton, IL",62024.0,Not found,https://www.mhvillage.com/parks/10950,62024,"226 Virginia St,East Alton, IL, 62024",38.8855091,-90.1189895,111.0,56.0
354,354,"22747 Miller Lake Rd.,",Tri Lake Mobile Home Park,"Jerseyville, IL",62052.0,42,https://www.mhvillage.com/parks/10664,62052,"22747 Miller Lake Rd.,Jerseyville, IL, 62052",39.107879,-90.3473171,100.0,50.0
355,355,"2284 W. Galena Ave.,",Woodridge Estates Manufactured Housing Community,"Freeport, IL",61032.0,215,https://www.mhvillage.com/parks/11432,61032,"2284 W. Galena Ave.,Freeport, IL, 61032",42.305737,-89.6551155,90.0,45.0
356,356,"22900 South Big Run Drive,",Gateway Manufactured Home Community,"Frankfort, IL",60423.0,442,https://www.mhvillage.com/parks/29546,60423,"22900 South Big Run Drive,Frankfort, IL, 60423",,,0.0,0.0
357,357,"23 Sistek Road,",Bookwalter Woods,"Gardner, IL",60424.0,167,https://www.mhvillage.com/parks/10551,60424,"23 Sistek Road,Gardner, IL, 60424",,,0.0,0.0
358,358,"2300 79th Avenue West,","COCR Castle MHP, LLC Rock Island","Rock Island, IL",61201.0,129,https://www.mhvillage.com/parks/11227,61201,"2300 79th Avenue West,Rock Island, IL, 61201",41.441236,-90.60021,72.0,36.0
359,359,"2300 East Oakton Street,",Willoway Terrace,"Arlington Heights, IL",60005.0,339,https://www.mhvillage.com/parks/11670,60005,"2300 East Oakton Street,Arlington Heights, IL, 60005",42.0955268,-87.9568791,54.0,27.0
360,360,"2301 South Illinois Avenue,",Roxanne Mobile Home Park,"Carbondale, IL",62901.0,Not found,https://www.mhvillage.com/parks/10627,62901,"2301 South Illinois Avenue,Carbondale, IL, 62901",37.692976,-89.218829,118.0,59.0
361,361,"231 South Court231 South Court St #12,",Rend Lake Mobile Home Park,"Benton, IL",62812.0,52,https://www.mhvillage.com/parks/10518,62812,"231 South Court231 South Court St #12,Benton, IL, 62812",,,0.0,0.0
362,362,"2317 Springfield Road,",Twin City Estates,"Bloomington, IL",61701.0,Not found,https://www.mhvillage.com/parks/31781,61701,"2317 Springfield Road,Bloomington, IL, 61701",40.453137,-89.012182,88.0,44.0
363,363,"235 North Rock Island Stret,",Hilltop Mobile Home Court,"Bureau, IL",61315.0,Not found,https://www.mhvillage.com/parks/10172,61315,"235 North Rock Island Stret,Bureau, IL, 61315",,,0.0,0.0
364,364,"236 Fischer Road,",Northgate Estates,"South Beloit, IL",61080.0,Not found,https://www.mhvillage.com/parks/11645,61080,"236 Fischer Road,South Beloit, IL, 61080",42.4917703,-89.0795531,90.0,45.0
365,365,"2380 County Road 3100 N,",Camelot Estates,"Gifford, IL",61847.0,11,https://www.mhvillage.com/parks/57893,61847,"2380 County Road 3100 N,Gifford, IL, 61847",,,0.0,0.0
366,366,"2397 North Illinois Street,",Decatur Mobile Home park,"Decatur, IL",62526.0,268,https://www.mhvillage.com/parks/10879,62526,"2397 North Illinois Street,Decatur, IL, 62526",39.866748,-88.943572,96.0,48.0
367,367,"2397 North Illinois Street,",Woodland Estates,"Decatur, IL",62526.0,267,https://www.mhvillage.com/parks/10885,62526,"2397 North Illinois Street,Decatur, IL, 62526",39.866748,-88.943572,96.0,48.0
368,368,"240 E Carpenter Ave,",J & J Mobile Home Park,"Stockton, IL",61085.0,Not found,https://www.mhvillage.com/parks/57680,61085,"240 E Carpenter Ave,Stockton, IL, 61085",42.3470268,-90.004871,89.0,45.0
369,369,"240 S Wabash Ave,",Heritage Mobile Home Park,"Centralia, IL",62801.0,Not found,https://www.mhvillage.com/parks/58021,62801,"240 S Wabash Ave,Centralia, IL, 62801",38.4993224,-89.1397517,110.0,55.0
370,370,"240 Whitney Road,",South Shore Village,"Lake Zurich, IL",60047.0,42,https://www.mhvillage.com/parks/10802,60047,"240 Whitney Road,Lake Zurich, IL, 60047",42.1914044,-88.1036006,51.0,26.0
371,371,"2400 West Blue Blaze Trail,",Blue Blaze Mobile Home Estates,"Herrin, IL",62948.0,78,https://www.mhvillage.com/parks/11598,62948,"2400 West Blue Blaze Trail,Herrin, IL, 62948",37.809551,-89.058315,118.0,59.0
372,372,"2401 South 8th Street,",Palm Gardens Mobile Home Park,"Quincy, IL",62301.0,90,https://www.mhvillage.com/parks/10137,62301,"2401 South 8th Street,Quincy, IL, 62301",39.902744,-91.403106,99.0,50.0
373,373,"2401 Veterans Memorial Dr.,",Oak Grove Village,"Mount Vernon, IL",62864.0,155,https://www.mhvillage.com/parks/10656,62864,"2401 Veterans Memorial Dr.,Mount Vernon, IL, 62864",38.299763,-88.923949,116.0,58.0
374,374,"2402 22nd Street,",Cardinal Ridge,"Bloomington, IL",61704.0,364,https://www.mhvillage.com/parks/11060,61704,"2402 22nd Street,Bloomington, IL, 61704",40.4474736,-88.9871034,88.0,44.0
375,375,"2410 E. Main Street,","Surbana Estates MHC, LLC (Trailside)","Urbana, IL",61802.0,16,https://www.mhvillage.com/parks/104881,61802,"2410 E. Main Street,Urbana, IL, 61802",40.1128755,-88.1756975,103.0,52.0
376,376,"2414 East Main Street,",Pine Lawn Mobile Home Estates,"Belleville, IL",62221.0,49,https://www.mhvillage.com/parks/11326,62221,"2414 East Main Street,Belleville, IL, 62221",38.5222416,-89.9575411,113.0,57.0
377,377,"24150 Veterans Road,",Edgewood Terrace,"Morton, IL",61550.0,124,https://www.mhvillage.com/parks/11445,61550,"24150 Veterans Road,Morton, IL, 61550",40.6617611,-89.5040048,91.0,46.0
378,378,"2417 New Era Rd,",Green Acres,"Murphysboro, IL",62966.0,Not found,https://www.mhvillage.com/parks/57790,62966,"2417 New Era Rd,Murphysboro, IL, 62966",,,0.0,0.0
379,379,"24387 N Carver Rd,",Lake Drive Park,"Canton, IL",61520.0,Not found,https://www.mhvillage.com/parks/58054,61520,"24387 N Carver Rd,Canton, IL, 61520",,,0.0,0.0
380,380,"2441 South Illinois Avenue,",Malibu Village Mobile Home Park,"Carbondale, IL",62903.0,Not found,https://www.mhvillage.com/parks/10617,62903,"2441 South Illinois Avenue,Carbondale, IL, 62903",37.6939755,-89.2188065,118.0,59.0
381,381,"24430 W Highway 120,",Chain O Lakes Mobile Homes,"Grayslake, IL",60030.0,66,https://www.mhvillage.com/parks/47088,60030,"24430 W Highway 120,Grayslake, IL, 60030",,,0.0,0.0
382,382,"2450 Waukegan Road,",Sunset Village,"Northfield, IL",60093.0,329,https://www.mhvillage.com/parks/10408,60093,"2450 Waukegan Road,Northfield, IL, 60093",42.1001114,-87.7986735,17.0,9.0
383,383,"246 Wonderland Dr.,",Enchanted Village,"Alton, IL",62002.0,521,https://www.mhvillage.com/parks/10926,62002,"246 Wonderland Dr.,Alton, IL, 62002",38.9192424,-90.1000655,111.0,56.0
384,384,"2464 East 29th Road,",Country Acres Estates,"Seneca, IL",61360.0,125,https://www.mhvillage.com/parks/10767,61360,"2464 East 29th Road,Seneca, IL, 61360",,,0.0,0.0
385,385,"2495 Royal Mine Road,",Dutch Hollow,"Belleville, IL",62226.0,464,https://www.mhvillage.com/parks/11314,62226,"2495 Royal Mine Road,Belleville, IL, 62226",38.5487776,-90.0044882,113.0,57.0
386,386,"25 Willow Wood,",Quail Run of Caseyville,"Caseyville, IL",62232.0,40,https://www.mhvillage.com/parks/105459,62232,"25 Willow Wood,Caseyville, IL, 62232",,,0.0,0.0
387,387,"250 E Lincoln Highway,",Waterman Mobile Home Park,"Waterman, IL",60556.0,Not found,https://www.mhvillage.com/parks/107252,60556,"250 E Lincoln Highway,Waterman, IL, 60556",41.7690605,-88.7683524,76.0,38.0
388,388,"2501 S Broadway Ave,",Southern Gardens Mh Park,"Salem, IL",62881.0,71,https://www.mhvillage.com/parks/57711,62881,"2501 S Broadway Ave,Salem, IL, 62881",,,0.0,0.0
389,389,"2502 Norton Rd,",Country View Mobile Home Park,"Odin, IL",62870.0,Not found,https://www.mhvillage.com/parks/107388,62870,"2502 Norton Rd,Odin, IL, 62870",,,0.0,0.0
390,390,"2506 Springfield Rd #8,",Springfield Court,"East Peoria, IL",61611.0,Not found,https://www.mhvillage.com/parks/107352,61611,"2506 Springfield Rd #8,East Peoria, IL, 61611",,,0.0,0.0
391,391,"2507 214th Street North,",Falcon Farms,"Port Byron, IL",61275.0,215,https://www.mhvillage.com/parks/11678,61275,"2507 214th Street North,Port Byron, IL, 61275",41.5399784,-90.3255428,72.0,36.0
392,392,"25101 South Main,",Westwind Estates,"Lexington, IL",61753.0,Not found,https://www.mhvillage.com/parks/69151,61753,"25101 South Main,Lexington, IL, 61753",,,0.0,0.0
393,393,"2511 South Illinois Avenue,",Town & Country Mobile Home Park,"Carbondale, IL",62903.0,139,https://www.mhvillage.com/parks/10633,62903,"2511 South Illinois Avenue,Carbondale, IL, 62903",37.689978,-89.21904,118.0,59.0
394,394,"2512 E B Street, Unit B,",Meadowbrook,"Belleville, IL",62221.0,176,https://www.mhvillage.com/parks/11322,62221,"2512 E B Street, Unit B,Belleville, IL, 62221",,,0.0,0.0
395,395,"252 S Cass St,",Velten Trailer Park,"Virginia, IL",62691.0,Not found,https://www.mhvillage.com/parks/107336,62691,"252 S Cass St,Virginia, IL, 62691",39.9477365,-90.2099152,99.0,50.0
396,396,"25276 W Grass Lake Rd,",Lupas Resort and Marina,"Antioch, IL",60002.0,32,https://www.mhvillage.com/parks/72915,60002,"25276 W Grass Lake Rd,Antioch, IL, 60002",,,0.0,0.0
397,397,"2530 S Main St,",Riverview Mobile Home Park,"Rockford, IL",61102.0,96,https://www.mhvillage.com/parks/11638,61102,"2530 S Main St,Rockford, IL, 61102",42.2446361,-89.1096609,67.0,34.0
398,398,"2534 New Era Road,",Tan Tara Mobile Home Park,"Murphysboro, IL",62966.0,Not found,https://www.mhvillage.com/parks/10631,62966,"2534 New Era Road,Murphysboro, IL, 62966",,,0.0,0.0
399,399,"2571 South Illinois Avenue,",Cedar Lane Mobile Home Park,"Carbondale, IL",62903.0,100,https://www.mhvillage.com/parks/10606,62903,"2571 South Illinois Avenue,Carbondale, IL, 62903",37.6881307,-89.2199803,118.0,59.0
400,400,"26 Ivanhoe Drive,","Ivanhoe Estates MHC, LLC","Urbana, IL",61802.0,336,https://www.mhvillage.com/parks/10253,61802,"26 Ivanhoe Drive,Urbana, IL, 61802",40.129162,-88.189327,103.0,52.0
401,401,"2602 Brownfield Rd,",Arleen Trailer Park,"Urbana, IL",61802.0,Not found,https://www.mhvillage.com/parks/57660,61802,"2602 Brownfield Rd,Urbana, IL, 61802",40.1282417,-88.186568,103.0,52.0
402,402,"2608 Brownfield Rd,",Powells Mobile Home Park,"Urbana, IL",61802.0,26,https://www.mhvillage.com/parks/57654,61802,"2608 Brownfield Rd,Urbana, IL, 61802",40.1282417,-88.186568,103.0,52.0
403,403,"26222 West Oak Avenue,",Dolphin Harbor,"Antioch, IL",60002.0,Not found,https://www.mhvillage.com/parks/10786,60002,"26222 West Oak Avenue,Antioch, IL, 60002",,,0.0,0.0
404,404,"2624 Ingersoll Ln,",Kay-Lou MHC,"Marion, IL",62959.0,96,https://www.mhvillage.com/parks/11606,62959,"2624 Ingersoll Ln,Marion, IL, 62959",37.7371133,-88.9635189,118.0,59.0
405,405,"26250 W Heart O Lakes Blvd,",Grass Lake Marina & RV Park,"Antioch, IL",60002.0,123,https://www.mhvillage.com/parks/126558,60002,"26250 W Heart O Lakes Blvd,Antioch, IL, 60002",,,0.0,0.0
406,406,"26265 N. Il Route 83,",Diamond Lake Mobile Home Park,"Mundelein, IL",60060.0,63,https://www.mhvillage.com/parks/10805,60060,"26265 N. Il Route 83,Mundelein, IL, 60060",,,0.0,0.0
407,407,"2630 Batestown Rd,",Lawndale Mh Park,"Oakwood, IL",61858.0,Not found,https://www.mhvillage.com/parks/57774,61858,"2630 Batestown Rd,Oakwood, IL, 61858",,,0.0,0.0
408,408,"2630 Spring Creek Rd,",Park Meadowlands West Mhc,"Belvidere, IL",61008.0,Not found,https://www.mhvillage.com/parks/58082,61008,"2630 Spring Creek Rd,Belvidere, IL, 61008",42.3002661,-88.8884672,69.0,35.0
409,409,"26312 North State Route 83,",Paul's Mobile Home Park,"Mundelein, IL",60060.0,18,https://www.mhvillage.com/parks/10806,60060,"26312 North State Route 83,Mundelein, IL, 60060",,,0.0,0.0
410,410,"27 Leisureland,",Leisureland Pleasure Park,"Niota, IL",62358.0,Not found,https://www.mhvillage.com/parks/57781,62358,"27 Leisureland,Niota, IL, 62358",,,0.0,0.0
411,411,"2705 Saint Vincents Avenue,",Blossom Mobile Home Park,"La Salle, IL",61301.0,60,https://www.mhvillage.com/parks/10742,61301,"2705 Saint Vincents Avenue,La Salle, IL, 61301",41.3561942,-89.0965042,76.0,38.0
412,412,"2716 West Delmar Ave.,",Oak Grove,"Godfrey, IL",62035.0,73,https://www.mhvillage.com/parks/10962,62035,"2716 West Delmar Ave.,Godfrey, IL, 62035",38.9364417,-90.2439537,100.0,50.0
413,413,"2735 South 14th Street,",Woodside Mobile Home Community,"Springfield, IL",62703.0,Not found,https://www.mhvillage.com/parks/11256,62703,"2735 South 14th Street,Springfield, IL, 62703",39.7770936,-89.636919,96.0,48.0
414,414,"27644 N 1700 E Rd,",Sunny Oak Mobile Home Park,"Bismarck, IL",61814.0,36,https://www.mhvillage.com/parks/11456,61814,"27644 N 1700 E Rd,Bismarck, IL, 61814",,,0.0,0.0
415,415,"27668 Timberli Rd,",Timberli Lake Estates,"Girard, IL",62640.0,60,https://www.mhvillage.com/parks/11664,62640,"27668 Timberli Rd,Girard, IL, 62640",,,0.0,0.0
416,416,"2776 East 2625th Road,",Whispering Pines Campground,"Marseilles, IL",61341.0,Not found,https://www.mhvillage.com/parks/10744,61341,"2776 East 2625th Road,Marseilles, IL, 61341",41.335765,-88.664347,75.0,38.0
417,417,"27W370 Geneva Road,",Pleasant Ridge,"West Chicago, IL",60185.0,148,https://www.mhvillage.com/parks/10476,60185,"27W370 Geneva Road,West Chicago, IL, 60185",,,0.0,0.0
418,418,"2800 Broadway Street,",Broadway Estates,"Blue Island, IL",60406.0,Not found,https://www.mhvillage.com/parks/10345,60406,"2800 Broadway Street,Blue Island, IL, 60406",,,0.0,0.0
419,419,"2800 Calvin Boulevard,",Lazy Acres Mobile Home Park,"East Saint Louis, IL",62206.0,Not found,https://www.mhvillage.com/parks/11370,62206,"2800 Calvin Boulevard,East Saint Louis, IL, 62206",,,0.0,0.0
420,420,"2800 Ridge Avenue,",Ridge Village Mobile Home Park,"Springfield, IL",62702.0,52,https://www.mhvillage.com/parks/11281,62702,"2800 Ridge Avenue,Springfield, IL, 62702",39.81689,-89.609657,95.0,48.0
421,421,"2800 Via Rosso,",Timber Creek Living,"Springfield, IL",62703.0,200,https://www.mhvillage.com/parks/68948,62703,"2800 Via Rosso,Springfield, IL, 62703",39.7669536,-89.6235766,96.0,48.0
422,422,"2804 State Route 37,",Country School Mobile Village,"Salem, IL",62881.0,Not found,https://www.mhvillage.com/parks/57712,62881,"2804 State Route 37,Salem, IL, 62881",,,0.0,0.0
423,423,"2805 South Belt West,",Sutter's Mobile Home Park,"Belleville, IL",62223.0,Not found,https://www.mhvillage.com/parks/11333,62223,"2805 South Belt West,Belleville, IL, 62223",38.5264366,-90.0233828,113.0,57.0
424,424,"2820 Calvin Boulevard,",Colonial,"East Saint Louis, IL",62206.0,Not found,https://www.mhvillage.com/parks/11364,62206,"2820 Calvin Boulevard,East Saint Louis, IL, 62206",,,0.0,0.0
425,425,"2826 E 138th Place,",OK Trailer Park,"Chicago, IL",60633.0,Not found,https://www.mhvillage.com/parks/10358,60633,"2826 E 138th Place,Chicago, IL, 60633",,,0.0,0.0
426,426,"2836 East Lincoln Highway,",Linway Estates,"Chicago Heights, IL",60411.0,300,https://www.mhvillage.com/parks/10362,60411,"2836 East Lincoln Highway,Chicago Heights, IL, 60411",41.506181,-87.624216,80.0,40.0
427,427,"2839 Camp Jackson Road,",Thunderbird Court,"East Saint Louis, IL",62206.0,Not found,https://www.mhvillage.com/parks/11380,62206,"2839 Camp Jackson Road,East Saint Louis, IL, 62206",,,0.0,0.0
428,428,"290 Warren Rd,",University Heights,"Carbondale, IL",62901.0,96,https://www.mhvillage.com/parks/58042,62901,"290 Warren Rd,Carbondale, IL, 62901",37.705219,-89.194921,118.0,59.0
429,429,"2900 Camp Jackson Rd,",Patricia Village,"Cahokia, IL",62206.0,Not found,https://www.mhvillage.com/parks/58062,62206,"2900 Camp Jackson Rd,Cahokia, IL, 62206",38.549685,-90.128756,114.0,57.0
430,430,"2900 Sand Road,",Stone Meadows Mobile Home Park,"Edwardsville, IL",62025.0,284,https://www.mhvillage.com/parks/11696,62025,"2900 Sand Road,Edwardsville, IL, 62025",38.762688,-90.025832,111.0,56.0
431,431,"2900 W Farmington Rd,",Wandering Springs,"West Peoria, IL",61604.0,98,https://www.mhvillage.com/parks/57627,61604,"2900 W Farmington Rd,West Peoria, IL, 61604",40.7040397,-89.6383797,92.0,46.0
432,432,"291 Il Rt. 2,",Rock River Estates,"Dixon, IL",61021.0,200,https://www.mhvillage.com/parks/10845,61021,"291 Il Rt. 2,Dixon, IL, 61021",,,0.0,0.0
433,433,"2919 S Belt West Suite C,",Varski Properties MHP #1,"Belleville, IL",62226.0,Not found,https://www.mhvillage.com/parks/107026,62226,"2919 S Belt West Suite C,Belleville, IL, 62226",,,0.0,0.0
434,434,"2993 Curtis Street,",Buckhorn Estates,"Des Plaines, IL",60018.0,143,https://www.mhvillage.com/parks/10367,60018,"2993 Curtis Street,Des Plaines, IL, 60018",42.000345,-87.879599,55.0,28.0
435,435,"3 Shawn Drive,",Shawn Mobile Home Park,"Swansea, IL",62226.0,Not found,https://www.mhvillage.com/parks/11331,62226,"3 Shawn Drive,Swansea, IL, 62226",38.5283201,-89.9950323,113.0,57.0
436,436,"300 East Olive Street,",Starlight Mobile Home Village,"Salem, IL",62881.0,Not found,https://www.mhvillage.com/parks/11005,62881,"300 East Olive Street,Salem, IL, 62881",38.6302033,-88.9425962,110.0,55.0
437,437,"300 East Spencer Street,",Creek Ridge,"Dwight, IL",60420.0,97,https://www.mhvillage.com/parks/10851,60420,"300 East Spencer Street,Dwight, IL, 60420",41.1010493,-88.4257876,106.0,53.0
438,438,"300 Forrest Avenue,",Forrest Park,"Springfield, IL",62707.0,160,https://www.mhvillage.com/parks/127228,62707,"300 Forrest Avenue,Springfield, IL, 62707",39.8051947,-89.6175826,96.0,48.0
439,439,"300 N Daley St,",Burt Estates,"Diamond, IL",60416.0,Not found,https://www.mhvillage.com/parks/10550,60416,"300 N Daley St,Diamond, IL, 60416",41.290705,-88.253036,106.0,53.0
440,440,"300 N Daley Street,",Burt Estates,"Diamond, IL",60416.0,242,https://www.mhvillage.com/parks/10549,60416,"300 N Daley Street,Diamond, IL, 60416",41.290705,-88.253036,106.0,53.0
441,441,"300 South Independence Street,",Mascoutah Acres,"Mascoutah, IL",62258.0,Not found,https://www.mhvillage.com/parks/11404,62258,"300 South Independence Street,Mascoutah, IL, 62258",38.487499,-89.792398,114.0,57.0
442,442,"300 South Somonauk Road,",Cortland,"Dekalb, IL",60115.0,81,https://www.mhvillage.com/parks/10437,60115,"300 South Somonauk Road,Dekalb, IL, 60115",41.914292,-88.688723,70.0,35.0
443,443,"300 Spelter Avenue,",Danville Mobile Home Park,"Danville, IL",61832.0,90,https://www.mhvillage.com/parks/11473,61832,"300 Spelter Avenue,Danville, IL, 61832",,,0.0,0.0
444,444,"300 West Bluff Street,",Bluff Street Mobile Home Manor,"East Peoria, IL",61611.0,Not found,https://www.mhvillage.com/parks/11436,61611,"300 West Bluff Street,East Peoria, IL, 61611",40.666689,-89.5469243,91.0,46.0
445,445,"300 West Mill Street,",Marissa Mobile Estates,"Marissa, IL",62257.0,37,https://www.mhvillage.com/parks/11396,62257,"300 West Mill Street,Marissa, IL, 62257",38.245713,-89.756681,115.0,58.0
446,446,"3000 S 11th St,",Barco Mh Park,"Springfield, IL",62703.0,Not found,https://www.mhvillage.com/parks/57697,62703,"3000 S 11th St,Springfield, IL, 62703",,,0.0,0.0
447,447,"3000 S 12th St,",C & C Trailer Park,"Springfield, IL",62703.0,Not found,https://www.mhvillage.com/parks/57696,62703,"3000 S 12th St,Springfield, IL, 62703",,,0.0,0.0
448,448,"3000 West Jackson Street,",Oak Lawn Estates,"Morton, IL",61550.0,470,https://www.mhvillage.com/parks/86,61550,"3000 West Jackson Street,Morton, IL, 61550",40.6142873,-89.4615737,87.0,44.0
449,449,"3001 Forest Preserve Drive,",Manson Mobile Home Park,"Chicago Heights, IL",60411.0,Not found,https://www.mhvillage.com/parks/10363,60411,"3001 Forest Preserve Drive,Chicago Heights, IL, 60411",41.481719,-87.654641,79.0,40.0
450,450,"3001 S Belt W,",Westview Mobile Home Park,"Belleville, IL",62226.0,Not found,https://www.mhvillage.com/parks/11338,62226,"3001 S Belt W,Belleville, IL, 62226",38.5305299,-90.0281308,113.0,57.0
451,451,"301 East Street,",Rolling Meadows Mobile Home Park,"Abingdon, IL",61410.0,72,https://www.mhvillage.com/parks/10724,61410,"301 East Street,Abingdon, IL, 61410",40.801443,-90.394249,94.0,47.0
452,452,"301 Mine Road,",Holland Mobile Home Park,"Mascoutah, IL",62258.0,34,https://www.mhvillage.com/parks/11402,62258,"301 Mine Road,Mascoutah, IL, 62258",38.4878534,-89.7892604,114.0,57.0
453,453,"301 North Lincoln Street,",Country Air Mobile Manor,"Smithton, IL",62285.0,96,https://www.mhvillage.com/parks/11422,62285,"301 North Lincoln Street,Smithton, IL, 62285",38.411295,-89.99442,114.0,57.0
454,454,"301 North Main Street,",Lake Suzanne,"Shiloh, IL",62269.0,103,https://www.mhvillage.com/parks/11412,62269,"301 North Main Street,Shiloh, IL, 62269",38.566174,-89.894246,113.0,57.0
455,455,"301 North Snell,",Riva & Sons Mobile Home Park,"Blue Mound, IL",62513.0,Not found,https://www.mhvillage.com/parks/10875,62513,"301 North Snell,Blue Mound, IL, 62513",39.701447,-89.117606,107.0,54.0
456,456,"30106 Ingham Ln,",Kanallakan Court,"Godfrey, IL",62035.0,Not found,https://www.mhvillage.com/parks/107348,62035,"30106 Ingham Ln,Godfrey, IL, 62035",38.9892601,-90.1947672,100.0,50.0
457,457,"302 North Railroad Street,",Lackmann's Mobile Home Park,"Freeburg, IL",62243.0,Not found,https://www.mhvillage.com/parks/11388,62243,"302 North Railroad Street,Freeburg, IL, 62243",38.4295919,-89.9144113,114.0,57.0
458,458,"302 S Indiana St,",Atwood MHC West,"Atwood, IL",61913.0,Not found,https://www.mhvillage.com/parks/107294,61913,"302 S Indiana St,Atwood, IL, 61913",,,0.0,0.0
459,459,"303 E Little St,",Three Acres Park,"Rushville, IL",62681.0,Not found,https://www.mhvillage.com/parks/106848,62681,"303 E Little St,Rushville, IL, 62681",40.1263926,-90.5584554,99.0,50.0
460,460,"303 N Vine St,",Peterson Mh Court,"Heyworth, IL",61745.0,Not found,https://www.mhvillage.com/parks/57860,61745,"303 N Vine St,Heyworth, IL, 61745",,,0.0,0.0
461,461,"304 Meister St,",Wagon Wheel,"Collinsville, IL",62234.0,Not found,https://www.mhvillage.com/parks/10933,62234,"304 Meister St,Collinsville, IL, 62234",38.674273,-89.9759769,112.0,56.0
462,462,"304 NE 15th St Casey Il 62420,",Greenland Estates,"Casey, IL",62420.0,Not found,https://www.mhvillage.com/parks/107072,62420,"304 NE 15th St Casey Il 62420,Casey, IL, 62420",,,0.0,0.0
463,463,"3041 E Linden Ave,",Linden Manor,"Springfield, IL",62702.0,45,https://www.mhvillage.com/parks/11271,62702,"3041 E Linden Ave,Springfield, IL, 62702",39.804507,-89.609429,95.0,48.0
464,464,"305 East Taylor Avenue,",Washington Springs Estates,"Okawville, IL",62271.0,Not found,https://www.mhvillage.com/parks/11526,62271,"305 East Taylor Avenue,Okawville, IL, 62271",38.4298962,-89.5465076,109.0,55.0
465,465,"3053 Grand Ave.,",Kimberly Terrace,"Galesburg, IL",61401.0,129,https://www.mhvillage.com/parks/10729,61401,"3053 Grand Ave.,Galesburg, IL, 61401",40.9398889,-90.3437971,71.0,36.0
466,466,"306 E 4th St,",B&D Mobile Home Park,"Waterloo, IL",62298.0,Not found,https://www.mhvillage.com/parks/107152,62298,"306 E 4th St,Waterloo, IL, 62298",,,0.0,0.0
467,467,"307 N Main St,",Mc Coy Mh Park,"Camp Point, IL",62320.0,Not found,https://www.mhvillage.com/parks/58060,62320,"307 N Main St,Camp Point, IL, 62320",,,0.0,0.0
468,468,"31 Cornflower Lane,",Prairieland Estates Mobile Home Community,"Bloomington, IL",61701.0,103,https://www.mhvillage.com/parks/27866,61701,"31 Cornflower Lane,Bloomington, IL, 61701",,,0.0,0.0
469,469,"310 Ash Lane,",Mill Point,"East Peoria, IL",61611.0,80,https://www.mhvillage.com/parks/11648,61611,"310 Ash Lane,East Peoria, IL, 61611",,,0.0,0.0
470,470,"310 Blackford St,",Castleberrys Pondview Mh Park,"Danville, IL",61832.0,Not found,https://www.mhvillage.com/parks/57958,61832,"310 Blackford St,Danville, IL, 61832",,,0.0,0.0
471,471,"3107 Kingshighway,",Shamrock Haven,"East Saint Louis, IL",62201.0,Not found,https://www.mhvillage.com/parks/36210,62201,"3107 Kingshighway,East Saint Louis, IL, 62201",38.6126532,-90.0928381,114.0,57.0
472,472,"3113 South Main Street,",Ann's Mobile Home Park,"Rockford, IL",61102.0,Not found,https://www.mhvillage.com/parks/11623,61102,"3113 South Main Street,Rockford, IL, 61102",42.2372803,-89.1088526,67.0,34.0
473,473,"3113 W Chain Of Rocks Rd,",Edwards MHP,"Granite City, IL",62040.0,65,https://www.mhvillage.com/parks/57882,62040,"3113 W Chain Of Rocks Rd,Granite City, IL, 62040",38.7621232,-90.1315263,111.0,56.0
474,474,"3118 North Us Highway 45 52,",Iroquois Mobile Estates,"Chebanse, IL",60922.0,51,https://www.mhvillage.com/parks/10586,60922,"3118 North Us Highway 45 52,Chebanse, IL, 60922",,,0.0,0.0
475,475,"312 California Ave,",The Oaks,"Oglesby, IL",61348.0,Not found,https://www.mhvillage.com/parks/57772,61348,"312 California Ave,Oglesby, IL, 61348",41.2976791,-89.0541135,76.0,38.0
476,476,"3120 W Chain Rocks Road,",Sunny Shores Mobile Estates,"Granite City, IL",62040.0,130,https://www.mhvillage.com/parks/10976,62040,"3120 W Chain Rocks Road,Granite City, IL, 62040",,,0.0,0.0
477,477,"3123 W Chain Of Rocks Rd,",Chain Of Rocks,"Granite City, IL",62040.0,Not found,https://www.mhvillage.com/parks/57884,62040,"3123 W Chain Of Rocks Rd,Granite City, IL, 62040",38.7606049,-90.1080369,111.0,56.0
478,478,"314 North Jefferson Street,",Cozy Acres,"Millstadt, IL",62260.0,Not found,https://www.mhvillage.com/parks/11407,62260,"314 North Jefferson Street,Millstadt, IL, 62260",38.4641163,-90.0914825,114.0,57.0
479,479,"314 S Saint Louis St,",Shady Nook Mobile Home Park,"Elwood, IL",60421.0,80,https://www.mhvillage.com/parks/11565,60421,"314 S Saint Louis St,Elwood, IL, 60421",41.401075,-88.107376,86.0,43.0
480,480,"319 E Adams St,",Tomlinson Court,"Rushville, IL",62681.0,Not found,https://www.mhvillage.com/parks/57715,62681,"319 E Adams St,Rushville, IL, 62681",40.1239249,-90.5573303,99.0,50.0
481,481,"319 West Blackburn Road,",New Haven Mobile Home Park,"Paris, IL",61944.0,Not found,https://www.mhvillage.com/parks/10481,61944,"319 West Blackburn Road,Paris, IL, 61944",,,0.0,0.0
482,482,"31A Watch-E-Kee Drive,",Watch-E-Kee Mobile Home Park,"Watseka, IL",60970.0,63,https://www.mhvillage.com/parks/10597,60970,"31A Watch-E-Kee Drive,Watseka, IL, 60970",,,0.0,0.0
483,483,"320 Clear Creek Drive,",Prahls Mobile Home Park,"Neoga, IL",62447.0,Not found,https://www.mhvillage.com/parks/22799,62447,"320 Clear Creek Drive,Neoga, IL, 62447",,,0.0,0.0
484,484,"3200 North Delta Avenue,",Park City Mobile Home Park,"Decatur, IL",62526.0,519,https://www.mhvillage.com/parks/10888,62526,"3200 North Delta Avenue,Decatur, IL, 62526",,,0.0,0.0
485,485,"3201 South Douglas Avenue,",Edgewood Mobile Home Park,"Springfield, IL",62704.0,48,https://www.mhvillage.com/parks/11257,62704,"3201 South Douglas Avenue,Springfield, IL, 62704",39.7884516,-89.6704391,96.0,48.0
486,486,"3206 E Elm Street,",Brittany Court,"Springfield, IL",62702.0,Not found,https://www.mhvillage.com/parks/111114,62702,"3206 E Elm Street,Springfield, IL, 62702",39.810971,-89.6028589,95.0,48.0
487,487,"321 W Belmont St,",Belmont Court,"Sparta, IL",62286.0,Not found,https://www.mhvillage.com/parks/57701,62286,"321 W Belmont St,Sparta, IL, 62286",,,0.0,0.0
488,488,"3213 S Belt,",Family Tree Park,"Belleville, IL",62226.0,Not found,https://www.mhvillage.com/parks/107076,62226,"3213 S Belt,Belleville, IL, 62226",38.5312396,-90.0284969,113.0,57.0
489,489,"32223 N Us Highway 12,",Fish Lake Beach RV,"Volo, IL",60073.0,Not found,https://www.mhvillage.com/parks/72942,60073,"32223 N Us Highway 12,Volo, IL, 60073",,,0.0,0.0
490,490,"3263 Aquamarine Dr,",Green Meadows Estates,"Rockford, IL",61102.0,Not found,https://www.mhvillage.com/parks/98849,61102,"3263 Aquamarine Dr,Rockford, IL, 61102",,,0.0,0.0
491,491,"3303 E Enos Ave,",Sunset,"Springfield, IL",62702.0,Not found,https://www.mhvillage.com/parks/57692,62702,"3303 E Enos Ave,Springfield, IL, 62702",39.80758,-89.6023825,95.0,48.0
492,492,"3308 Kehm Blvd.,",Maple Grove Estates,"Park City, IL",60085.0,613,https://www.mhvillage.com/parks/33821,60085,"3308 Kehm Blvd.,Park City, IL, 60085",42.3490193,-87.8838158,59.0,30.0
493,493,"3308 Kehm Boulevard,",Farmington Estates,"Park City, IL",60085.0,225,https://www.mhvillage.com/parks/11674,60085,"3308 Kehm Boulevard,Park City, IL, 60085",42.3490193,-87.8838158,59.0,30.0
494,494,"3308 Kehm Boulevard,",Midway Estates,"Park City, IL",60085.0,198,https://www.mhvillage.com/parks/10808,60085,"3308 Kehm Boulevard,Park City, IL, 60085",42.3490193,-87.8838158,59.0,30.0
495,495,"331 S Morrison St,",Richmond Heights,"Centralia, IL",62801.0,Not found,https://www.mhvillage.com/parks/58017,62801,"331 S Morrison St,Centralia, IL, 62801",,,0.0,0.0
496,496,"3319 Ridgewood Avenue,",Prairie Grove,"Springfield, IL",62702.0,78,https://www.mhvillage.com/parks/11689,62702,"3319 Ridgewood Avenue,Springfield, IL, 62702",39.823888,-89.600365,95.0,48.0
497,497,"333 Hillview Drive,",Hillview Mobile Home Park,"Princeton, IL",61356.0,78,https://www.mhvillage.com/parks/11662,61356,"333 Hillview Drive,Princeton, IL, 61356",41.3720759,-89.4873537,73.0,37.0
498,498,"3333 290th Street North,",Sun Retreats Rock River,"Hillsdale, IL",61257.0,489,https://www.mhvillage.com/parks/105837,61257,"3333 290th Street North,Hillsdale, IL, 61257",,,0.0,0.0
499,499,"3337 E Carpenter St,",Johns Mobile Apts & Park,"Springfield, IL",62702.0,Not found,https://www.mhvillage.com/parks/57690,62702,"3337 E Carpenter St,Springfield, IL, 62702",39.8067171,-89.6022504,95.0,48.0
500,500,"335 Warren Road,",Southern Mobile Home Park,"Carbondale, IL",62901.0,77,https://www.mhvillage.com/parks/10629,62901,"335 Warren Road,Carbondale, IL, 62901",37.705502,-89.195126,118.0,59.0
501,501,"3355 75ThAve,",Shady Lakes Campground,"New Windsor, IL",61465.0,342,https://www.mhvillage.com/parks/128140,61465,"3355 75ThAve,New Windsor, IL, 61465",,,0.0,0.0
502,502,"338 North Amy Dr.,",Deluxe Lake Estates,"Bellevue, IL",61604.0,131,https://www.mhvillage.com/parks/28560,61604,"338 North Amy Dr.,Bellevue, IL, 61604",40.6913769,-89.6874605,93.0,47.0
503,503,"340 Princeton Dr,",Villa Court Mobile Home Park,"Belleville, IL",62223.0,Not found,https://www.mhvillage.com/parks/11336,62223,"340 Princeton Dr,Belleville, IL, 62223",,,0.0,0.0
504,504,"3401 East Ridge Avenue,",Grant Mobile Home Park,"Springfield, IL",62702.0,90,https://www.mhvillage.com/parks/11265,62702,"3401 East Ridge Avenue,Springfield, IL, 62702",,,0.0,0.0
505,505,"3418 Kehm Boulevard,",Park City Manufactured Home Community,"Park City, IL",60085.0,641,https://www.mhvillage.com/parks/57237,60085,"3418 Kehm Boulevard,Park City, IL, 60085",42.3493519,-87.8855247,59.0,30.0
506,506,"3430 Peoria Road,",Northbrook MHC,"Springfield, IL",62702.0,180,https://www.mhvillage.com/parks/11266,62702,"3430 Peoria Road,Springfield, IL, 62702",39.8476907,-89.6270452,95.0,48.0
507,507,"3431 Seminary Street,",Glenwood,"Alton, IL",62002.0,63,https://www.mhvillage.com/parks/10924,62002,"3431 Seminary Street,Alton, IL, 62002",38.9244464,-90.1423576,111.0,56.0
508,508,"3451 Ridge Avenue,",Willow Grove,"Springfield, IL",62702.0,97,https://www.mhvillage.com/parks/11294,62702,"3451 Ridge Avenue,Springfield, IL, 62702",39.8234219,-89.5994452,95.0,48.0
509,509,"347 S Division St,",Sunset View Mh Park,"Harvard, IL",60033.0,Not found,https://www.mhvillage.com/parks/57866,60033,"347 S Division St,Harvard, IL, 60033",42.4130501,-88.6135615,69.0,35.0
510,510,"3500 Hazlett Road,",Country Estates Mobile Home Park,"Springfield, IL",62707.0,38,https://www.mhvillage.com/parks/11706,62707,"3500 Hazlett Road,Springfield, IL, 62707",,,0.0,0.0
511,511,"3500 North Dirksen Parkway,",Woodland Acres Mobile Home Park,"Springfield, IL",62702.0,232,https://www.mhvillage.com/parks/11295,62702,"3500 North Dirksen Parkway,Springfield, IL, 62702",39.8524049,-89.6077702,95.0,48.0
512,512,"3501 Ridgely Ave,",Fremont Park,"Springfield, IL",62702.0,94,https://www.mhvillage.com/parks/11704,62702,"3501 Ridgely Ave,Springfield, IL, 62702",39.8236485,-89.6394263,95.0,48.0
513,513,"3510 S Dwight Rd,",Rustic Acres Mobile Home Park,"Mazon, IL",60444.0,Not found,https://www.mhvillage.com/parks/107164,60444,"3510 S Dwight Rd,Mazon, IL, 60444",,,0.0,0.0
514,514,"353 West Monroe Street,",Monroe Street Mobile Home Park,"Monticello, IL",61856.0,Not found,https://www.mhvillage.com/parks/11168,61856,"353 West Monroe Street,Monticello, IL, 61856",40.018816,-88.5760675,88.0,44.0
515,515,"3535 East Cook Street,",Pheasant Run,"Springfield, IL",62703.0,163,https://www.mhvillage.com/parks/11277,62703,"3535 East Cook Street,Springfield, IL, 62703",39.7947054,-89.5996484,96.0,48.0
516,516,"3540 S 6th Street Rd,",Sunset Inn Trailor Court,"Springfield, IL",62703.0,Not found,https://www.mhvillage.com/parks/57686,62703,"3540 S 6th Street Rd,Springfield, IL, 62703",,,0.0,0.0
517,517,"3556 Old 51 Road,",Colonial Esates,"Sandoval, IL",62882.0,Not found,https://www.mhvillage.com/parks/31166,62882,"3556 Old 51 Road,Sandoval, IL, 62882",38.5770888,-89.1147405,110.0,55.0
518,518,"360 Ivanhoe Rd,",Avon Mobile Home Park,"Grayslake, IL",60030.0,Not found,https://www.mhvillage.com/parks/57880,60030,"360 Ivanhoe Rd,Grayslake, IL, 60030",42.3355055,-88.0291346,62.0,31.0
519,519,"3617 N Grand Ave E.,",Cottonwood Cove,"Springfield, IL",62707.0,280,https://www.mhvillage.com/parks/127230,62707,"3617 N Grand Ave E.,Springfield, IL, 62707",39.8163656,-89.5982916,95.0,48.0
520,520,"3617 North Grand Avenue East,",Cottonwood South,"Springfield, IL",62702.0,295,https://www.mhvillage.com/parks/11254,62702,"3617 North Grand Avenue East,Springfield, IL, 62702",39.8163656,-89.5982916,95.0,48.0
521,521,"3625 South Douglas Avenue,",Salmons Mobile Home Court,"Springfield, IL",62704.0,Not found,https://www.mhvillage.com/parks/11285,62704,"3625 South Douglas Avenue,Springfield, IL, 62704",39.7884516,-89.6704391,96.0,48.0
522,522,"363 E 17th St,",Jana Drive Mh Park,"Centralia, IL",62801.0,Not found,https://www.mhvillage.com/parks/58019,62801,"363 E 17th St,Centralia, IL, 62801",38.510462,-89.136892,110.0,55.0
523,523,"368 Warren Rd,",Bush Mobile Home Park North 2,"Carbondale, IL",62901.0,Not found,https://www.mhvillage.com/parks/58051,62901,"368 Warren Rd,Carbondale, IL, 62901",37.7059458,-89.1951378,118.0,59.0
524,524,"37 Green Acres,",Green Acres Mobile Estates,"Geneseo, IL",61254.0,39,https://www.mhvillage.com/parks/10581,61254,"37 Green Acres,Geneseo, IL, 61254",,,0.0,0.0
525,525,"37021 N Sheridan Rd,",Pinecrest Mobile Home Park,"Beach Park, IL",60087.0,Not found,https://www.mhvillage.com/parks/10824,60087,"37021 N Sheridan Rd,Beach Park, IL, 60087",42.3995068,-87.8281729,61.0,31.0
526,526,"3710 Daffodil Drive,",Prairie Place,"Bloomington, IL",61704.0,38,https://www.mhvillage.com/parks/31415,61704,"3710 Daffodil Drive,Bloomington, IL, 61704",40.4338478,-89.0322615,88.0,44.0
527,527,"3711 North Cunningham Avenue,",Ehler's Trailer Park,"Urbana, IL",61802.0,Not found,https://www.mhvillage.com/parks/10250,61802,"3711 North Cunningham Avenue,Urbana, IL, 61802",40.1530832,-88.1839648,104.0,52.0
528,528,"3725 N. Peoria Road,",Oakwood an FR Community,"Springfield, IL",62702.0,210,https://www.mhvillage.com/parks/11292,62702,"3725 N. Peoria Road,Springfield, IL, 62702",39.8497463,-89.6266635,95.0,48.0
529,529,"3737 North 24th Street,",Rancho Vista Estates,"Quincy, IL",62305.0,100,https://www.mhvillage.com/parks/10139,62305,"3737 North 24th Street,Quincy, IL, 62305",,,0.0,0.0
530,530,"3747 West Il Route 64,",Mt. Morris Estates MHP LLC,"Mount Morris, IL",61054.0,171,https://www.mhvillage.com/parks/11127,61054,"3747 West Il Route 64,Mount Morris, IL, 61054",,,0.0,0.0
531,531,"3801 Lake Drive,","Village Green MHC, LLC","Pontoon Beach, IL",62040.0,135,https://www.mhvillage.com/parks/10977,62040,"3801 Lake Drive,Pontoon Beach, IL, 62040",38.72442,-90.075864,111.0,56.0
532,532,"3814 29th Street,",L and G Mobile Home Park,"Moline, IL",61265.0,Not found,https://www.mhvillage.com/parks/57813,61265,"3814 29th Street,Moline, IL, 61265",41.4747696,-90.4976885,72.0,36.0
533,533,"38285 N Sheridan Rd,",Lake View Manufactured Home Community,"Beach Park, IL",60087.0,188,https://www.mhvillage.com/parks/10820,60087,"38285 N Sheridan Rd,Beach Park, IL, 60087",42.4179157,-87.8217641,61.0,31.0
534,534,"38455 North Sheridan Road,",Kings Way Estates,"Beach Park, IL",60087.0,361,https://www.mhvillage.com/parks/11356,60087,"38455 North Sheridan Road,Beach Park, IL, 60087",42.419505,-87.825565,61.0,31.0
535,535,"38569 N Sheridan Rd,",Shoreline Terrace,"Beach Park, IL",60099.0,Not found,https://www.mhvillage.com/parks/105849,60099,"38569 N Sheridan Rd,Beach Park, IL, 60099",42.4212049,-87.8258069,61.0,31.0
536,536,"38600 N. Lakeside Pl,",Island on the Chain,"Antioch, IL",60002.0,Not found,https://www.mhvillage.com/parks/72940,60002,"38600 N. Lakeside Pl,Antioch, IL, 60002",,,0.0,0.0
537,537,"38703 North Sheridan Road,",Beach Mobile Home Park,"Beach Park, IL",60099.0,208,https://www.mhvillage.com/parks/10829,60099,"38703 North Sheridan Road,Beach Park, IL, 60099",42.4239121,-87.8258009,61.0,31.0
538,538,"38788 North Broadway Avenue,",North Fox Recreational,"Antioch, IL",60002.0,Not found,https://www.mhvillage.com/parks/10789,60002,"38788 North Broadway Avenue,Antioch, IL, 60002",,,0.0,0.0
539,539,"388 Warren Rd,",Meadowbrook Estates,"Carbondale, IL",62901.0,Not found,https://www.mhvillage.com/parks/58047,62901,"388 Warren Rd,Carbondale, IL, 62901",37.7060728,-89.1951319,118.0,59.0
540,540,"38816 Broadway Ave,",Inland Harbor,"Antioch, IL",60002.0,Not found,https://www.mhvillage.com/parks/69993,60002,"38816 Broadway Ave,Antioch, IL, 60002",,,0.0,0.0
541,541,"39 Dennis Drive,",Grandview Estates,"Bloomington, IL",61701.0,191,https://www.mhvillage.com/parks/11052,61701,"39 Dennis Drive,Bloomington, IL, 61701",40.4643486,-89.023617,91.0,46.0
542,542,"3901 Newburg Rd,",Greenview Estates,"Belvidere, IL",61008.0,355,https://www.mhvillage.com/parks/10164,61008,"3901 Newburg Rd,Belvidere, IL, 61008",42.2545808,-88.8914282,68.0,34.0
543,543,"3925 Tiffany Terrace,",Wilder Haven East,"Decatur, IL",62526.0,494,https://www.mhvillage.com/parks/10892,62526,"3925 Tiffany Terrace,Decatur, IL, 62526",39.8955633,-88.9137218,88.0,44.0
544,544,"397 S Fayette,",Kils Mobile Home Park,"El Paso, IL",61738.0,Not found,https://www.mhvillage.com/parks/107102,61738,"397 S Fayette,El Paso, IL, 61738",40.7340078,-89.0246592,105.0,53.0
545,545,"397 South Fayette Street,",Kilpatrick's Mobile Home Park,"El Paso, IL",61738.0,Not found,https://www.mhvillage.com/parks/11651,61738,"397 South Fayette Street,El Paso, IL, 61738",40.7340078,-89.0246592,105.0,53.0
546,546,"3998 Baileyville Road,",Timber Ridge MHP LLC,"Freeport, IL",61032.0,60,https://www.mhvillage.com/parks/11430,61032,"3998 Baileyville Road,Freeport, IL, 61032",42.2749742,-89.6017129,90.0,45.0
547,547,"4 Candlelight Drive,",Candlelight Village,"Sauk Village, IL",60411.0,309,https://www.mhvillage.com/parks/10361,60411,"4 Candlelight Drive,Sauk Village, IL, 60411",41.5018403,-87.5624916,34.0,17.0
548,548,"4 Oak Court,",Park Harbor Mobile Home Park,"Calumet City, IL",60409.0,Not found,https://www.mhvillage.com/parks/10351,60409,"4 Oak Court,Calumet City, IL, 60409",41.6308202,-87.5778116,29.0,15.0
549,549,"4 Testing Parkway,",Quarantine Community,"Quincy, IL",62301.0,Not found,https://www.mhvillage.com/parks/125565,62301,"4 Testing Parkway,Quincy, IL, 62301",,,0.0,0.0
550,550,"40 Canada Ln,",Willow Creek North Mobile Home Park,"Bloomington, IL",61701.0,120,https://www.mhvillage.com/parks/11061,61701,"40 Canada Ln,Bloomington, IL, 61701",40.469225,-89.020131,91.0,46.0
551,551,"40 Glenbrook Lane,",Shepherd Mobile Estates,"Fisher, IL",61843.0,Not found,https://www.mhvillage.com/parks/10208,61843,"40 Glenbrook Lane,Fisher, IL, 61843",40.3078856,-88.3443272,101.0,51.0
552,552,"400 W Dunn St,",Telfords Arrowhead,"Macon, IL",62544.0,Not found,https://www.mhvillage.com/parks/57828,62544,"400 W Dunn St,Macon, IL, 62544",39.7104,-89.004505,107.0,54.0
553,553,"400 West Touhy Avenue,",Blackhawk Estates,"Des Plaines, IL",60018.0,496,https://www.mhvillage.com/parks/10374,60018,"400 West Touhy Avenue,Des Plaines, IL, 60018",42.0083396,-87.9229885,77.0,39.0
554,554,"4000 East 134th Street,",Harbor Point Estates,"Chicago, IL",60633.0,775,https://www.mhvillage.com/parks/28682,60633,"4000 East 134th Street,Chicago, IL, 60633",41.6524893,-87.5293961,33.0,17.0
555,555,"4001 Sandhill Rd,",North Oaks,"Springfield, IL",62702.0,162,https://www.mhvillage.com/parks/45862,62702,"4001 Sandhill Rd,Springfield, IL, 62702",39.856264,-89.618425,95.0,48.0
556,556,"401 136th Street,",South East,"Chicago, IL",60633.0,Not found,https://www.mhvillage.com/parks/10354,60633,"401 136th Street,Chicago, IL, 60633",41.648688,-87.5210999,0.0,0.0
557,557,"401 E Walnut St,",Elmwood Estates,"Villa Grove, IL",61956.0,Not found,https://www.mhvillage.com/parks/57650,61956,"401 E Walnut St,Villa Grove, IL, 61956",39.866049,-88.155609,101.0,51.0
558,558,"401 Kellings Farm Road,",Kelling's Mobile Home Park,"East Carondelet, IL",62240.0,19,https://www.mhvillage.com/parks/11359,62240,"401 Kellings Farm Road,East Carondelet, IL, 62240",38.5355162,-90.2232445,114.0,57.0
559,559,"401 West Williams Street,",Dwight Mobile Home Park,"Dwight, IL",60420.0,Not found,https://www.mhvillage.com/parks/10852,60420,"401 West Williams Street,Dwight, IL, 60420",41.087816,-88.437362,106.0,53.0
560,560,"403 Sycamore St.,",Shady Acres Mobile Home Park,"Albany, IL",61230.0,48,https://www.mhvillage.com/parks/11539,61230,"403 Sycamore St.,Albany, IL, 61230",,,0.0,0.0
561,561,"405 Biggs Ln,",Oakwood Mobile Home Park,"Christopher, IL",62822.0,Not found,https://www.mhvillage.com/parks/57993,62822,"405 Biggs Ln,Christopher, IL, 62822",37.9808309,-89.0578106,116.0,58.0
562,562,"410 Barrington Road,",Woodland Mobile Home Park,"Wauconda, IL",60084.0,100,https://www.mhvillage.com/parks/10816,60084,"410 Barrington Road,Wauconda, IL, 60084",42.2522419,-88.1376845,52.0,26.0
563,563,"410 East Lincoln Street,",Kinsell Mobile Home Park,"Saybrook, IL",61770.0,Not found,https://www.mhvillage.com/parks/11081,61770,"410 East Lincoln Street,Saybrook, IL, 61770",40.4255185,-88.5225346,88.0,44.0
564,564,"410 Ridge,",Carlyle Mobile Home Park,"Carlyle, IL",62231.0,6,https://www.mhvillage.com/parks/10293,62231,"410 Ridge,Carlyle, IL, 62231",38.607198,-89.3628134,110.0,55.0
565,565,"410 South Simmons Street,",Country Air Mobile Home Estates,"Stockton, IL",61085.0,44,https://www.mhvillage.com/parks/10669,61085,"410 South Simmons Street,Stockton, IL, 61085",42.3454345,-90.001055,89.0,45.0
566,566,"4113 North Peoria Road,",North Wood Estates,"Springfield, IL",62702.0,235,https://www.mhvillage.com/parks/11275,62702,"4113 North Peoria Road,Springfield, IL, 62702",39.853536,-89.620873,95.0,48.0
567,567,"414 E Locust St,",Blue Spruce Mobile Home Park,"Chatham, IL",62629.0,Not found,https://www.mhvillage.com/parks/11238,62629,"414 E Locust St,Chatham, IL, 62629",39.6732715,-89.7001113,95.0,48.0
568,568,"4140 Division Street,",Cottonwood Mobile Home Park,"Granite City, IL",62040.0,Not found,https://www.mhvillage.com/parks/10965,62040,"4140 Division Street,Granite City, IL, 62040",38.7128125,-90.16367,111.0,56.0
569,569,"417 West 17th Street,",Countryview Trailer Court,"Centralia, IL",62801.0,Not found,https://www.mhvillage.com/parks/10297,62801,"417 West 17th Street,Centralia, IL, 62801",38.5106384,-89.1427486,110.0,55.0
570,570,"42 Oak Terrace Court,",Oak Terrace Manufactured Home Community,"Batavia, IL",60510.0,Not found,https://www.mhvillage.com/parks/10683,60510,"42 Oak Terrace Court,Batavia, IL, 60510",41.8604598,-88.3073878,49.0,25.0
571,571,"420 Abens Ave,",Autumn Ridge Estates,"Henry, IL",61537.0,57,https://www.mhvillage.com/parks/11010,61537,"420 Abens Ave,Henry, IL, 61537",,,0.0,0.0
572,572,"4216 N Illinois St,",Cleveland Mobile Home Park,"Swansea, IL",62226.0,Not found,https://www.mhvillage.com/parks/57674,62226,"4216 N Illinois St,Swansea, IL, 62226",38.5653092,-89.9846774,113.0,57.0
573,573,"423 E Jefferson St,",Craigs Mobile Home Park,"Anna, IL",62906.0,Not found,https://www.mhvillage.com/parks/58117,62906,"423 E Jefferson St,Anna, IL, 62906",37.4559095,-89.2486965,118.0,59.0
574,574,"425 North Rd,",Country Lane Mobile Home Park,"Heyworth, IL",61745.0,30,https://www.mhvillage.com/parks/11069,61745,"425 North Rd,Heyworth, IL, 61745",40.3120572,-88.9818637,88.0,44.0
575,575,"425 Willow Street,",Carney Mobile Home Park,"Carterville, IL",62918.0,24,https://www.mhvillage.com/parks/11593,62918,"425 Willow Street,Carterville, IL, 62918",37.757351,-89.081394,118.0,59.0
576,576,"4255 West Blanding Road,",Griffiths Mobile Home Park,"Hanover, IL",61041.0,Not found,https://www.mhvillage.com/parks/10667,61041,"4255 West Blanding Road,Hanover, IL, 61041",42.2510886,-90.2960935,89.0,45.0
577,577,"426 E Jefferson St,",Anna Mobile Home Park,"Anna, IL",62906.0,Not found,https://www.mhvillage.com/parks/58119,62906,"426 E Jefferson St,Anna, IL, 62906",,,0.0,0.0
578,578,"426 Red Bird Street,",High Meadows Mobile Home Park,"Troy, IL",62294.0,Not found,https://www.mhvillage.com/parks/10986,62294,"426 Red Bird Street,Troy, IL, 62294",,,0.0,0.0
579,579,"4263 Old Route 36,",Lincoln Trails,"Springfield, IL",62707.0,Not found,https://www.mhvillage.com/parks/57689,62707,"4263 Old Route 36,Springfield, IL, 62707",39.7529689,-89.7493143,95.0,48.0
580,580,"427 W Frech St,",Independence Mh Community,"Streator, IL",61364.0,15,https://www.mhvillage.com/parks/57677,61364,"427 W Frech St,Streator, IL, 61364",41.1399703,-88.8417711,106.0,53.0
581,581,"43 E 5000N Rd.,",Tri-Star Estates,"Bourbonnais, IL",60914.0,850,https://www.mhvillage.com/parks/10695,60914,"43 E 5000N Rd.,Bourbonnais, IL, 60914",,,0.0,0.0
582,582,"430 Barrington Road,",Harmony Village,"Wauconda, IL",60084.0,136,https://www.mhvillage.com/parks/10815,60084,"430 Barrington Road,Wauconda, IL, 60084",42.2543037,-88.1422277,52.0,26.0
583,583,"430 Crotty Ln,",Green Tree Mobile Home Park,"Seneca, IL",61360.0,Not found,https://www.mhvillage.com/parks/106876,61360,"430 Crotty Ln,Seneca, IL, 61360",41.3188071,-88.613181,75.0,38.0
584,584,"433 West Clinton Avenue,",Deeter's Mobile Estates,"Farmer City, IL",61842.0,Not found,https://www.mhvillage.com/parks/10456,61842,"433 West Clinton Avenue,Farmer City, IL, 61842",40.238566,-88.6493413,88.0,44.0
585,585,"434 W Pine St,",Combs Mobile Home Park,"Paxton, IL",60957.0,Not found,https://www.mhvillage.com/parks/57755,60957,"434 W Pine St,Paxton, IL, 60957",40.465571,-88.1015752,106.0,53.0
586,586,"435 S Elm St,",Leifheit Mh Park,"Waterman, IL",60556.0,Not found,https://www.mhvillage.com/parks/57631,60556,"435 S Elm St,Waterman, IL, 60556",41.764476,-88.7739241,74.0,37.0
587,587,"436 W Union St,",West Union Mobile Home Court,"Edwardsville, IL",62025.0,Not found,https://www.mhvillage.com/parks/57923,62025,"436 W Union St,Edwardsville, IL, 62025",38.8122281,-89.9662078,112.0,56.0
588,588,"4375 E Kincade Ln,",Kincade Acres,"Olney, IL",62450.0,Not found,https://www.mhvillage.com/parks/106758,62450,"4375 E Kincade Ln,Olney, IL, 62450",,,0.0,0.0
589,589,"4419 Horeshoe Lake Road,","Holiday Estates MHC, LLC","Pontoon Beach, IL",62040.0,217,https://www.mhvillage.com/parks/10967,62040,"4419 Horeshoe Lake Road,Pontoon Beach, IL, 62040",,,0.0,0.0
590,590,"4461 E 1251st Road,",Earlville Mobile Home Park,"Earlville, IL",60518.0,31,https://www.mhvillage.com/parks/10741,60518,"4461 E 1251st Road,Earlville, IL, 60518",41.5798074,-88.9208397,74.0,37.0
591,591,"45 Carroll Wood Drive,",Rocwood Mobile Home Park,"Wood River, IL",62095.0,112,https://www.mhvillage.com/parks/10989,62095,"45 Carroll Wood Drive,Wood River, IL, 62095",,,0.0,0.0
592,592,"450 Chillon Drive,",Alpine Village,"Lynwood, IL",60411.0,677,https://www.mhvillage.com/parks/10365,60411,"450 Chillon Drive,Lynwood, IL, 60411",41.5006037,-87.5282405,34.0,17.0
593,593,"4500 East River Road,",River Road Mobile Home Park,"Ridott, IL",61067.0,Not found,https://www.mhvillage.com/parks/11434,61067,"4500 East River Road,Ridott, IL, 61067",,,0.0,0.0
594,594,"4501 Gardner Expressway,",Hultz's Expressway Mobile Home Park,"Quincy, IL",62305.0,Not found,https://www.mhvillage.com/parks/10131,62305,"4501 Gardner Expressway,Quincy, IL, 62305",39.9280303,-91.4118162,99.0,50.0
595,595,"4503 West Lake Street,",Meadowcreek Mobile Home Park,"Melrose Park, IL",60160.0,287,https://www.mhvillage.com/parks/10418,60160,"4503 West Lake Street,Melrose Park, IL, 60160",41.8980624,-87.8875882,77.0,39.0
596,596,"4515 34th Street,",Cloverleaf Village,"Moline, IL",61265.0,291,https://www.mhvillage.com/parks/11223,61265,"4515 34th Street,Moline, IL, 61265",41.4686443,-90.4910291,72.0,36.0
597,597,"452 Lucille Avenue,",Villa Garden Estates,"Elgin, IL",60120.0,141,https://www.mhvillage.com/parks/10687,60120,"452 Lucille Avenue,Elgin, IL, 60120",,,0.0,0.0
598,598,"452 N Vernon Dr,",Mourning Trailer Park,"Godley, IL",60407.0,Not found,https://www.mhvillage.com/parks/11568,60407,"452 N Vernon Dr,Godley, IL, 60407",41.2424328,-88.2372432,106.0,53.0
599,599,"4536 Highway 162,",Country Mobile Home Park,"Granite City, IL",62040.0,Not found,https://www.mhvillage.com/parks/57883,62040,"4536 Highway 162,Granite City, IL, 62040",,,0.0,0.0
600,600,"4650 South Main Street,",Green Meadows Estates,"Rockford, IL",61102.0,384,https://www.mhvillage.com/parks/11629,61102,"4650 South Main Street,Rockford, IL, 61102",42.2139569,-89.1086317,67.0,34.0
601,601,"4664 State Route 162,",Windsor Village,"Pontoon Beach, IL",62040.0,110,https://www.mhvillage.com/parks/29408,62040,"4664 State Route 162,Pontoon Beach, IL, 62040",38.7045408,-90.1037276,111.0,56.0
602,602,"4700 Division Street,",Guerine Mobile Home Park,"Melrose Park, IL",60160.0,347,https://www.mhvillage.com/parks/10404,60160,"4700 Division Street,Melrose Park, IL, 60160",41.8998716,-87.8913357,77.0,39.0
603,603,"4734 Lake Dr,",Lakewind Estates,"Pontoon Beach, IL",62040.0,Not found,https://www.mhvillage.com/parks/107126,62040,"4734 Lake Dr,Pontoon Beach, IL, 62040",38.7465455,-90.0825289,111.0,56.0
604,604,"475 East Jefferson Street,",Charlotte's Trailer Court,"El Paso, IL",61738.0,14,https://www.mhvillage.com/parks/11649,61738,"475 East Jefferson Street,El Paso, IL, 61738",40.7362863,-89.0108294,105.0,53.0
605,605,"48 Raintree Trailer Court,",Raintree Mobile Home Park,"Macomb, IL",61455.0,Not found,https://www.mhvillage.com/parks/11038,61455,"48 Raintree Trailer Court,Macomb, IL, 61455",,,0.0,0.0
606,606,"4808 Paradise Road,",Lakeland Estates Mobile Home and RV Park,"Mattoon, IL",61938.0,93,https://www.mhvillage.com/parks/10324,61938,"4808 Paradise Road,Mattoon, IL, 61938",39.4323249,-88.3822337,101.0,51.0
607,607,"4809 West Windsor Road,",New Century Estates,"Champaign, IL",61822.0,169,https://www.mhvillage.com/parks/10206,61822,"4809 West Windsor Road,Champaign, IL, 61822",,,0.0,0.0
608,608,"4846 11th Street,",Bill-Mar Heights,"Rockford, IL",61109.0,70,https://www.mhvillage.com/parks/11626,61109,"4846 11th Street,Rockford, IL, 61109",42.2243613,-89.0722766,67.0,34.0
609,609,"488 Mcbride Avenue,",Bluffview,"Dupo, IL",62239.0,8,https://www.mhvillage.com/parks/11348,62239,"488 Mcbride Avenue,Dupo, IL, 62239",,,0.0,0.0
610,610,"4951 Augusta Blvd.,",Golf Vista Estates,"Monee, IL",60449.0,497,https://www.mhvillage.com/parks/11581,60449,"4951 Augusta Blvd.,Monee, IL, 60449",41.4210866,-87.732526,79.0,40.0
611,611,"4989 N Il Route 251,",Rolling Meadows Mobile Home Park,"Davis Junction, IL",61020.0,149,https://www.mhvillage.com/parks/11124,61020,"4989 N Il Route 251,Davis Junction, IL, 61020",,,0.0,0.0
612,612,"5 Northwood Circle,","Northwood Estates MHC, LLC","Urbana, IL",61802.0,113,https://www.mhvillage.com/parks/10258,61802,"5 Northwood Circle,Urbana, IL, 61802",,,0.0,0.0
613,613,"500 Ann St Swansea Il 62226,",Swansea Village Mobile Home Park,"Swansea, IL",62226.0,Not found,https://www.mhvillage.com/parks/106702,62226,"500 Ann St Swansea Il 62226,Swansea, IL, 62226",,,0.0,0.0
614,614,"500 Anna Street,",Quail Run Mobile Home Community,"Belleville, IL",62226.0,Not found,https://www.mhvillage.com/parks/11328,62226,"500 Anna Street,Belleville, IL, 62226",,,0.0,0.0
615,615,"500 Charles Road,",Edgewood Estates,"Carbondale, IL",62901.0,Not found,https://www.mhvillage.com/parks/10612,62901,"500 Charles Road,Carbondale, IL, 62901",37.7529085,-89.222962,118.0,59.0
616,616,"500 E Madison St,",Cooper Mh Park,"Toledo, IL",62468.0,Not found,https://www.mhvillage.com/parks/57665,62468,"500 E Madison St,Toledo, IL, 62468",39.274987,-88.237472,102.0,51.0
617,617,"500 East Madison,",Greeson's Prairie Village,"Toledo, IL",62468.0,Not found,https://www.mhvillage.com/parks/106866,62468,"500 East Madison,Toledo, IL, 62468",39.274987,-88.237472,102.0,51.0
618,618,"500 W Bethalto Drive,",Airport Mobile Home Park,"Bethalto, IL",62010.0,Not found,https://www.mhvillage.com/parks/10927,62010,"500 W Bethalto Drive,Bethalto, IL, 62010",38.9013275,-90.0561225,111.0,56.0
619,619,"502 Beech Street,",Big Elm Mobile Home Park,"Savanna, IL",61074.0,88,https://www.mhvillage.com/parks/10184,61074,"502 Beech Street,Savanna, IL, 61074",42.0837659,-90.1240388,89.0,45.0
620,620,"503 South Main Street,",Chatham Villa Mobile Home Park,"Chatham, IL",62629.0,49,https://www.mhvillage.com/parks/11237,62629,"503 South Main Street,Chatham, IL, 62629",39.6692084,-89.7045649,95.0,48.0
621,621,"504 N 8th St,",North Side Mobile Home Park,"Altamont, IL",62411.0,15,https://www.mhvillage.com/parks/58122,62411,"504 N 8th St,Altamont, IL, 62411",39.0648692,-88.7544638,107.0,54.0
622,622,"504 Williams St,",Ritcheys Mobile Home Park,"Anna, IL",62906.0,Not found,https://www.mhvillage.com/parks/58116,62906,"504 Williams St,Anna, IL, 62906",37.4612965,-89.2413392,118.0,59.0
623,623,"505 North Division Street,",Eastern Estates,"Charleston, IL",61920.0,125,https://www.mhvillage.com/parks/10314,61920,"505 North Division Street,Charleston, IL, 61920",39.5021876,-88.1816329,101.0,51.0
624,624,"505 S Oak St,",Windsor Mobile Home Park,"Windsor, IL",61957.0,Not found,https://www.mhvillage.com/parks/57624,61957,"505 S Oak St,Windsor, IL, 61957",,,0.0,0.0
625,625,"506 W Mill St,",Greenbrier Mh Park,"Waterloo, IL",62298.0,Not found,https://www.mhvillage.com/parks/57635,62298,"506 W Mill St,Waterloo, IL, 62298",38.3354301,-90.1557889,115.0,58.0
626,626,"507 Hoselton Dr.,",Autumn Oaks,"Chenoa, IL",61726.0,100,https://www.mhvillage.com/parks/11693,61726,"507 Hoselton Dr.,Chenoa, IL, 61726",40.7426078,-88.7320141,106.0,53.0
627,627,"508 Reagan Drive,",Enchanted Gardens,"Eureka, IL",61530.0,144,https://www.mhvillage.com/parks/11655,61530,"508 Reagan Drive,Eureka, IL, 61530",40.712125,-89.2661954,105.0,53.0
628,628,"509 NW 7th Street,",Fairfield Estates,"Fairfield, IL",62837.0,Not found,https://www.mhvillage.com/parks/36979,62837,"509 NW 7th Street,Fairfield, IL, 62837",38.3867486,-88.3683339,116.0,58.0
629,629,"509 South Buchanan Place,",Swanzy's Trailer Park,"Heyworth, IL",61745.0,16,https://www.mhvillage.com/parks/11071,61745,"509 South Buchanan Place,Heyworth, IL, 61745",,,0.0,0.0
630,630,"510 Ross St,",Sumner Pointe,"Carlinville, IL",62626.0,38,https://www.mhvillage.com/parks/58039,62626,"510 Ross St,Carlinville, IL, 62626",39.2926002,-89.8773478,108.0,54.0
631,631,"5100 Collinsville Road,",Havahome Mobile Home Park,"East Saint Louis, IL",62201.0,Not found,https://www.mhvillage.com/parks/11367,62201,"5100 Collinsville Road,East Saint Louis, IL, 62201",38.6368674,-90.1349386,114.0,57.0
632,632,"5100 Kay Lane,",Quail Run Mobile Home Community,"Edwardsville, IL",62025.0,67,https://www.mhvillage.com/parks/10958,62025,"5100 Kay Lane,Edwardsville, IL, 62025",,,0.0,0.0
633,633,"511 Kroll Road,",Frentriss Lake,"East Dubuque, IL",61025.0,60,https://www.mhvillage.com/parks/11675,61025,"511 Kroll Road,East Dubuque, IL, 61025",,,0.0,0.0
634,634,"5110 159th Street,",Oak Forest,"Oak Forest, IL",60452.0,70,https://www.mhvillage.com/parks/10409,60452,"5110 159th Street,Oak Forest, IL, 60452",41.6031833,-87.7455078,30.0,15.0
635,635,"5111 78th Avenue,",Airview Mobile Home Park,"Milan, IL",61264.0,126,https://www.mhvillage.com/parks/11213,61264,"5111 78th Avenue,Milan, IL, 61264",,,0.0,0.0
636,636,"513 Reynolds Dr,",Brooks Mh Park,"Charleston, IL",61920.0,Not found,https://www.mhvillage.com/parks/58008,61920,"513 Reynolds Dr,Charleston, IL, 61920",39.4953829,-88.1911551,101.0,51.0
637,637,"5132 State Route 13,",Westside Trailer Park,"Pinckneyville, IL",62274.0,Not found,https://www.mhvillage.com/parks/57749,62274,"5132 State Route 13,Pinckneyville, IL, 62274",,,0.0,0.0
638,638,"515 Edgebrook Drive,","Edgebrook Estates MHC, LLC","Champaign, IL",61820.0,47,https://www.mhvillage.com/parks/10203,61820,"515 Edgebrook Drive,Champaign, IL, 61820",40.1312795,-88.2513726,103.0,52.0
639,639,"516 E Seminole St,",Olsen Mobile Home Park,"Dwight, IL",60420.0,Not found,https://www.mhvillage.com/parks/10850,60420,"516 E Seminole St,Dwight, IL, 60420",41.0954562,-88.4183007,106.0,53.0
640,640,"518 24th Ave,","Fulton MHP and Self Storage MHC, LLC","Fulton, IL",61252.0,77,https://www.mhvillage.com/parks/11543,61252,"518 24th Ave,Fulton, IL, 61252",41.8552691,-90.1637275,73.0,37.0
641,641,"519 South Il Route,",Greenacres Mobile Home Park,"Dixon, IL",61021.0,Not found,https://www.mhvillage.com/parks/10842,61021,"519 South Il Route,Dixon, IL, 61021",,,0.0,0.0
642,642,"5194 S Route 45-52,",Chebanse MH Estates,"Chebanse, IL",60922.0,89,https://www.mhvillage.com/parks/10698,60922,"5194 S Route 45-52,Chebanse, IL, 60922",,,0.0,0.0
643,643,"520 W Madison Ave,",Shady Point Mobile Home Court,"Charleston, IL",61920.0,Not found,https://www.mhvillage.com/parks/58003,61920,"520 W Madison Ave,Charleston, IL, 61920",39.4959476,-88.1874592,101.0,51.0
644,644,"5200 Collinsville Road,",Belmont Mobile Home Park,"East Saint Louis, IL",62201.0,Not found,https://www.mhvillage.com/parks/11362,62201,"5200 Collinsville Road,East Saint Louis, IL, 62201",38.6368674,-90.1349386,114.0,57.0
645,645,"524 E Jefferson St,",W J Mobile Home Park,"Toulon, IL",61483.0,Not found,https://www.mhvillage.com/parks/57663,61483,"524 E Jefferson St,Toulon, IL, 61483",41.0927608,-89.8571736,93.0,47.0
646,646,"525 N. Mchenry Rd.,",Whippletree Village,"Wheeling, IL",60090.0,407,https://www.mhvillage.com/parks/10420,60090,"525 N. Mchenry Rd.,Wheeling, IL, 60090",42.1420861,-87.9338031,59.0,30.0
647,647,"5261 Chain Of Rocks Road,",Serenity Circle Mobile Home Park,"Edwardsville, IL",62025.0,Not found,https://www.mhvillage.com/parks/10959,62025,"5261 Chain Of Rocks Road,Edwardsville, IL, 62025",38.7601776,-90.018062,111.0,56.0
648,648,"5287 Country Club Rd,",Fairway Mobile Home Park,"Murphysboro, IL",62966.0,Not found,https://www.mhvillage.com/parks/57792,62966,"5287 Country Club Rd,Murphysboro, IL, 62966",37.7422851,-89.2812856,118.0,59.0
649,649,"5294 Old State Road,",Old State Village,"Mattoon, IL",61938.0,200,https://www.mhvillage.com/parks/10326,61938,"5294 Old State Road,Mattoon, IL, 61938",39.4571316,-88.3723751,101.0,51.0
650,650,"530 Reynolds Dr., #137,",Longacre Estates,"Charleston, IL",61920.0,124,https://www.mhvillage.com/parks/10312,61920,"530 Reynolds Dr., #137,Charleston, IL, 61920",,,0.0,0.0
651,651,"5300 Collinsville Road,",Forum Mobile Home Park,"East Saint Louis, IL",62201.0,Not found,https://www.mhvillage.com/parks/11366,62201,"5300 Collinsville Road,East Saint Louis, IL, 62201",38.6368674,-90.1349386,114.0,57.0
652,652,"5306 Godfrey Rd,",Poplar Mobile Home Court,"Godfrey, IL",62035.0,Not found,https://www.mhvillage.com/parks/57889,62035,"5306 Godfrey Rd,Godfrey, IL, 62035",38.942218,-90.1910676,111.0,56.0
653,653,"531 E Front Ave,",Zink's Country Court,"Stockton, IL",61085.0,Not found,https://www.mhvillage.com/parks/107050,61085,"531 E Front Ave,Stockton, IL, 61085",42.3499202,-90.0006332,89.0,45.0
654,654,"532 Mcbride Ave Lot A,",Town Talk Mh Park,"Dupo, IL",62239.0,Not found,https://www.mhvillage.com/parks/57937,62239,"532 Mcbride Ave Lot A,Dupo, IL, 62239",,,0.0,0.0
655,655,"537 Country Rd 1600 N,",Frazier Acres,"Champaign, IL",61822.0,Not found,https://www.mhvillage.com/parks/106838,61822,"537 Country Rd 1600 N,Champaign, IL, 61822",,,0.0,0.0
656,656,"540 E 14th St,",Glen Ayre Mobile Home Park,"Danville, IL",61832.0,Not found,https://www.mhvillage.com/parks/106990,61832,"540 E 14th St,Danville, IL, 61832",,,0.0,0.0
657,657,"544 Brooklyn Avenue,",Cedarbrook Estates,"Jacksonville, IL",62650.0,42,https://www.mhvillage.com/parks/11700,62650,"544 Brooklyn Avenue,Jacksonville, IL, 62650",39.726829,-90.215475,99.0,50.0
658,658,"5445 Maryville Rd,",66 Mobile Home Park,"Granite City, IL",62040.0,Not found,https://www.mhvillage.com/parks/57885,62040,"5445 Maryville Rd,Granite City, IL, 62040",38.7453507,-90.1040176,111.0,56.0
659,659,"548 South Main Street,",Columbia Trailer Park,"Columbia, IL",62236.0,Not found,https://www.mhvillage.com/parks/11090,62236,"548 South Main Street,Columbia, IL, 62236",38.4408065,-90.1939303,115.0,58.0
660,660,"55 Greenwood Cemetery Road,",Thomas Mobile Home Park,"Danville, IL",61832.0,25,https://www.mhvillage.com/parks/11480,61832,"55 Greenwood Cemetery Road,Danville, IL, 61832",,,0.0,0.0
661,661,"550 Birch Street,",Maple Crest Manor,"Manteno, IL",60950.0,109,https://www.mhvillage.com/parks/10711,60950,"550 Birch Street,Manteno, IL, 60950",41.2536355,-87.8282504,29.0,15.0
662,662,"550 E Smith Ave,",Trail Acres Trailer Park,"Du Quoin, IL",62832.0,Not found,https://www.mhvillage.com/parks/57940,62832,"550 E Smith Ave,Du Quoin, IL, 62832",,,0.0,0.0
663,663,"5530 Gardner Expwy,",Town & Country Mobile Estates,"Quincy, IL",62306.0,Not found,https://www.mhvillage.com/parks/95127,62306,"5530 Gardner Expwy,Quincy, IL, 62306",39.9151817,-91.4116993,99.0,50.0
664,664,"5546 Wheeler Ln,",C K Wheelers Mh Park,"Carterville, IL",62918.0,Not found,https://www.mhvillage.com/parks/58033,62918,"5546 Wheeler Ln,Carterville, IL, 62918",,,0.0,0.0
665,665,"5550 S. Il Route 1,",Windmill Estates,"Saint Anne, IL",60964.0,28,https://www.mhvillage.com/parks/10705,60964,"5550 S. Il Route 1,Saint Anne, IL, 60964",,,0.0,0.0
666,666,"5598 Collinsville Rd,",Illinoi Mh Park,"East Saint Louis, IL",62201.0,Not found,https://www.mhvillage.com/parks/57926,62201,"5598 Collinsville Rd,East Saint Louis, IL, 62201",38.6368674,-90.1349386,114.0,57.0
667,667,"573 South Milwaukee Avenue,",Fox Point,"Wheeling, IL",60090.0,45,https://www.mhvillage.com/parks/10419,60090,"573 South Milwaukee Avenue,Wheeling, IL, 60090",42.1304193,-87.9007158,57.0,29.0
668,668,"57th And Melrose South,",Melrose Mobile Home Park,"Quincy, IL",62305.0,51,https://www.mhvillage.com/parks/10132,62305,"57th And Melrose South,Quincy, IL, 62305",,,0.0,0.0
669,669,"58 Bridle Lane,","Carriage Estates MHC, LLC","Urbana, IL",61802.0,57,https://www.mhvillage.com/parks/10245,61802,"58 Bridle Lane,Urbana, IL, 61802",,,0.0,0.0
670,670,"58 Deerfield Court,",Deerfield Court Mobile Home Park,"Freeburg, IL",62243.0,100,https://www.mhvillage.com/parks/11386,62243,"58 Deerfield Court,Freeburg, IL, 62243",38.4411301,-89.9161548,114.0,57.0
671,671,"5800 River Road,",River Crest Mobile Home Park,"Chebanse, IL",60922.0,16,https://www.mhvillage.com/parks/10587,60922,"5800 River Road,Chebanse, IL, 60922",,,0.0,0.0
672,672,"59 Cinnamon Lane,",Cinnamon Lane Mobile Home Park,"Murphysboro, IL",62966.0,Not found,https://www.mhvillage.com/parks/38046,62966,"59 Cinnamon Lane,Murphysboro, IL, 62966",,,0.0,0.0
673,673,"590 Haney Rd,",Hocbriar Mobile Home Estates,"Carbondale, IL",62901.0,Not found,https://www.mhvillage.com/parks/58048,62901,"590 Haney Rd,Carbondale, IL, 62901",,,0.0,0.0
674,674,"6 Carter Dr,",Cramer Trailer Haven,"Oakwood, IL",61858.0,Not found,https://www.mhvillage.com/parks/57775,61858,"6 Carter Dr,Oakwood, IL, 61858",,,0.0,0.0
675,675,"6 Court Dr,",La Grange Estates,"La Grange, IL",60525.0,115,https://www.mhvillage.com/parks/11668,60525,"6 Court Dr,La Grange, IL, 60525",41.7731262,-87.8781331,8.0,4.0
676,676,"6 Santa Barbara Lane,",Santa Barbara Village,"East Saint Louis, IL",62203.0,Not found,https://www.mhvillage.com/parks/11378,62203,"6 Santa Barbara Lane,East Saint Louis, IL, 62203",,,0.0,0.0
677,677,"60 Virginia Dr,",Eastcape MHP,"East Cape Girardeau, IL",62957.0,60,https://www.mhvillage.com/parks/10151,62957,"60 Virginia Dr,East Cape Girardeau, IL, 62957",37.296625,-89.4959513,118.0,59.0
678,678,"600 Charles St,",Cappelatti Washburn Court,"Gillespie, IL",62033.0,Not found,https://www.mhvillage.com/parks/57892,62033,"600 Charles St,Gillespie, IL, 62033",39.116577,-89.819376,108.0,54.0
679,679,"600 Sixth St,",Sherman's Mh Court,"Atlanta, IL",61723.0,21,https://www.mhvillage.com/parks/10865,61723,"600 Sixth St,Atlanta, IL, 61723",40.2703387,-89.232313,87.0,44.0
680,680,"600 South Maplewood Drive,","Heritage Meadows MHC, LLC","Rantoul, IL",61866.0,227,https://www.mhvillage.com/parks/10219,61866,"600 South Maplewood Drive,Rantoul, IL, 61866",40.306017,-88.136562,104.0,52.0
681,681,"601 Carriage Drive,",Carriage Estates Mobile Home Park,"Monticello, IL",61856.0,26,https://www.mhvillage.com/parks/11167,61856,"601 Carriage Drive,Monticello, IL, 61856",40.0292151,-88.5607839,88.0,44.0
682,682,"601 E Osborne St,",Bushnell Country Gardens,"Bushnell, IL",61422.0,64,https://www.mhvillage.com/parks/27867,61422,"601 E Osborne St,Bushnell, IL, 61422",,,0.0,0.0
683,683,"601 N Ash,",Spring Brook MHP LLC,"Forreston, IL",61030.0,31,https://www.mhvillage.com/parks/129581,61030,"601 N Ash,Forreston, IL, 61030",42.1325165,-89.5815936,89.0,45.0
684,684,"601 Orange Street,",Hunts Mh Park,"Hoopeston, IL",60942.0,Not found,https://www.mhvillage.com/parks/57858,60942,"601 Orange Street,Hoopeston, IL, 60942",40.458858,-87.678802,101.0,51.0
685,685,"601 South Main Street,",Chatham Southgate Mobile Home,"Chatham, IL",62629.0,49,https://www.mhvillage.com/parks/36153,62629,"601 South Main Street,Chatham, IL, 62629",39.6673112,-89.704332,95.0,48.0
686,686,"601 W Lincoln Ave,",Sandy Creek Estates,"Pontiac, IL",61764.0,Not found,https://www.mhvillage.com/parks/106928,61764,"601 W Lincoln Ave,Pontiac, IL, 61764",40.8869368,-88.6346265,105.0,53.0
687,687,"602 Cole Street,",Southwind Mobile Estates,"Kewanee, IL",61443.0,72,https://www.mhvillage.com/parks/10585,61443,"602 Cole Street,Kewanee, IL, 61443",41.2491893,-89.9019162,93.0,47.0
688,688,"602 North Wood Street,",Northwood Mobile Estates,"Maroa, IL",61756.0,66,https://www.mhvillage.com/parks/10896,61756,"602 North Wood Street,Maroa, IL, 61756",40.0423047,-88.956147,87.0,44.0
689,689,"6024 East 9120 North Road,",Manteno,"Manteno, IL",60950.0,80,https://www.mhvillage.com/parks/10710,60950,"6024 East 9120 North Road,Manteno, IL, 60950",,,0.0,0.0
690,690,"604 North Walnut Avenue,",Simlers Park,"Forreston, IL",61030.0,35,https://www.mhvillage.com/parks/11126,61030,"604 North Walnut Avenue,Forreston, IL, 61030",42.1322957,-89.5823454,89.0,45.0
691,691,"605 Pine Street,",Royal Acres Manufactured Home & RV Community,"Normal, IL",61761.0,138,https://www.mhvillage.com/parks/11080,61761,"605 Pine Street,Normal, IL, 61761",40.5176731,-88.9777427,91.0,46.0
692,692,"605 W 1st Ave,",Kershaw Mobile Home Park,"Colona, IL",61241.0,108,https://www.mhvillage.com/parks/10577,61241,"605 W 1st Ave,Colona, IL, 61241",41.4837044,-90.3664788,71.0,36.0
693,693,"607 Cherry Point Road,",Cherrypoint Mobile Home Park,"Paris, IL",61944.0,Not found,https://www.mhvillage.com/parks/10479,61944,"607 Cherry Point Road,Paris, IL, 61944",39.6258411,-87.7010847,102.0,51.0
694,694,"608 North Oakland Avenue,",Mills & Son Trailer Court,"Carbondale, IL",62901.0,Not found,https://www.mhvillage.com/parks/10619,62901,"608 North Oakland Avenue,Carbondale, IL, 62901",37.7328066,-89.2278311,118.0,59.0
695,695,"609 Marion Avenue,",Mattoon Mobile Village,"Mattoon, IL",61938.0,45,https://www.mhvillage.com/parks/10325,61938,"609 Marion Avenue,Mattoon, IL, 61938",39.4758988,-88.3604232,101.0,51.0
696,696,"611 W Matthew St,",Chillicothe Mobile Home Park,"Chillicothe, IL",61523.0,37,https://www.mhvillage.com/parks/11140,61523,"611 W Matthew St,Chillicothe, IL, 61523",,,0.0,0.0
697,697,"612 W 9th St,",Westside Trailer Park,"Beardstown, IL",62618.0,Not found,https://www.mhvillage.com/parks/107224,62618,"612 W 9th St,Beardstown, IL, 62618",40.0101582,-90.4354041,99.0,50.0
698,698,"612 West Vine Street,",King City Mobile Home Park,"Le Roy, IL",61752.0,Not found,https://www.mhvillage.com/parks/11072,61752,"612 West Vine Street,Le Roy, IL, 61752",40.3442628,-88.7678572,88.0,44.0
699,699,"613 East College Street,",Covington Trailer Court,"Carbondale, IL",62901.0,Not found,https://www.mhvillage.com/parks/10608,62901,"613 East College Street,Carbondale, IL, 62901",37.7221408,-89.2082865,118.0,59.0
700,700,"613 S State,",Kinmundy Estates Mobile Home Park,"Kinmundy, IL",62854.0,Not found,https://www.mhvillage.com/parks/106986,62854,"613 S State,Kinmundy, IL, 62854",,,0.0,0.0
701,701,"615 East South Street,",Mascoutah Manor,"Mascoutah, IL",62258.0,Not found,https://www.mhvillage.com/parks/36642,62258,"615 East South Street,Mascoutah, IL, 62258",38.4891413,-89.7895741,114.0,57.0
702,702,"617 W State St,",Fairview Mh Park,"Charleston, IL",61920.0,Not found,https://www.mhvillage.com/parks/10310,61920,"617 W State St,Charleston, IL, 61920",39.4991171,-88.1900811,101.0,51.0
703,703,"62 Stoney At Adams Road,",Stoneybrook Manufactured Home Community,"Dupo, IL",62239.0,140,https://www.mhvillage.com/parks/29949,62239,"62 Stoney At Adams Road,Dupo, IL, 62239",,,0.0,0.0
704,704,"6208 Lawn Drive,",Valley Oaks,"Hodgkins, IL",60525.0,132,https://www.mhvillage.com/parks/11715,60525,"6208 Lawn Drive,Hodgkins, IL, 60525",41.7750736,-87.8584818,8.0,4.0
705,705,"63 1/2 Shemauger Trail,",Carriage Estates (Chief Illini),"Urbana, IL",61802.0,64,https://www.mhvillage.com/parks/10246,61802,"63 1/2 Shemauger Trail,Urbana, IL, 61802",,,0.0,0.0
706,706,"641 W Walnut St,",Oglesby MHC,"Oglesby, IL",61348.0,40,https://www.mhvillage.com/parks/10753,61348,"641 W Walnut St,Oglesby, IL, 61348",41.2949713,-89.0694547,76.0,38.0
707,707,"6478 S Route 45-52,",Barberry Acres,"Chebanse, IL",60922.0,Not found,https://www.mhvillage.com/parks/10697,60922,"6478 S Route 45-52,Chebanse, IL, 60922",,,0.0,0.0
708,708,"652 10th Avenue West,",Shady Lane Mobile Home Park,"Milan, IL",61264.0,Not found,https://www.mhvillage.com/parks/11221,61264,"652 10th Avenue West,Milan, IL, 61264",41.4427932,-90.5769375,72.0,36.0
709,709,"654 Us Highway 150 E.,",Country Elms,"Galesburg, IL",61401.0,177,https://www.mhvillage.com/parks/10728,61401,"654 Us Highway 150 E.,Galesburg, IL, 61401",,,0.0,0.0
710,710,"6560 Us Highway 136,",Country Side Mobile Home Park,"Colchester, IL",62326.0,Not found,https://www.mhvillage.com/parks/57986,62326,"6560 Us Highway 136,Colchester, IL, 62326",,,0.0,0.0
711,711,"666 South Bluff Street,",South Bluff Homes,"South Beloit, IL",61080.0,221,https://www.mhvillage.com/parks/11646,61080,"666 South Bluff Street,South Beloit, IL, 61080",,,0.0,0.0
712,712,"6755 Giant City Rd,",Wildwood Mobile Home Park,"Carbondale, IL",62902.0,89,https://www.mhvillage.com/parks/10636,62902,"6755 Giant City Rd,Carbondale, IL, 62902",37.7025339,-89.1846669,118.0,59.0
713,713,"677 Scott Troy Rd,",Parkview Terrace Mh Park,"Lebanon, IL",62254.0,Not found,https://www.mhvillage.com/parks/57840,62254,"677 Scott Troy Rd,Lebanon, IL, 62254",,,0.0,0.0
714,714,"6800 Broadway Street,",Royal Oaks Mobile Home Park,"Quincy, IL",62305.0,78,https://www.mhvillage.com/parks/10140,62305,"6800 Broadway Street,Quincy, IL, 62305",39.934693,-91.308138,99.0,50.0
715,715,"6801 S. La Grange Rd.,","Weeping Willow Ranch MHC, LLC.","Hodgkins, IL",60525.0,182,https://www.mhvillage.com/parks/68350,60525,"6801 S. La Grange Rd.,Hodgkins, IL, 60525",41.7766312,-87.8680184,8.0,4.0
716,716,"6807 W. Stephenson St,",Stephenson Manufactured Housing Community,"Freeport, IL",61032.0,88,https://www.mhvillage.com/parks/11429,61032,"6807 W. Stephenson St,Freeport, IL, 61032",42.2942135,-89.6513862,90.0,45.0
717,717,"69 Lepere Ct,",LepereVillage,"Dupo, IL",62239.0,100,https://www.mhvillage.com/parks/11351,62239,"69 Lepere Ct,Dupo, IL, 62239",,,0.0,0.0
718,718,"69 Park Estates,",Park Estates Mobile Home Park,"Sparta, IL",62286.0,82,https://www.mhvillage.com/parks/11192,62286,"69 Park Estates,Sparta, IL, 62286",38.1114405,-89.7074858,115.0,58.0
719,719,"696 Il Route 127,",South Greenville M H Subdivision,"Greenville, IL",62246.0,Not found,https://www.mhvillage.com/parks/57874,62246,"696 Il Route 127,Greenville, IL, 62246",,,0.0,0.0
720,720,"699 Michelle Drive,",Paradise Park,"Lynwood, IL",60411.0,278,https://www.mhvillage.com/parks/57999,60411,"699 Michelle Drive,Lynwood, IL, 60411",41.5068579,-87.5311144,34.0,17.0
721,721,"7 Pynes Drive,",Timberline Mobile Home Park,"Goodfield, IL",61742.0,103,https://www.mhvillage.com/parks/31480,61742,"7 Pynes Drive,Goodfield, IL, 61742",,,0.0,0.0
722,722,"700 Chrysler Drive,",The Four Seasons,"Belvidere, IL",61008.0,587,https://www.mhvillage.com/parks/11660,61008,"700 Chrysler Drive,Belvidere, IL, 61008",42.2404144,-88.8483326,68.0,34.0
723,723,"700 East Locust Street,",Indian Grove Estates,"Fairbury, IL",61739.0,22,https://www.mhvillage.com/parks/10854,61739,"700 East Locust Street,Fairbury, IL, 61739",40.747105,-88.50368,106.0,53.0
724,724,"700 Jackson St,",Hillsdale Estates,"Hillsdale, IL",61257.0,Not found,https://www.mhvillage.com/parks/106784,61257,"700 Jackson St,Hillsdale, IL, 61257",41.6088923,-90.1715996,73.0,37.0
725,725,"700 W 4th St,",Maple Trailer Court,"Beardstown, IL",62618.0,Not found,https://www.mhvillage.com/parks/58091,62618,"700 W 4th St,Beardstown, IL, 62618",40.013451,-90.439066,99.0,50.0
726,726,"701 Fischer Road,",Cedar Ridge Village,"Creve Coeur, IL",61610.0,340,https://www.mhvillage.com/parks/11435,61610,"701 Fischer Road,Creve Coeur, IL, 61610",40.6342963,-89.6003474,87.0,44.0
727,727,"701 S Griffin St,",Pals Mobile Home Park,"Danville, IL",61834.0,Not found,https://www.mhvillage.com/parks/57949,61834,"701 S Griffin St,Danville, IL, 61834",40.115433,-87.602147,104.0,52.0
728,728,"701 Wisconsin Avenue,",Century Mobile home Estates,"Galesburg, IL",61401.0,Not found,https://www.mhvillage.com/parks/10726,61401,"701 Wisconsin Avenue,Galesburg, IL, 61401",40.93723,-90.333465,71.0,36.0
729,729,"705 Kath St,",McLeansboro Mobile Estates,"McLeansboro, IL",62859.0,Not found,https://www.mhvillage.com/parks/107282,62859,"705 Kath St,McLeansboro, IL, 62859",,,0.0,0.0
730,730,"7050 Epworth,",Holiday Acres Mobile Home Park,"Belvidere, IL",61008.0,50,https://www.mhvillage.com/parks/11614,61008,"7050 Epworth,Belvidere, IL, 61008",,,0.0,0.0
731,731,"7058 East Il Route 72,",Meridian Manor Mobile Home Park,"Stillman Valley, IL",61084.0,38,https://www.mhvillage.com/parks/11136,61084,"7058 East Il Route 72,Stillman Valley, IL, 61084",,,0.0,0.0
732,732,"707 Catherine Drive,",Knotty Pines,"Red Bud, IL",62278.0,120,https://www.mhvillage.com/parks/11185,62278,"707 Catherine Drive,Red Bud, IL, 62278",38.2188749,-90.0155784,115.0,58.0
733,733,"707 Feldman Drive,",Woodland Mobile Home Court,"Lincoln, IL",62656.0,67,https://www.mhvillage.com/parks/10872,62656,"707 Feldman Drive,Lincoln, IL, 62656",40.164849,-89.379269,87.0,44.0
734,734,"709 North College Lane,",Hes Mobile Home Park,"Aledo, IL",61231.0,9,https://www.mhvillage.com/parks/11694,61231,"709 North College Lane,Aledo, IL, 61231",,,0.0,0.0
735,735,"710 Mill Rd,",Shelbys Mh Park,"Georgetown, IL",61846.0,Not found,https://www.mhvillage.com/parks/57895,61846,"710 Mill Rd,Georgetown, IL, 61846",,,0.0,0.0
736,736,"710 W Adams St,",Westview Courts,"Greenview, IL",62642.0,Not found,https://www.mhvillage.com/parks/107118,62642,"710 W Adams St,Greenview, IL, 62642",40.0831512,-89.747743,108.0,54.0
737,737,"7100 Mechanicsburg Rd,",Englewood Mobile Home Park,"Springfield, IL",62712.0,Not found,https://www.mhvillage.com/parks/57694,62712,"7100 Mechanicsburg Rd,Springfield, IL, 62712",39.8022797,-89.5836959,96.0,48.0
738,738,"711 North 19th Street,",Hamilton Estates Mobile Home Park,"Hamilton, IL",62341.0,38,https://www.mhvillage.com/parks/10568,62341,"711 North 19th Street,Hamilton, IL, 62341",40.4027225,-91.3297012,94.0,47.0
739,739,"720 Forrest Avenue,",Scottsdale,"Springfield, IL",62702.0,Not found,https://www.mhvillage.com/parks/111132,62702,"720 Forrest Avenue,Springfield, IL, 62702",39.8086181,-89.6178843,95.0,48.0
740,740,"720 Forrest Avenue,",Timberline Manor,"Springfield, IL",62702.0,175,https://www.mhvillage.com/parks/11288,62702,"720 Forrest Avenue,Springfield, IL, 62702",39.8086181,-89.6178843,95.0,48.0
741,741,"7200 State St,",Timber Ridge Mh Park,"Quincy, IL",62305.0,Not found,https://www.mhvillage.com/parks/57732,62305,"7200 State St,Quincy, IL, 62305",39.9257926,-91.3539535,99.0,50.0
742,742,"722 W. Hunter St.,",Sullivan MHP North,"Sullivan, IL",61951.0,73,https://www.mhvillage.com/parks/103915,61951,"722 W. Hunter St.,Sullivan, IL, 61951",39.6042626,-88.6143485,107.0,54.0
743,743,"723 N Main St,",Whispering Pines MHC,"Loami, IL",62661.0,100,https://www.mhvillage.com/parks/106830,62661,"723 N Main St,Loami, IL, 62661",39.678853,-89.8467547,108.0,54.0
744,744,"723 North Main Street,",Loami MHP,"Loami, IL",62661.0,100,https://www.mhvillage.com/parks/11243,62661,"723 North Main Street,Loami, IL, 62661",39.678853,-89.8467547,108.0,54.0
745,745,"723 Vandalia St,",Collinsville Mh Community,"Collinsville, IL",62234.0,Not found,https://www.mhvillage.com/parks/10936,62234,"723 Vandalia St,Collinsville, IL, 62234",38.6781126,-89.9824071,112.0,56.0
746,746,"7240 West 107th Street,",Water's Edge Estates,"Worth, IL",60482.0,173,https://www.mhvillage.com/parks/10424,60482,"7240 West 107th Street,Worth, IL, 60482",41.6981601,-87.7447529,36.0,18.0
747,747,"730 1st Avenue East,",Mill Creek Mobile Home Park,"Milan, IL",61264.0,Not found,https://www.mhvillage.com/parks/11218,61264,"730 1st Avenue East,Milan, IL, 61264",41.4528676,-90.553661,72.0,36.0
748,748,"732 E Chain Of Rocks Rd,",Lazy D Mh Park,"Granite City, IL",62040.0,Not found,https://www.mhvillage.com/parks/57881,62040,"732 E Chain Of Rocks Rd,Granite City, IL, 62040",38.7621232,-90.1315263,111.0,56.0
749,749,"735 E 15th St,",15th Street Mobile Home Park,"Centralia, IL",62801.0,Not found,https://www.mhvillage.com/parks/58025,62801,"735 E 15th St,Centralia, IL, 62801",38.5108914,-89.1332798,110.0,55.0
750,750,"735 Staben Street,",Genes Evergreen Estates,"Park City, IL",60085.0,200,https://www.mhvillage.com/parks/10817,60085,"735 Staben Street,Park City, IL, 60085",,,0.0,0.0
751,751,"7358 Rydberg Drive,",Mancuso Village Park,"Rockford, IL",61109.0,130,https://www.mhvillage.com/parks/11632,61109,"7358 Rydberg Drive,Rockford, IL, 61109",,,0.0,0.0
752,752,"75 S Oak St,",Tegard Trailer Park,"El Paso, IL",61738.0,Not found,https://www.mhvillage.com/parks/107066,61738,"75 S Oak St,El Paso, IL, 61738",40.736403,-89.0055923,105.0,53.0
753,753,"750 South Moreland Road,",Beth Mor Mobile Home Park,"Bethalto, IL",62010.0,89,https://www.mhvillage.com/parks/10928,62010,"750 South Moreland Road,Bethalto, IL, 62010",38.896674,-90.0303098,111.0,56.0
754,754,"7500 Elmhurst Road,",Oasis Mobile Home Park,"Des Plaines, IL",60018.0,600,https://www.mhvillage.com/parks/10372,60018,"7500 Elmhurst Road,Des Plaines, IL, 60018",42.0152298,-87.9402892,56.0,28.0
755,755,"7672 State  Route 154 Lot 601,",Crossroads Mobile Home Park,"Du Quoin, IL",62832.0,29,https://www.mhvillage.com/parks/57943,62832,"7672 State  Route 154 Lot 601,Du Quoin, IL, 62832",,,0.0,0.0
756,756,"775 W. Elm Ave.,",University Estates,"Charleston, IL",61920.0,98,https://www.mhvillage.com/parks/10317,61920,"775 W. Elm Ave.,Charleston, IL, 61920",39.5022782,-88.195325,101.0,51.0
757,757,"775 W. Long Lake Drive,",Cambridge Courts,"Round Lake, IL",60073.0,329,https://www.mhvillage.com/parks/10809,60073,"775 W. Long Lake Drive,Round Lake, IL, 60073",42.3644115,-88.1014873,62.0,31.0
758,758,"790 County Road 800 North,",Pleasant Plains Mobile Home Park,"Tolono, IL",61880.0,22,https://www.mhvillage.com/parks/10242,61880,"790 County Road 800 North,Tolono, IL, 61880",39.9959607,-88.2820795,101.0,51.0
759,759,"7920 Ridgefield Road,",Royal Oaks Mobile Home Park,"Crystal Lake, IL",60014.0,54,https://www.mhvillage.com/parks/11042,60014,"7920 Ridgefield Road,Crystal Lake, IL, 60014",,,0.0,0.0
760,760,"7945 South Main Street,",Cecka Mobile Home Park,"Rockford, IL",61102.0,Not found,https://www.mhvillage.com/parks/11627,61102,"7945 South Main Street,Rockford, IL, 61102",42.2429347,-89.1100446,67.0,34.0
761,761,"7984 Gemini Ct,",Gemini Court,"Sparta, IL",62286.0,Not found,https://www.mhvillage.com/parks/107380,62286,"7984 Gemini Ct,Sparta, IL, 62286",,,0.0,0.0
762,762,"8 Mahoning Avenue,",Rancho Rantoul Estates,"Rantoul, IL",61866.0,2,https://www.mhvillage.com/parks/128982,61866,"8 Mahoning Avenue,Rantoul, IL, 61866",40.3194833,-88.1352587,104.0,52.0
763,763,"80 Herring Avenue,",Sandburg Lake Estates,"Galesburg, IL",61401.0,200,https://www.mhvillage.com/parks/10732,61401,"80 Herring Avenue,Galesburg, IL, 61401",40.9439722,-90.4194313,71.0,36.0
764,764,"800 Bloomington Road,",Wagon Wheel Mobile Home Park,"East Peoria, IL",61611.0,Not found,https://www.mhvillage.com/parks/11440,61611,"800 Bloomington Road,East Peoria, IL, 61611",40.6612367,-89.5585362,91.0,46.0
765,765,"800 East Southwind Boulevard,",Southwind Village Mobile Home Park,"Robinson, IL",62454.0,68,https://www.mhvillage.com/parks/10428,62454,"800 East Southwind Boulevard,Robinson, IL, 62454",,,0.0,0.0
766,766,"800 Hill Avenue,",Margaret's Parkview Estates,"Aurora, IL",60505.0,Not found,https://www.mhvillage.com/parks/10678,60505,"800 Hill Avenue,Aurora, IL, 60505",41.740908,-88.287956,84.0,42.0
767,767,"800 Treatment Plant Road,",Town & Country Mobile Home Park,"Rochelle, IL",61068.0,30,https://www.mhvillage.com/parks/11134,61068,"800 Treatment Plant Road,Rochelle, IL, 61068",41.912802,-89.06965,74.0,37.0
768,768,"800 West Rickelman Avenue,",Lakewood Manor Mobile Home Park,"Effingham, IL",62401.0,262,https://www.mhvillage.com/parks/10498,62401,"800 West Rickelman Avenue,Effingham, IL, 62401",39.149418,-88.553526,107.0,54.0
769,769,"801 North Carico Street,",Okaw Mobile Home Court,"Tuscola, IL",61953.0,100,https://www.mhvillage.com/parks/10467,61953,"801 North Carico Street,Tuscola, IL, 61953",39.805735,-88.278051,101.0,51.0
770,770,"8040 Collinsville Road,",Mounds Mobile Home Park,"Collinsville, IL",62234.0,27,https://www.mhvillage.com/parks/29090,62234,"8040 Collinsville Road,Collinsville, IL, 62234",38.6584734,-90.0552054,112.0,56.0
771,771,"8045 Van Emmon Road,",Hide Away Lakes Mobile Home Park,"Yorkville, IL",60560.0,Not found,https://www.mhvillage.com/parks/64590,60560,"8045 Van Emmon Road,Yorkville, IL, 60560",41.6494531,-88.4123224,75.0,38.0
772,772,"806 Perrysville Ave,",Cornells Mh Park,"Danville, IL",61832.0,Not found,https://www.mhvillage.com/parks/57957,61832,"806 Perrysville Ave,Danville, IL, 61832",40.1145411,-87.6152182,104.0,52.0
773,773,"808 North Prairie View Road,",Candlewood Estates,"Mahomet, IL",61853.0,650,https://www.mhvillage.com/parks/10211,61853,"808 North Prairie View Road,Mahomet, IL, 61853",,,0.0,0.0
774,774,"81 Glen Crossing Road,","East 30 Commons MHC, LLC","Glen Carbon, IL",62034.0,95,https://www.mhvillage.com/parks/10960,62034,"81 Glen Crossing Road,Glen Carbon, IL, 62034",38.752331,-89.9660397,111.0,56.0
775,775,"8101 West 79th Street,",Chief Mobile Home Park,"Justice, IL",60458.0,165,https://www.mhvillage.com/parks/10390,60458,"8101 West 79th Street,Justice, IL, 60458",41.747505,-87.821697,31.0,16.0
776,776,"811 N Bluff Rd,",Trailer City MHP,"Collinsville, IL",62234.0,Not found,https://www.mhvillage.com/parks/57965,62234,"811 N Bluff Rd,Collinsville, IL, 62234",38.6873274,-90.0104494,112.0,56.0
777,777,"812 N 9th St,",Wilson Mobile Home Park,"Mattoon, IL",61938.0,95,https://www.mhvillage.com/parks/82,61938,"812 N 9th St,Mattoon, IL, 61938",39.4912604,-88.3643061,101.0,51.0
778,778,"815 East Oakton Street,",Town & Country,"Des Plaines, IL",60018.0,309,https://www.mhvillage.com/parks/10375,60018,"815 East Oakton Street,Des Plaines, IL, 60018",42.0235653,-87.9025656,56.0,28.0
779,779,"82 Deer Chase,",Woodland Trails,"Collinsville, IL",62234.0,287,https://www.mhvillage.com/parks/65054,62234,"82 Deer Chase,Collinsville, IL, 62234",38.6909476,-90.0042036,112.0,56.0
780,780,"820 Dorris Heights Road,",Dorris Heights Trailer Park,"Harrisburg, IL",62946.0,Not found,https://www.mhvillage.com/parks/36307,62946,"820 Dorris Heights Road,Harrisburg, IL, 62946",37.7498728,-88.5531433,117.0,59.0
781,781,"821 South Ward Street,",Western Mobile Home Park,"Macomb, IL",61455.0,Not found,https://www.mhvillage.com/parks/11039,61455,"821 South Ward Street,Macomb, IL, 61455",40.4533175,-90.6853573,71.0,36.0
782,782,"823 Belle Aire Street,",Belle Aire Estates,"Marseilles, IL",61341.0,73,https://www.mhvillage.com/parks/10745,61341,"823 Belle Aire Street,Marseilles, IL, 61341",,,0.0,0.0
783,783,"8231 Jefferson Rd,",Lazy Acres,"Freeburg, IL",62243.0,Not found,https://www.mhvillage.com/parks/11389,62243,"8231 Jefferson Rd,Freeburg, IL, 62243",38.461138,-89.881862,114.0,57.0
784,784,"826 W Madison St,",Mauks Mobile Home Court,"Girard, IL",62640.0,Not found,https://www.mhvillage.com/parks/10910,62640,"826 W Madison St,Girard, IL, 62640",39.4454668,-89.7881785,108.0,54.0
785,785,"826 West Inverness Street,",Royal Highlander MHC,"Peoria, IL",61615.0,279,https://www.mhvillage.com/parks/11153,61615,"826 West Inverness Street,Peoria, IL, 61615",40.7912081,-89.605629,73.0,37.0
786,786,"830 1st Avenue,",Mississippi Manufactured Housing Community,"East Moline, IL",61244.0,201,https://www.mhvillage.com/parks/11208,61244,"830 1st Avenue,East Moline, IL, 61244",41.526507,-90.444554,72.0,36.0
787,787,"8301 Old Saint Louis Road,",Cat & Fiddle Mobile Home Park,"Belleville, IL",62223.0,Not found,https://www.mhvillage.com/parks/11308,62223,"8301 Old Saint Louis Road,Belleville, IL, 62223",38.5494619,-90.0730462,113.0,57.0
788,788,"831 Jodi Lane,",Bill Butler Mobile Home Park,"Marion, IL",62959.0,Not found,https://www.mhvillage.com/parks/11602,62959,"831 Jodi Lane,Marion, IL, 62959",37.7188334,-88.9339668,118.0,59.0
789,789,"8327 North Knoxville Avenue,",Mt Hawley Mobile Home Park,"Peoria, IL",61615.0,Not found,https://www.mhvillage.com/parks/11151,61615,"8327 North Knoxville Avenue,Peoria, IL, 61615",40.7901326,-89.6044476,73.0,37.0
790,790,"835 West 6th Street,",Reecy's Mobile Home Park,"Kewanee, IL",61443.0,100,https://www.mhvillage.com/parks/10584,61443,"835 West 6th Street,Kewanee, IL, 61443",,,0.0,0.0
791,791,"835 Wisconsin Avenue,",Country Air Mobile Park,"Galesburg, IL",61401.0,Not found,https://www.mhvillage.com/parks/10727,61401,"835 Wisconsin Avenue,Galesburg, IL, 61401",40.9369224,-90.3335074,71.0,36.0
792,792,"836 N Randolph St,",Moon Valley Mobile Park,"Macomb, IL",61455.0,Not found,https://www.mhvillage.com/parks/57831,61455,"836 N Randolph St,Macomb, IL, 61455",40.4676436,-90.6701069,71.0,36.0
793,793,"840 Hollywood Heights Rd,",C & L Mobile Home Park,"Caseyville, IL",62232.0,Not found,https://www.mhvillage.com/parks/58027,62232,"840 Hollywood Heights Rd,Caseyville, IL, 62232",38.632716,-89.997254,112.0,56.0
794,794,"841 West Morton Avenue,",Hillcrest Mobile Home Park,"Jacksonville, IL",62650.0,Not found,https://www.mhvillage.com/parks/11107,62650,"841 West Morton Avenue,Jacksonville, IL, 62650",39.7231466,-90.2391735,99.0,50.0
795,795,"848 East Pleasant Hill Road,",Pleasant Hill Mobile Home Park,"Carbondale, IL",62902.0,Not found,https://www.mhvillage.com/parks/36151,62902,"848 East Pleasant Hill Road,Carbondale, IL, 62902",37.7004276,-89.1988656,118.0,59.0
796,796,"850 Villa Street,",Old Oaks Estates,"Elgin, IL",60120.0,264,https://www.mhvillage.com/parks/11676,60120,"850 Villa Street,Elgin, IL, 60120",42.0201237,-88.244817,43.0,22.0
797,797,"850 West Mc Allister Street,",Lakeview Mobile Home Park,"Lebanon, IL",62254.0,Not found,https://www.mhvillage.com/parks/11392,62254,"850 West Mc Allister Street,Lebanon, IL, 62254",,,0.0,0.0
798,798,"851 S Minnie St,",Terry's Rental,"Tilden, IL",62292.0,Not found,https://www.mhvillage.com/parks/107420,62292,"851 S Minnie St,Tilden, IL, 62292",,,0.0,0.0
799,799,"8528 Route 2,",Lakeview Mobile Home Park,"Byron, IL",61010.0,Not found,https://www.mhvillage.com/parks/106914,61010,"8528 Route 2,Byron, IL, 61010",,,0.0,0.0
800,800,"856 A Street,",Northmeadow Village,"Normal, IL",61761.0,274,https://www.mhvillage.com/parks/11078,61761,"856 A Street,Normal, IL, 61761",40.5348401,-88.9997311,91.0,46.0
801,801,"8574 Milbrook Road,",Crooked Tree Campground,"Millbrook, IL",60536.0,40,https://www.mhvillage.com/parks/10720,60536,"8574 Milbrook Road,Millbrook, IL, 60536",,,0.0,0.0
802,802,"861 Ridge Road,",Ely's Trailer Park,"Homewood, IL",60430.0,Not found,https://www.mhvillage.com/parks/10389,60430,"861 Ridge Road,Homewood, IL, 60430",41.5622961,-87.638013,30.0,15.0
803,803,"8619 Knoxville Road,",Paradise Manor Mobile Estates,"Milan, IL",61264.0,78,https://www.mhvillage.com/parks/11220,61264,"8619 Knoxville Road,Milan, IL, 61264",41.4331438,-90.5445329,71.0,36.0
804,804,"8649 Forest Boulevard,",Chevy Chase Mobile Home Park,"Caseyville, IL",62232.0,Not found,https://www.mhvillage.com/parks/11342,62232,"8649 Forest Boulevard,Caseyville, IL, 62232",38.6367869,-90.0474741,112.0,56.0
805,805,"87 Circle Creek Lane,",Pheasant Run Mobile Home Community,"Cahokia, IL",62206.0,123,https://www.mhvillage.com/parks/11377,62206,"87 Circle Creek Lane,Cahokia, IL, 62206",,,0.0,0.0
806,806,"8783 Canary Lane,",Parkview MHC,"Hodgkins, IL",60525.0,165,https://www.mhvillage.com/parks/10386,60525,"8783 Canary Lane,Hodgkins, IL, 60525",41.7722079,-87.8512159,21.0,11.0
807,807,"8800 South Harlem Avenue,",Rosebud,"Bridgeview, IL",60455.0,865,https://www.mhvillage.com/parks/11680,60455,"8800 South Harlem Avenue,Bridgeview, IL, 60455",41.7437769,-87.7996121,21.0,11.0
808,808,"8835 State Route 163,",Hilltop Court Mobile Home Park,"Millstadt, IL",62260.0,Not found,https://www.mhvillage.com/parks/57814,62260,"8835 State Route 163,Millstadt, IL, 62260",,,0.0,0.0
809,809,"90 The Oaks,",The Oaks MHP,"Tolono, IL",61880.0,126,https://www.mhvillage.com/parks/10241,61880,"90 The Oaks,Tolono, IL, 61880",39.9732987,-88.265947,101.0,51.0
810,810,"900 East Park Street,",Bel-Aire Mobile Home Park,"Carbondale, IL",62901.0,Not found,https://www.mhvillage.com/parks/10600,62901,"900 East Park Street,Carbondale, IL, 62901",37.7158367,-89.2034805,118.0,59.0
811,811,"900 Lincoln St,",Sharp's Mobile Home Park,"Auburn, IL",62615.0,37,https://www.mhvillage.com/parks/11234,62615,"900 Lincoln St,Auburn, IL, 62615",39.597435,-89.749859,108.0,54.0
812,812,"900 Maple St,",Pohlmans Mobile Home Court,"Carrollton, IL",62016.0,Not found,https://www.mhvillage.com/parks/58035,62016,"900 Maple St,Carrollton, IL, 62016",39.298727,-90.414052,100.0,50.0
813,813,"900 South Camp Avenue,",J & J Mobile Home Park,"Olney, IL",62450.0,Not found,https://www.mhvillage.com/parks/11201,62450,"900 South Camp Avenue,Olney, IL, 62450",38.721379,-88.087458,110.0,55.0
814,814,"900 W Central Ave,",Horizon Estates Mh Park,"Thomasboro, IL",61878.0,Not found,https://www.mhvillage.com/parks/57666,61878,"900 W Central Ave,Thomasboro, IL, 61878",40.238857,-88.195554,104.0,52.0
815,815,"900 W Walnut St,",Wagon Wheel Mobile Home Ranch,"Canton, IL",61520.0,Not found,https://www.mhvillage.com/parks/58053,61520,"900 W Walnut St,Canton, IL, 61520",,,0.0,0.0
816,816,"900 Washington St,",Washington Square Mhc Inc,"Lacon, IL",61540.0,33,https://www.mhvillage.com/parks/70201,61540,"900 Washington St,Lacon, IL, 61540",41.0167391,-89.4115007,105.0,53.0
817,817,"9001 South Cicero Avenue,",Airway Manufactured Housing Community,"Oak Lawn, IL",60453.0,268,https://www.mhvillage.com/parks/10410,60453,"9001 South Cicero Avenue,Oak Lawn, IL, 60453",41.729043,-87.740985,31.0,16.0
818,818,"901 Macomb,",Eggers & Husband Mobile Home Park,"Colchester, IL",62326.0,Not found,https://www.mhvillage.com/parks/36302,62326,"901 Macomb,Colchester, IL, 62326",40.429047,-90.782507,94.0,47.0
819,819,"901 Regan Road,",Riverside Mobile Estates,"Rock Falls, IL",61071.0,400,https://www.mhvillage.com/parks/11552,61071,"901 Regan Road,Rock Falls, IL, 61071",41.774852,-89.741186,74.0,37.0
820,820,"902 North Delmar Avenue,",Hartford Mobile Home Park,"Hartford, IL",62048.0,Not found,https://www.mhvillage.com/parks/10978,62048,"902 North Delmar Avenue,Hartford, IL, 62048",38.8410485,-90.0955431,111.0,56.0
821,821,"904 21st Street,",Lincoln Terrace,"Lincoln, IL",62656.0,110,https://www.mhvillage.com/parks/10868,62656,"904 21st Street,Lincoln, IL, 62656",40.161432,-89.382571,87.0,44.0
822,822,"905 East 3rd Ave,",Whispering Hills,"Coal Valley, IL",61240.0,50,https://www.mhvillage.com/parks/11671,61240,"905 East 3rd Ave,Coal Valley, IL, 61240",41.4499749,-90.4512548,71.0,36.0
823,823,"9051 Bucks Rd,",Highway Inn Trailer Court,"Heyworth, IL",61745.0,Not found,https://www.mhvillage.com/parks/107266,61745,"9051 Bucks Rd,Heyworth, IL, 61745",,,0.0,0.0
824,824,"9070 North Dresden Drive,",Dresden Acres,"Morris, IL",60450.0,Not found,https://www.mhvillage.com/parks/10556,60450,"9070 North Dresden Drive,Morris, IL, 60450",,,0.0,0.0
825,825,"909 South Mclean Boulevard,",Bueche's Mobile Home Park,"Elgin, IL",60123.0,Not found,https://www.mhvillage.com/parks/36384,60123,"909 South Mclean Boulevard,Elgin, IL, 60123",42.0218766,-88.3125218,49.0,25.0
826,826,"911 Crookedstick Court,",Oakbrook Estates,"Crystal Lake, IL",60014.0,400,https://www.mhvillage.com/parks/11041,60014,"911 Crookedstick Court,Crystal Lake, IL, 60014",,,0.0,0.0
827,827,"913 Macomb St,",Pine,"Colchester, IL",62326.0,Not found,https://www.mhvillage.com/parks/106846,62326,"913 Macomb St,Colchester, IL, 62326",40.429122,-90.782261,94.0,47.0
828,828,"913 North Taylorville Boulevard,",Taylorville's Valley View Mobile Home Park,"Taylorville, IL",62568.0,65,https://www.mhvillage.com/parks/10276,62568,"913 North Taylorville Boulevard,Taylorville, IL, 62568",,,0.0,0.0
829,829,"917 Glen Forest Drive,",Phil-Aire Estates,"Machesney Park, IL",61115.0,Not found,https://www.mhvillage.com/parks/36471,61115,"917 Glen Forest Drive,Machesney Park, IL, 61115",42.387735,-89.0300086,90.0,45.0
830,830,"92 Four Seasons Est,",Four Seasons Mobile Home Park,"Effingham, IL",62401.0,150,https://www.mhvillage.com/parks/10495,62401,"92 Four Seasons Est,Effingham, IL, 62401",,,0.0,0.0
831,831,"921 SE 2nd St,",Sentry Estates,"Galva, IL",61434.0,Not found,https://www.mhvillage.com/parks/57897,61434,"921 SE 2nd St,Galva, IL, 61434",,,0.0,0.0
832,832,"925 Main Street,",Gianni Mobile Home Park,"Crete, IL",60417.0,Not found,https://www.mhvillage.com/parks/11560,60417,"925 Main Street,Crete, IL, 60417",41.4589332,-87.6336299,80.0,40.0
833,833,"925 S Main St,",Bateman Trailer Court,"Clay City, IL",62824.0,Not found,https://www.mhvillage.com/parks/57991,62824,"925 S Main St,Clay City, IL, 62824",38.6776769,-88.3541354,110.0,55.0
834,834,"93 N. 3530E Road,",Skyview Estates,"Kankakee, IL",60901.0,28,https://www.mhvillage.com/parks/103599,60901,"93 N. 3530E Road,Kankakee, IL, 60901",,,0.0,0.0
835,835,"9300 W. 79th St.,",Sterling Estates,"Justice, IL",60458.0,807,https://www.mhvillage.com/parks/10391,60458,"9300 W. 79th St.,Justice, IL, 60458",41.7475607,-87.8237126,31.0,16.0
836,836,"9305 North 2nd Street,",Rainbow Lane Mobile Home Court,"Machesney Park, IL",61115.0,Not found,https://www.mhvillage.com/parks/11637,61115,"9305 North 2nd Street,Machesney Park, IL, 61115",42.3619086,-89.038649,90.0,45.0
837,837,"932 East County Road 750 North,",Prairie View Acres,"Tuscola, IL",61953.0,26,https://www.mhvillage.com/parks/37534,61953,"932 East County Road 750 North,Tuscola, IL, 61953",,,0.0,0.0
838,838,"9568 Wabash 10 Avenue,",Perry's Mobile Home Park,"Mount Carmel, IL",62863.0,Not found,https://www.mhvillage.com/parks/11510,62863,"9568 Wabash 10 Avenue,Mount Carmel, IL, 62863",,,0.0,0.0
839,839,"9581 Pine Drive,",Valley Vista Estates,"Lyndon, IL",61261.0,100,https://www.mhvillage.com/parks/11545,61261,"9581 Pine Drive,Lyndon, IL, 61261",41.7229979,-89.9130323,73.0,37.0
840,840,"970 Green Wing Road,",O'Connell's RV Resort,"Amboy, IL",61310.0,636,https://www.mhvillage.com/parks/10838,61310,"970 Green Wing Road,Amboy, IL, 61310",,,0.0,0.0
841,841,"973 County Road 2250,",Neighbors of Hickory Hill,"Secor, IL",61771.0,Not found,https://www.mhvillage.com/parks/129184,61771,"973 County Road 2250,Secor, IL, 61771",,,0.0,0.0
842,842,"98 White Oak Drive,",Heather Lynn Estates,"New Baden, IL",62265.0,64,https://www.mhvillage.com/parks/52185,62265,"98 White Oak Drive,New Baden, IL, 62265",38.5386125,-89.7103084,114.0,57.0
843,843,"9800 Joliet Rd.,",Country Club Woods,"Countryside, IL",60525.0,310,https://www.mhvillage.com/parks/29162,60525,"9800 Joliet Rd.,Countryside, IL, 60525",41.7762527,-87.8733323,8.0,4.0
844,844,"9825 Us Highway 136,",Country Aire Estates,"Macomb, IL",61455.0,50,https://www.mhvillage.com/parks/11029,61455,"9825 Us Highway 136,Macomb, IL, 61455",,,0.0,0.0
845,845,"Alex & Eddie Street,",E & S Mobile Home Park,"East Carondelet, IL",62240.0,Not found,https://www.mhvillage.com/parks/11353,62240,"Alex & Eddie Street,East Carondelet, IL, 62240",,,0.0,0.0
846,846,"Alexander Road,",Alexander Estates,"Bloomington, IL",61704.0,330,https://www.mhvillage.com/parks/11051,61704,"Alexander Road,Bloomington, IL, 61704",40.4653774,-89.0207146,91.0,46.0
847,847,"Bayadier Dr,",Lake Pana MH Court,"Pana, IL",62557.0,Not found,https://www.mhvillage.com/parks/107240,62557,"Bayadier Dr,Pana, IL, 62557",39.3788894,-89.0348014,107.0,54.0
848,848,"Blacks Lane,",Prairie Knolls,"Jacksonville, IL",62650.0,163,https://www.mhvillage.com/parks/11112,62650,"Blacks Lane,Jacksonville, IL, 62650",,,0.0,0.0
849,849,"Briar Lane,",The Grove Mobile Home Pak,"Princeton, IL",61356.0,43,https://www.mhvillage.com/parks/10175,61356,"Briar Lane,Princeton, IL, 61356",41.3779114,-89.4877303,73.0,37.0
850,850,"Casey St Lot W,",West Haven Mobile Home Park,"Woodlawn, IL",62898.0,Not found,https://www.mhvillage.com/parks/57621,62898,"Casey St Lot W,Woodlawn, IL, 62898",,,0.0,0.0
851,851,"Catherin,",Oak View Mobile Home Park,"Altamont, IL",62411.0,Not found,https://www.mhvillage.com/parks/10492,62411,"Catherin,Altamont, IL, 62411",,,0.0,0.0
852,852,"Central St,",Highland Acres Village,"Chester, IL",62233.0,90,https://www.mhvillage.com/parks/11178,62233,"Central St,Chester, IL, 62233",37.9250128,-89.8294366,115.0,58.0
853,853,"Chestnut &Amp; Yates,",Tallula Trailer Court,"Tallula, IL",62688.0,Not found,https://www.mhvillage.com/parks/107120,62688,"Chestnut &Amp; Yates,Tallula, IL, 62688",,,0.0,0.0
854,854,"Coal City Rd,",Shadow Lakes - Tully Monster Village,"Wilmington, IL",60481.0,Not found,https://www.mhvillage.com/parks/127512,60481,"Coal City Rd,Wilmington, IL, 60481",41.289987,-88.1834884,80.0,40.0
855,855,"County Rd 1600 N,",Cooper Estates,"Seymour, IL",61875.0,16,https://www.mhvillage.com/parks/11720,61875,"County Rd 1600 N,Seymour, IL, 61875",,,0.0,0.0
856,856,"Cr 800,",Maple Crest Subdivision,"Manito, IL",61546.0,300,https://www.mhvillage.com/parks/11018,61546,"Cr 800,Manito, IL, 61546",40.405669,-89.7718452,94.0,47.0
857,857,"Daralen Drive,",Harlow Mobile Home Park,"Marshall, IL",62441.0,75,https://www.mhvillage.com/parks/29205,62441,"Daralen Drive,Marshall, IL, 62441",,,0.0,0.0
858,858,"Davis St,",Cedar Park,"Keyesport, IL",62253.0,Not found,https://www.mhvillage.com/parks/107056,62253,"Davis St,Keyesport, IL, 62253",38.737984,-89.274558,110.0,55.0
859,859,"Davis,",Countryside Estates,"Mackinaw, IL",61755.0,46,https://www.mhvillage.com/parks/11441,61755,"Davis,Mackinaw, IL, 61755",40.5320512,-89.3412007,87.0,44.0
860,860,"E 2750th Road & Center Street,",Countryside Estates MHP,"Sandwich, IL",60548.0,63,https://www.mhvillage.com/parks/10441,60548,"E 2750th Road & Center Street,Sandwich, IL, 60548",,,0.0,0.0
861,861,"E 5th St,",Hutchings Mobile Home Park,"Trenton, IL",62293.0,Not found,https://www.mhvillage.com/parks/106978,62293,"E 5th St,Trenton, IL, 62293",38.609699,-89.6801167,109.0,55.0
862,862,"E 7th St,",HTC MHP,"Neoga, IL",62447.0,Not found,https://www.mhvillage.com/parks/107084,62447,"E 7th St,Neoga, IL, 62447",39.3189725,-88.4472303,107.0,54.0
863,863,"E Edwards And Drury St,",Joy Trailer Park,"Joy, IL",61260.0,Not found,https://www.mhvillage.com/parks/107052,61260,"E Edwards And Drury St,Joy, IL, 61260",,,0.0,0.0
864,864,"East Cumberland,",Greenup Mobile Home Park,"Greenup, IL",62428.0,Not found,https://www.mhvillage.com/parks/107012,62428,"East Cumberland,Greenup, IL, 62428",39.2486713,-88.1595467,102.0,51.0
865,865,"East Monroe,",Starwalt Enterprises MHP,"Toledo, IL",62468.0,Not found,https://www.mhvillage.com/parks/107108,62468,"East Monroe,Toledo, IL, 62468",,,0.0,0.0
866,866,"Eastern Dr,",Eastern Drive Park,"Gridley, IL",61744.0,Not found,https://www.mhvillage.com/parks/106996,61744,"Eastern Dr,Gridley, IL, 61744",40.7408345,-88.8743275,105.0,53.0
867,867,"Ellis &Amp; Drew Sts,",Shady Acres Mobile Home Park,"Summerfield, IL",62289.0,Not found,https://www.mhvillage.com/parks/107366,62289,"Ellis &Amp; Drew Sts,Summerfield, IL, 62289",,,0.0,0.0
868,868,"Fairgrounds Rd,",Fairveiw Estates,"Vienna, IL",62995.0,20,https://www.mhvillage.com/parks/126106,62995,"Fairgrounds Rd,Vienna, IL, 62995",37.4226658,-88.8995153,117.0,59.0
869,869,"Fairview Trailer Court,",Fairview Mobile Home Park,"Taylorville, IL",62568.0,20,https://www.mhvillage.com/parks/10275,62568,"Fairview Trailer Court,Taylorville, IL, 62568",39.5519104,-89.3122622,107.0,54.0
870,870,"Foster St,",Newton Mobile Home Park,"Newton, IL",62448.0,Not found,https://www.mhvillage.com/parks/107008,62448,"Foster St,Newton, IL, 62448",38.983888,-88.1741992,102.0,51.0
871,871,"Girard &Amp; Spring St,",Belden Enterprises Mobile Home Park,"Saint Elmo, IL",62458.0,Not found,https://www.mhvillage.com/parks/107274,62458,"Girard &Amp; Spring St,Saint Elmo, IL, 62458",,,0.0,0.0
872,872,"Grace Dr,",South Park,"Bloomington, IL",61704.0,38,https://www.mhvillage.com/parks/129761,61704,"Grace Dr,Bloomington, IL, 61704",40.4497003,-88.9877852,88.0,44.0
873,873,"Haydn's Dr,",Grand Oaks,"Metropolis, IL",62960.0,Not found,https://www.mhvillage.com/parks/107018,62960,"Haydn's Dr,Metropolis, IL, 62960",,,0.0,0.0
874,874,"Haydn's Dr,",Green Oaks,"Metropolis, IL",62960.0,Not found,https://www.mhvillage.com/parks/107016,62960,"Haydn's Dr,Metropolis, IL, 62960",,,0.0,0.0
875,875,"Highway 104,",Kemmerling,"Kincaid, IL",62540.0,Not found,https://www.mhvillage.com/parks/107142,62540,"Highway 104,Kincaid, IL, 62540",,,0.0,0.0
876,876,"Jefferson St,",Heights,"Humboldt, IL",61931.0,14,https://www.mhvillage.com/parks/10319,61931,"Jefferson St,Humboldt, IL, 61931",39.6046711,-88.3192409,101.0,51.0
877,877,"Main St And Orange St,",Heartland Properties MHP,"El Paso, IL",61738.0,Not found,https://www.mhvillage.com/parks/107232,61738,"Main St And Orange St,El Paso, IL, 61738",,,0.0,0.0
878,878,"Main,",Rock Park,"Urbana, IL",61801.0,15,https://www.mhvillage.com/parks/10260,61801,"Main,Urbana, IL, 61801",40.1046808,-88.22899,103.0,52.0
879,879,"N Belt W &Amp; N Illinois St,",McDonald Mobile Homes & RV,"Swansea, IL",62226.0,73,https://www.mhvillage.com/parks/127652,62226,"N Belt W &Amp; N Illinois St,Swansea, IL, 62226",,,0.0,0.0
880,880,"North Park Street,",Carter Mobile Home Park,"Wilmington, IL",60481.0,Not found,https://www.mhvillage.com/parks/11584,60481,"North Park Street,Wilmington, IL, 60481",41.308209,-88.1496011,80.0,40.0
881,881,"North Park Street,",Riverside West Manufactured Homes,"Wilmington, IL",60481.0,11,https://www.mhvillage.com/parks/126080,60481,"North Park Street,Wilmington, IL, 60481",41.308209,-88.1496011,80.0,40.0
882,882,"North Third Street,",Iva Belle Mobile Home Park,"Altamont, IL",62411.0,Not found,https://www.mhvillage.com/parks/106614,62411,"North Third Street,Altamont, IL, 62411",,,0.0,0.0
883,883,"Oak St,",Candle Lite Mobile Home Park,"Forreston, IL",61030.0,Not found,https://www.mhvillage.com/parks/107022,61030,"Oak St,Forreston, IL, 61030",42.126516,-89.5758202,89.0,45.0
884,884,"Oliver St And Connor St,",Bluff View Mobile Home Park,"Prairie Du Rocher, IL",62277.0,Not found,https://www.mhvillage.com/parks/107180,62277,"Oliver St And Connor St,Prairie Du Rocher, IL, 62277",,,0.0,0.0
885,885,"Park St,",Park Street Mobile Home Park,"Central City, IL",62801.0,Not found,https://www.mhvillage.com/parks/107034,62801,"Park St,Central City, IL, 62801",,,0.0,0.0
886,886,"Periwinkle  Circle,",Sycamore Glen,"Belleville, IL",62220.0,Not found,https://www.mhvillage.com/parks/127582,62220,"Periwinkle  Circle,Belleville, IL, 62220",38.4957014,-89.9654348,113.0,57.0
887,887,"Poplar Street,",Ludlow Mobile Home Park,"Ludlow, IL",60949.0,11,https://www.mhvillage.com/parks/10210,60949,"Poplar Street,Ludlow, IL, 60949",40.3872021,-88.1235845,101.0,51.0
888,888,"Quiet Point Rd,",Quiet Point Village,"Caseyville, IL",62232.0,Not found,https://www.mhvillage.com/parks/106936,62232,"Quiet Point Rd,Caseyville, IL, 62232",,,0.0,0.0
889,889,"R 45 & Grove St,",Adams Mobile Home Park,"Eldorado, IL",62930.0,Not found,https://www.mhvillage.com/parks/107030,62930,"R 45 & Grove St,Eldorado, IL, 62930",37.8138057,-88.4303497,117.0,59.0
890,890,"R.r. 2 -Il Route 51,",Ridgeview Mobile Home Park,"South Clinton, IL",61727.0,Not found,https://www.mhvillage.com/parks/107062,61727,"R.r. 2 -Il Route 51,South Clinton, IL, 61727",,,0.0,0.0
891,891,"Route 45 And East Chestnut St.,",Paxton MHC,"Paxton, IL",60957.0,Not found,https://www.mhvillage.com/parks/106924,60957,"Route 45 And East Chestnut St.,Paxton, IL, 60957",,,0.0,0.0
892,892,"Rr 1 Box 110,",South Cooksville Mobile Home Park,"Cooksville, IL",61730.0,9,https://www.mhvillage.com/parks/11063,61730,"Rr 1 Box 110,Cooksville, IL, 61730",,,0.0,0.0
893,893,"Rr 1,",Holders Mobile Home Park,"Pinckneyville, IL",62274.0,40,https://www.mhvillage.com/parks/11164,62274,"Rr 1,Pinckneyville, IL, 62274",38.0803286,-89.3820321,115.0,58.0
894,894,"Rr 1,",Rensing Mobile Home Park,"New Baden, IL",62265.0,Not found,https://www.mhvillage.com/parks/57782,62265,"Rr 1,New Baden, IL, 62265",,,0.0,0.0
895,895,"Rte 104 E,",Pawnee Mobile Home Park,"Pawnee, IL",62558.0,38,https://www.mhvillage.com/parks/11244,62558,"Rte 104 E,Pawnee, IL, 62558",39.5922166,-89.5721981,108.0,54.0
896,896,"Rural Route #Q,",Huffman Mobile Home Park,"Midland City, IL",61727.0,Not found,https://www.mhvillage.com/parks/107070,61727,"Rural Route #Q,Midland City, IL, 61727",,,0.0,0.0
897,897,"S Poplar St,",Big Oak,"De Soto, IL",62924.0,Not found,https://www.mhvillage.com/parks/107236,62924,"S Poplar St,De Soto, IL, 62924",37.8153705,-89.2238105,118.0,59.0
898,898,"S Walnut St,",Cardinal Estates,"Freeburg, IL",62243.0,Not found,https://www.mhvillage.com/parks/11385,62243,"S Walnut St,Freeburg, IL, 62243",38.4251985,-89.9159042,114.0,57.0
899,899,"S. Banker (S. Rt 45),",Easy Breeze Mobile Home Park,"Effingham, IL",62401.0,90,https://www.mhvillage.com/parks/10494,62401,"S. Banker (S. Rt 45),Effingham, IL, 62401",,,0.0,0.0
900,900,"Saint Anthony Road,",Halfpap Mobile Home Park,"Quincy, IL",62301.0,50,https://www.mhvillage.com/parks/10129,62301,"Saint Anthony Road,Quincy, IL, 62301",,,0.0,0.0
901,901,"Sheridan Center-West St,",Westview Manor,"Seymour, IL",61875.0,Not found,https://www.mhvillage.com/parks/107058,61875,"Sheridan Center-West St,Seymour, IL, 61875",,,0.0,0.0
902,902,"South Commercial St,",El Paso Mobile Home Court,"El Paso, IL",61738.0,Not found,https://www.mhvillage.com/parks/106962,61738,"South Commercial St,El Paso, IL, 61738",40.7352735,-89.0143551,105.0,53.0
903,903,"South Emmett St,",Virden Village Mobile Home Park,"Virden, IL",62690.0,Not found,https://www.mhvillage.com/parks/107112,62690,"South Emmett St,Virden, IL, 62690",,,0.0,0.0
904,904,"St Rte 53,",Stateville Court Federal Employee Community,"Joliet, IL",60435.0,Not found,https://www.mhvillage.com/parks/11578,60435,"St Rte 53,Joliet, IL, 60435",,,0.0,0.0
905,905,"Sucker Road,",Benson Mobile Home Park,"Mazon, IL",60444.0,14,https://www.mhvillage.com/parks/11667,60444,"Sucker Road,Mazon, IL, 60444",,,0.0,0.0
906,906,"Timberline Road,",Yogi Bear Jellystone Campground,"Goodfield, IL",61742.0,Not found,https://www.mhvillage.com/parks/11657,61742,"Timberline Road,Goodfield, IL, 61742",40.6445644,-89.2580699,91.0,46.0
907,907,"Waymire Ln,",Waymire Mobile Home Park,"Villa Grove, IL",61956.0,Not found,https://www.mhvillage.com/parks/107196,61956,"Waymire Ln,Villa Grove, IL, 61956",,,0.0,0.0
908,908,"West Dr,",Jim Davis Mobile Home Park,"Carmi, IL",62821.0,28,https://www.mhvillage.com/parks/27865,62821,"West Dr,Carmi, IL, 62821",38.0890682,-88.1823355,116.0,58.0
909,909,"Zachary Court,",Girard Mobile Home Estates,"Girard, IL",62640.0,27,https://www.mhvillage.com/parks/10909,62640,"Zachary Court,Girard, IL, 62640",39.4456635,-89.7931609,108.0,54.0
